ref:mise;name;operator;address;latitude;longitude
52017;EUROPAM S.P.A. - ANGHIARI;EUROPAM S.P.A.;VIA PROVINCIALE LIBBIA \t 26 52031;43.54227898342549;12.055464510136348
34692;luca viviani;esso viviani;VIA LIBBIA KM. 5 + 392 . 52031;43.550305303543844;12.079463079571724
44530;_LATO EST;_LATO EST;73 Senese Aretina, Km. 162, Est - ;43.47295419779255;12.055118083953857
44531;_Lato Ovest;_Lato Ovest;73 Senese Aretina, Km. 162, Ovest - ;43.47309434397329;12.054409980773926
5455;34601 BATTIFOLLE;BATTIFOLLE;Strada Statale 679 Loc. Battifolle Km 7 + 480  52100;43.43977299664931;11.783466004962975
51863;4656 – Arezzo;PV 4656 – Arezzo;Via Vittorio Veneto, 165  52100;43.45533445156062;11.871353372859971
40021;52166;GESTIONI INNOVATIVE ITALIA S.R.L.;VIA C. COLOMBO 0 52100;43.455339702102975;11.867830082774162
46476;arezzo;CORO S.R.L.;VIALE SANTA MARGHERITA  52100;43.47328429700239;11.879178311045052
20673;Arezzo;"IP SERVICES S.R.L.";Via Marco Perennio 69/2 52100;43.46941422003049;11.87035471200943
24779;AREZZO - DAL BORRO;"IP SERVICES S.R.L.";VIA DAL BORRO  52100;43.46460389349198;11.868141574239758
30633;AREZZO - MARCO PERENNIO 44/E;"IP SERVICES S.R.L.";VIA MARCO PERENNIO 44/E 52100;43.46920794160213;11.872745541000313
32958;AREZZO - POLICIANO SR 71;"IP SERVICES S.R.L.";VIA POLICIANO SR 71  52020;43.38305321513474;11.86049807605741
5268;Arezzo - Setteponti;Arezzo - Setteponti;VIA SETTEPONTI 41 52100;43.47720905364789;11.868378938622982
50989;AREZZO BATTIFOLLE;SIRTAM S.P.A.;679 Arezzo-Battifolle, Km. 7+489, AREZZO - 52100;43.43926332673501;11.783396114301054
7610;AREZZO P.PERO;DRIVE SERVICE S.R.L.; SS73 KM 155+677 SNC 52100;43.42322344552082;11.976917535066605
50440;AREZZO PESCAIOLA;SIRTAM S.P.A.;S.P. 21 DI PESCAIOLA - LOC SAN GIULIANO  52100;43.456289523084585;11.808209513753004
28520;AREZZO SAN GIULIANO;STAR SERVICE S.R.L.;Statale 679 Arezzo-Battifolle, Km. 4+830, dir. AUTOSTRADA - 52100;43.45420086501424;11.808430552482605
50442;AREZZO SAN MARCO;SIRTAM S.P.A.;S.S.73 SENESE ARETINA  52100;43.44600013879962;11.866257832203226
51177;Arezzo SP71 UMBRO CASENTINESE ;Arezzo SP71 UMBRO CASENTINESE ;SR 71 Umbro Casentinese Romagnola Km 150+900 52011;43.48768593391696;11.875632327471921
35054;AREZZO STAZIONE;STAR SERVICE S.R.L.;Statale 679 Arezzo-Battifolle, Km. 5+728, dir. A1 - 52100;43.448409190476234;11.80069237947464
6593;AREZZO VIA DANTE - P.V. Q8;SERVIZI & GESTIONI ITALIA srl;VIA DANTE - P.V. Q8 SNC 52100;43.44885856272305;11.86065208650814
23558;AREZZO VIA FIORENTINA 228;SERVIZI & GESTIONI ITALIA S.R.L.;VIA FIORENTINA 228 52100;43.47169125089051;11.859490716146865
33824;Arezzo Via Tarlati;RETITALIA  S.P.A.;VIA TARLATI 0 52100;43.469112692344;11.889240145683289
11466;AREZZO-VIA BENEDETTO CROCE;SERVIZI & GESTIONI ITALIA S.R.L.;VIA BENEDETTO CROCE S/N 52100;43.46283438436462;11.848567128181458
11467;AREZZO-VIA BENEDETTO DA MAIANO;SERVIZI & GESTIONI ITALIA S.R.L.;VIA BENEDETTO DA MAIANO S/N 52100;43.453753269730676;11.88547317790983
11464;AREZZO-VIA ROMANA SS. 71;SERVIZI & GESTIONI ITALIA S.R.L.;VIA ROMANA SS. 71 S/N 52100;43.44515442276784;11.858509212303147
55586;BEYFIN;BEYFIN;Raccordo Autostradale km. 6+250 - Loc. Le Fosse  52100;43.44504;11.7965902
46815;BEYFIN ;BEYFIN ;via Buonconte da Montefeltro 45 52100;43.47853646966633;11.886061591977068
54037;BEYFIN SAN LEO;BEYFIN SAN LEO;S.S. 69 DEL VALDARNO KM 62 SNC 52100;43.47619770143751;11.832479690725874
51650;ENI;ENI; via fiorentina 63 52100;43.470589235567076;11.865305879710911
5333;ENICAFE;LAURENZI ERMANNO;Statale 71 Umbro Casentinese Romagnola, Km. 141, dir. PERUGIA - 52100;43.41671885331177;11.848218441009521
55806;ESSO ;ESSO ;ARETINA NORD 40 52100;43.41272;11.80237
43394;ESSO AREZZO - SITORNI;PAD MULTIENERGY S.P.A;Via Umbro Casentinese - Fraz. Giovi - Loc. Sitorni  52100;43.510756653063474;11.8712063412376
55245;ESSO AREZZO SS 73 SENESA ARETINA KM141+462 LOC. SAN MARCO;PAD MULTIENERGY S.P.A;SS 73 KM 141+642 LOC. S.MARCO 0 52100;43.445717999999999;11.867008999999999
24059;ESSO di Arturi Maurizio;ARTURI MAURIZIO;Via Romana - Loc. San Lazzaro  52100;43.44622052742819;11.85983605287322
51496;ESSO STADIO;MARITATO GIANCARLO;SIMONE MARTINI SNC 52100;43.44928155996286;11.890844106674194
40312;EUROPAM - AREZZO;EUROPAM S.R.L.;LOCALITA' DOCCIA RONDINE  52100;43.5082160028992;11.785018891096115
53782;F.LLI MAZZI SRL;F.LLI MAZZI SRL;VIALE MECENATE 81/A 52100;43.452021653026215;11.880088448524475
12155;F.LLI MAZZI SRL;F.LLI MAZZI SRL;VIALE MECENATE 81/A 52100;43.452021653026215;11.880088448524475
23969;IMPIANTO ENI BARACCHI STEFANO;BARACCHI STEFANO;VIA SETTEPONTI 356 52100;43.49732733694601;11.829856038093567
26932;IP;A.G.A. S.N.C. DI ANGIUS ALESSANDRO & C.; S.R. 71 - RIGUTINO/OTTAVO T 52100;43.368602773723886;11.879401803016663
10758;IP;IP;VIA GUIDO TARLATI 175 52100;43.468228345194284;11.890795826911926
55239;IP Rigutino;IP Rigutino;SAN JACOPO 294 52100;43.368869510504425;11.879181861877441
35397;MYOIL;CHERICI SIMONE E GIANNOTTI ELENA & C. S.N.C.;VIA A. FLEMING SNC 52100;43.469432907313106;11.853665336966515
51651;paolo pratesi;paolo pratesi;case nuove di ceciliano,16 16 52100;43.49197333409652;11.87521219253536
30217;PV 4684;GESTIONI INNOVATIVE ITALIA S.R.L.;VIA TURATI - LOC.PASCIONE SNC 52100;43.48021878079349;11.868757456541061
45701;SHELL AREZZO - V. ANCONETANA;PAD MULTIENERGY S.P.A;Via Anconetana 102 52100;43.45834181300573;11.901006514993828
55202;SHELL AREZZO VIA ROMANA LOC. SAN LAZZARO;PAD MULTIENERGY S.P.A;ROMANA LOC. S. LAZZARO SNC 52100;43.4448977;11.8580303
46342;STAZIONE DI SERVIZIO IP INDICATORE;MANCINI SASCIA;VIA CASSIA LOC. INDICATORE  SNC 52100;43.47097478191398;11.814084649085999
10357;Stazione di Servizio Tamoil;DANESI GIUSEPPE & INNOCENTI ELIO S.N.C.;Via Galileo Ferraris 7 52100;43.46775219780616;11.85098648071289
55930;SUPERGAS;SUPERGAS;VIALE SANTA MARGHERITA  52100;43.47551;11.87872
40087;GALLI ILVA;GALLI ILVA;VIA RICCI 34/A 52032;43.70403046928737;12.187297940254211
4214;AREA DI SERVIZIO LECHIANE;AREA DI SERVIZIO LE CHIANE DI LODDI DAVID E SPINOSO MICHELE & C. S.N.C.;VIA BUONCONTE DA MONTEFELTRO 9 52011;43.69424176833497;11.802805598384566
48970;BIBBIENA CARBURANTI;BIBBIENA CARBURANTI;VIA LOC. PALAZZETTO 0 52011, BIBBIENA (AR) SNC 52011;43.70187725169301;11.804056880538951
11468;BIBBIENA-LOC. PIANACCI 8 SS 71;SERVIZI & GESTIONI ITALIA S.R.L.;LOC. PIANACCI SS 71 8 52011;43.71788587052159;11.808961629867554
7089;C. & C. DISTRIBUZIONE CARBURANTI DI CECCONI E CORDOVANI SNC;C. & C. DISTRIBUZIONE CARBURANTI DI CECCONI E CORDOVANI SNC;VIA NAZIONALE  52010;43.7309519611638;11.811676025390625
47427;ESSO BIBBIENA SS.71 Km 179+602;PAD MULTIENERGY S.P.A;SS.71 KM 179+602 BIBBIENA SCALO  51022;43.699080381431614;11.810535159027346
13757;zavagli snc di zavagli gianni e c.;ZAVAGLI S.N.C. DI ZAVAGLI GIANNI E C.;VIA UMBRO CASENTINESE  138 52011;43.698274173742604;11.810502483317237
36479;BUCINE;STAR SERVICE S.R.L.;S.P. 540 DI VAL D 'AMBRA  52021;43.47564318496342;11.617873013019562
38414;OILFIN s.r.l. - BUCINE;OILFIN S.R.L.;VIA PRIMO MAGGIO  134 52021;43.43570712821327;11.653240889549238
15936;ALFA CARBURANTI;ALFA CARBURANTI;VIA DANTE ALIGHIERI 74/B 52010;43.565060370919866;11.862675763376615
50352;4614 – Rassina;ENI FUEL S.P.A.;SS 71 LOC.RASSINA  52016;43.63957251663484;11.837701836115937
53095;6881;T.D.M. S.R.L.;UMBRO CASENTINESE SNC 52016;43.662831;11.840828
34838;Stazione di servizio esso cheli snc;CHELI S.N.C. DI MATTEO CHELI & C.;VIA PALMIRO TOGLIATTI 16 52018;43.74531150867291;11.710605327647386
21575;ANGELILLO F. & C. S.N.C.;ANGELILLO F. & C. S.N.C.;VIA FIORENTINA   52026;43.62324643041301;11.507076993584633
52640;Taddeucci auto snc;Taddeucci auto snc;ALCIDE DE GASPERI 47 52026;43.63886209463507;11.540301973107944
47373;Stazione di Servizio Esso;PETROL CAST S.R.L.;Via Setteponti, 1/R 1/R 52029;43.52241965074751;11.76792511213197
50448;CASTIGLION FIORENTINO;SIRTAM S.P.A.;VIA SERRISTORI  34 52043;43.34356569518536;11.907880281535173
6594;CASTIGLION FIORENTINO S.S.71 UMBRO CASENTINESE 159;SERVIZI & GESTIONI ITALIA srl;S.S.71 UMBRO CASENTINESE 159 52043;43.33381672231936;11.923259943723679
12226;F.LLI MILIGHETTI SNC;F.LLI MILIGHETTI S.N.C. DI MILIGHETTI MARINO E LIDO & C.;VIA ARETINA 117 52043;43.35040956219107;11.907621134918145
8336;STAZIONE DI SERVIZIO AGIP CAFE 4653 SNC;STAZIONE SERVIZIO AGIP CAFE' 4653 S.N.C. DI MARCHESINI E SOGGETTI;VIA UMBRO-CASENTINESE 120/122A 52043;43.34138828754621;11.91654771566391
24387;CAVRIGLIA;CAVRIGLIA;VIA EUROPA 1 52022;43.525341132299815;11.487569957971573
14440;mugnai marco ;MUGNAI MARCO;VIA G. CASINI 1 52022;43.54275925780419;11.451942846179008
46859;Stazione di servizio PGV di Baldi A. SAS;STAZIONE DI SERVIZIO PGV DI BALDI A. SAS;via delle miniere  fraz. Meleto  4 52022;43.56109337050119;11.464567256722603
35354;AELLE SERVICE DI LAGARINI ALESSANDRO;AELLE SERVICE DI LAGARINI ALESSANDRO;VIA ROMA 47 52010;43.69728337125584;11.936736032366753
55530;M.P.;M.P.;ROMA 47 52010;43.693693833367796;11.938018798828125
53882;UZUNI IGLI;UZUNI IGLI;NAZIONALE S.N.C. 52010;43.681109360800356;11.829765425920481
3537;AREA SERVIZIO BADIA AL PINO EST;AREA SERVIZIO BADIA AL PINO EST;AREA SERVIZIO BADIA AL PINO EST 52041;43.40641196050068;11.763893933868417
3471;BADIA AL PINO OVEST;Mattesini Matteo & C snc;Autostrada A1 MILANO-NAPOLI, Km. 362+300, dir. Sud - 52041;43.40652172181852;11.762473472213742
28626;CIVITELLA VAL DI CHIANA;STAR SERVICE S.R.L.;Statale 680 San Zeno-Monte San Savino, Km. 10+840, dir. AREZZO - 52041;43.402032441419685;11.799391508102417
5998;MANNELLI GIUSEPPE SRL;MANNELLI GIUSEPPE S.R.L.;VIA ANTONIO GRAMSCI, EZZO 45/2 52041;43.40863370068234;11.768546104431152
50424;47152;CORO S.R.L.;LOC.SAN PIETRO A CEGLIOLO SS 71  52044;43.28780083784945;11.951943088954925
10048;AQUILA - CORTONA;AQUILA;Statale 71 Umbro Casentinese Romagnola, Km. 119+0,35, dir. SUD - 52044;43.255682964640336;11.980988457798958
5274;Arezzo - Camucia;Arezzo - Camucia;STRADA PROVINCIALE DI MANZANO 1046 52044;43.250487123079374;11.95924311876297
25369;Beyfin;NAKO LEONARD;PIAZZA DEL MERCATO 1 52044;43.27320089506677;11.983482009578665
31600;CORTONA CENTOIA CARBURANTI;L'EDERA DI DOMINGO PIERONI;VIA C.A. CENTOIA 32 52044;43.189668596487046;11.932987948839013
7276;CORTONA-SS71 KM110 330 FR TERONTOLA;SERVIZI & GESTIONI ITALIA S.R.L.;FZ.TERONTOLA SS. 71 KM.110+330 SN 52040;43.18393095321763;12.013595402240753
31713;Esso Ricci-Miniati;Esso Ricci-Miniati;VIALE GIACOMO MATTEOTTI 138 52044;43.26573619400034;11.975146398811376
9991;ICM - Terontola;I.C.M. SOCIETA' IN NOME COLLETTIVO DI BRUNO, CRISTIANO E FABRIZIO MAGGI;Strada Statale 71 - Loc. Terontola  52044;43.19670191052097;12.013226598501205
50511;IVM;IVM;Via Ponti - Loc. Mercatale snc 52044;43.2539951510447;12.139502316713333
11222;L.C.DI LORENZONI EDI ;L.C.DI LORENZONI EDI ;GIACOMO MATTEOTTI 144 52044;43.2666941571157;11.97494810185242
42803;OLIOCARBO;COPPINI AMERIGO;FRAZIONE COL DI MORRO 1 52044;43.312166995080595;12.100098907249048
25682;PIETRAIA;SIRTAM S.R.L.;Autostrada RA06 RACCORDO AUTOSTRADALE BETTOLE-PERUGIA, Km. 14+380, dir. PERUGIA - 52044;43.20327701362495;11.96637511253357
31211;TM04675;PIT STOP LANE SNC DI DEBOLI M. NAPPINI G. E POMERANI R.;Statale 71 Umbro Casentinese Romagnola, Km. 116+512, dir. Arezzo - 52044;43.236734377092965;11.999130249023438
51285;8071;T.D.M. S.R.L.;S.S. 327 KM. 14+488 0 52045;43.283572905132075;11.826719793254096
47120;ESSO FOIANO DELLA CHIANA;PAD MULTIENERGY S.P.A;SP 327 DI FOIANO KM 20.900  52045;43.23119400977514;11.815719591103155
39662;OP Petroli FOIANO DELLA CHIANA;OP Petroli;VIA DI AREZZO SP327 49/A/B 52045;43.258944180259284;11.81886836886406
54135;Piccini Fuels Foiano della Chiana;Piccini Fuels Foiano della Chiana;SP 327 – Loc. Pialla - Via del Porto  snc 52045;43.24230512946541;11.827666341104516
34761;SIVOC;SOCIETA' ITALIANA VENDITA OLII CARBURANTI - S.I.V.O.C.- SOCIETA A RESPONSABILITA' LIMITATA;VIA DELLE FARNIOLE 27/A 52045;43.22369387285156;11.8092580139637
27363;Tamoil 8071 carburanti lubrificanti;CORSI LUCA;STRADA STATALE 327 KM.14+488   52045;43.28356881401184;11.826705783605575
37440;LATERINA;SIRTAM S.P.A.;VIA PROV.LE VECCHIA ARETINA  52020;43.506203319752835;11.71310618519783
19399;PVS IL PIENO;PVS IL PIENO;VIA NAZIONALE 59 52020;43.480802322655954;11.71675817790981
55308;ANDREINI VALERIO S.A.S DI ANDREINI FABIO E C.;ANDREINI VALERIO S.A.S DI ANDREINI FABIO E C.;DEL BAGNO 10 52019;43.475077177929;11.680872703041132
54817;PE.BA. SNC DI BAZZECHI NICO & C:;PE.BA. SNC DI BAZZECHI NICO & C:;viale europa 27 52024;43.54866405959634;11.697657473550521
8674;STAZIONE SERVIZIO CIUFFENNA;STAZIONE SERVIZIO CIUFFENNA S.A.S. DI RIGHESCHI ANDREA & C.;VIA FILIPPO TURATI 32/B 52024;43.582951374873815;11.6237139914017
55929;SUPERGAS;SUPERGAS;VIA DE GASPERI  52024;43.58947;11.62875
34105;BE BOP;BE BOP DI MILO DI GORO;Via Prato 11 52046;43.2731266293087;11.743952259421349
41500;LUCIGNANO EST;ENI FUEL S.P.A.;A1 MILANO-NAPOLI, Km. 381, Firenze - 52046;43.2801421;11.7664812
29384;LUCIGNANO OVEST;NUOVA SIDAP  S.R.L.;Autostrada A1 MILANO-NAPOLI, Km. 381, dir. Roma - 52046;43.24564037100088;11.77470713853836
39028;PV MARCIANO DELLA CHIANA;ALA CARBURANTI S.R.L.;VIA PROVINCIALE DELLE CULLE SNC 52047, MARCIANO DELLA CHIANA (AR) SNC 51039;43.3228913806433;11.784680262207985
41003;tamoil 2304;CORSI LUCA;via castiglioni 26e 52047;43.31589087095692;11.809579208493233
52668;Angelo Malinconico;Angelo Malinconico;Viale S. M. delle Vertighe 25 52048;43.3288091;11.7453422
44853;eni;eni;VIA ARETINA 45 52048;43.33668104341239;11.727797985076904
46233;ESSO MONTE SAN SAVINO;PAD MULTIENERGY S.P.A;Via Fiorentina 8 A 52048;43.33637711040649;11.726019729957017
55232;IP MONTE SAN SAVINO;IP MONTE SAN SAVINO;LOC. LE VERTIGHE 623/A 52048;43.3284392;11.7563739
46511;PV ALBERORO;ALA CARBURANTI S.R.L.;VIA S.S. 327, LOC. ALBERORO SNC 52048, MONTE SAN SAVINO (AR) 39 52048;43.36939206166283;11.80817037820816
39827;6025;T.D.M. S.R.L.;S.S. 221 KM 1+594 - 52035;43.48855219366908;12.097101286053658
45542;ALA - MONTEVARCHI;ALA CARBURANTI - MONTEVARCHI;Via Maestri Del Lavoro 11 52025;43.53082752119294;11.559988260269165
52309;ANNA D'AMBROSCA;D'AMBROSCA ANNA;VIALE DIAZ 168 52025;43.5287853982073;11.565663436487547
20832;ENI 53540;D'UVA DANIELE;VIA ARETINA 410 52025;43.51099466399102;11.596010327339172
9443;IP VIA ENZO FERRARI MONTEVARCHI;PECORA MICHELE & C. S.N.C.;VIA ENZO FERRARI 10 52025;43.539095836841156;11.555559118771384
6203;La Vela di Fibbi;La Vela di Fibbi;VIALE ARMANDO DIAZ 61 52025;43.5250963890605;11.569647618385261
10776;M.P di Meoni Roberto & C S.N.C;M.P di Meoni Roberto & C S.N.C;ARETINA 671 52025;43.50248183825745;11.613197922706604
21883;METANAUTO S.R.L.;METANAUTO S.R.L.;VIA AMMIRAGLIO BURZAGLI 233 52025;43.53983549367005;11.553700892065422
4641;Montevarchi Oil;NUOVA SIDAP  S.R.L.;VIA DI TERRANOVA SNC 52025;43.53891500902509;11.563652157783508
12479;stazione Eni 04627;stazione Eni 04627;VIA A. BURZAGLI 169 52025;43.53213331401716;11.55969724059105
56010;SUPERGAS;SUPERGAS;Viale Cadorna 38 52025;43.53415;11.56080
53710;BONCOMPAGNI ANDREA;BONCOMPAGNI ANDREA;EUROPEA E45 125 KM 52036;43.662966614951905;12.047281265258789
12024;Esseci Carburanti;Esseci Carburanti;VIA TIBERINA 80 52036;43.67261999999998;12.039517110450788
51833;Eurocarburanti;RIOLO S.R.L.;3 bis Tiberina, Km. 150, direzione Roma - 52036;43.65843336914881;12.051442451775069
4906;ENI - PONTE A POPPI;ENI - PONTE A POPPI;Statale 70 della Consuma, Km. 35+360, dir. Arezzo - 52014;43.7243039955687;11.77504382837653
10300;PIERGIOVANNI;PIERGIOVANNI ANNA RITA;PIAZZA XIII APRILE  52014;43.79512439773404;11.876782083210742
7115;ENI - MONETI DANIELE & C. SAS;ENI - MONETI DANIELE & C. SAS;VIA CIRCONVALLAZIONE 33/A 52015;43.78667794571238;11.722395144573284
3574;ARNO EST;ARNO EST;RENACCI AUTOSOLE A-1 RM-FI KM 331.500 52027;43.58347433861366;11.52153342962265
20833;ENI 04634;D'UVA DANIELE;VIA PERUZZI 19 52027;43.568891799086785;11.526724085844421
26934;Esso Mami snc;Esso Mami snc;VIALE RISORGIMENTO 3/A 52027;43.56438024138458;11.53563380241394
52611;Innosacc Q8;Innosacc Q8;GRUCCIA KM32+800 52027;43.54808218068661;11.545009342758249
11465;SAN GIOVANNI VALDARNO-VIALE RISORGIMENTO 4/A;SERVIZI & GESTIONI ITALIA S.R.L.;VIALE RISORGIMENTO 4/A 52027;43.5609101632698;11.537945866584778
19587;TOTAL ERG;C.V.R. GAS DI GIUNTI ROMANO & C. S.N.C.;Statale 69 di Val d'Arno, Km. 29,200, dir. NORD - 52027;43.57633273572063;11.525420621037483
54904;ADS Città del Palio della Balestra;ADS Città del Palio della Balestra;Strada Statale E45 Km 138,85 Nord dir. Cesena  52037;43.57631;12.11870
28605;ADS Città di Piero della Francesca;ADS Città di Piero della Francesca;FRAZIONE VANNOCCHIA 81/B 52037;43.57637101555412;12.11768925189972
25435;Cuku Mark;CUKU MARK;VIA TIBERINA SUD 76 52037;43.56667548662553;12.152062616613767
46913;ESSO SANSEPOLCRO;PAD MULTIENERGY S.P.A;Via Senese Aretina 301 52037;43.557011376256234;12.11082722686217
5732;Malatesta 156;D.F.D. DI VITTORIO FLAMINI E FILIPPO DEL TOGNO SNC;Via Malatesta km.156  52037;43.5739070598795;12.139329314231873
4027;PicciniFuels - Dir. Arezzo;PicciniFuels - Dir. Arezzo;VIA SENESE ARETINA  102-104 52037;43.56646304755377;12.121032488299534
44864;PicciniFuels - Dir. Sansepolcro;PicciniFuels - Dir. Sansepolcro;Via Senese Aretina  121 52037;43.56642377385617;12.121668271163912
26779;SANSEPOLCRO;TIBER S.R.L.;VIA TIBERINA SUD 408 52037;43.56577645709385;12.154690235875023
35095;SANSEPOLCRO - SENESE ARETINA;"IP SERVICES S.R.L.";VIA SENESE ARETINA KM 180,973  52037;43.57102794935781;12.129297000259157
24042;TAMOIL;FRATELLI CRESTINI DI CRESTINI LEONARDO & C.S.N.C.;P.ZZA DEL MERCATO 10 52038;43.70719904118224;12.296020443688917
8260;ARCA SNC DI ARTINI E CACCIALUPI;ARCA SNC DI ARTINI E CACCIALUPI;VIA VIA CINTA ESTERNA SR71 52010, SUBBIANO (AR) -224 52010;43.572313836152254;11.871165351867717
55922;SUPERGAS;SUPERGAS;Località Castelnuovo 69 52010;43.56038;11.85587
55916;Supergas ;Supergas ;VIa Verdi 74 52010;43.57759;11.87093
55925;SUPERGAS;SUPERGAS;PIAZZA DELLA LIBERTA  52010;43.60187;11.78897
33713;Agip - Eni;CARBURANTI VALDARNO SRL;VIA POGGILUPI 668 52028;43.54935694310108;11.563030741000375
50093;donato sas;DONATO SAS DI PIGNATARO DONATO & C;VIALE EUROPA 29 52028;43.54979987973479;11.58597323278212
55928;SUPERGAS;SUPERGAS;VIALE EUROPA  52028;43.54782;11.57905
53364;TERRANUOVA;TERRANUOVA;S.P. 59 KM1 + 640 SX S.N.C. 52028;43.550434721273646;11.594262788501396
30325;TERRANUOVA BRACCIOLINI - MOCARINI 735;"IP SERVICES S.R.L.";VIA PONTE MOCARINI 735 52028;43.54341555365068;11.570221457672119
49825;Aquila - Croce A Varliano;AM DI CAPPINI MIRKO E REGGI ALESSANDRO SNC;Via Roma 298/A 50012;43.74560469156124;11.338348708357183
40359;Bagno a Ripoli;"IP SERVICES S.R.L.";via di Rosano Loc. Vallina snc 50011;43.77883063826046;11.363694816827774
3486;CHIANTI EST;LA CONCHIGLIA SAS;Autostrada A1 MILANO-NAPOLI, Km. 305+600, dir. Nord - 50011;43.73003797836093;11.332406880950884
39736;CHIANTI OVEST;CARLESI CARBURANTI S.A.S. DI BENEDETTA CARLESI;Autostrada A1 MILANO-NAPOLI, Km. 305.6, dir. sud - 50012;43.72921031635258;11.333670169115067
27035;ENI LEPRI PAOLO 2019 & C SAS;ENI LEPRI PAOLO E GUIDI CLAUDIO SNC;S.R.222 VIA CHIANTIGIANA KM 2  50012;43.73829325390573;11.291337059403457
46560;IP;IP;VIA DELL'ANTELLA 72 50012;43.73023319478379;11.314776688814163
48080; ip mugello fuel station sas;MUGELLO FUEL STATION DI BUCCINO PASQUALE & C. SAS;via del lago  6 50031;43.99072872189402;11.230857790542625
3687;AGLIO EST;Aglio Services srl;Autostrada A1 MILANO-NAPOLI, Km. 255+800, dir. Nord - 50031;44.02957247403531;11.225896152114842
36329;buccino marco;buccino marco;antonio gramsci 25 50031;43.99680946858813;11.240148296958978
38452;CPM Barberino;CPM Barberino;VIA LAGO LOC. CAVALINA  SN 50031;43.98921598481671;11.228010775463076
46064;ESSO BARBERINO DI MUGELLO - VIA MATTEOTTI;PAD MULTIENERGY S.P.A;V.le G. Matteotti 6/A 50031;43.992469952682434;11.238524188879346
48679;mugello fuel station ;MUGELLO FUEL STATION DI BUCCINO PASQUALE & C. SAS;VIA DEL LAGO 18 50031;43.980523650265496;11.220898658895502
17650;Gori Mattia;Gori Mattia;Statale 2 Via Cassia, Km. 263 + 353, dir. nord 29 50028;43.54305629960399;11.172899525131243
4902;Stazione Padim di Panti e Di Maggio ;Stazione Padim di Panti e Di Maggio ;Via Leonardo da Vinci 148  50028;43.5915134;11.1997541
7259;BARBERINO VAL D'ELSA-SS429 KM42 739;SERVIZI & GESTIONI ITALIA S.R.L.;LOC. TRE PIE' S.S.429 KM. 42+739  50021;43.49368722706796;11.120559275150299
6253;F.LLI CIONI;F.LLI CIONI;LOCALITA' DROVE RACCORDO SS 429 SS 2  50021;43.48366392193896;11.14261507987976
47046;repsol ;TRE + S.A.S. DI ALESSIO DI LEONARDO & C.;NUOVO RACCORDO DI DROVE SS429 E SS2 50028;43.48538848356436;11.144870258662309
54313;2P CARBURANTI;2P CARBURANTI;VIA VIALE GIOVANNI XXIII 22 50032, BORGO SAN LORENZO (FI) 22 50032;43.95465685414099;11.38332724571228
6586;BORGO SAN LORENZO VIALE PECORI GIRALDI 3;SERVIZI & GESTIONI ITALIA srl;VIALE PECORI GIRALDI 3 50032;43.955241315735115;11.39335431412087
54916;PIERI LUCA E C SAS 2;PIERI LUCA E C SAS 2;VIALE GIOVANNI XXIII, SNC  50032;43.95803936848097;11.368781479037455
17490;Pieri Mauro & C. Snc;PIERI MAURO & C. - S.N.C.;Viale della Resistenza  50032;43.95716271502194;11.3740374147892
7755;TAMOIL;TAMOIL;VIALE GIOVANNI XXIII SNC 50032;43.95923366810547;11.365043967962265
48048;CALENZANO;SIRTAM S.P.A.;PROV.LE DI BARBERINO SNC 50041;43.940270027000196;11.215679830511096
11585;CALENZANO-VIA PUCCINI;SERVIZI & GESTIONI ITALIA S.R.L.;VIA PUCCINI S/N 50041;43.86186075891062;11.163649796295203
48719;Carrefour Calenzano;Carrefour Calenzano;Via Dino Ciolli   145  50041;43.85390534508203;11.166667034087054
46224;DUE A snc;DUE A snc;VIA DI PRATO SNC 50041;43.854321200453725;11.156579856714643
42124;Ip;Totalerg /Ip;sp8  tangenziale ovest snc 50041;43.867390139064696;11.164736910748275
55453;Martini Silvia;Martini Silvia;VIA VIA   DANTE  ALIGHIERI 6 50041, CALENZANO (FI) 6 50041;43.85445839271628;11.17830774100037
38885;stazione di servizio ENI 4739;stazione di servizio ENI  4739;VIA VITTORIO EMANUELE SNC 50041;43.85025031847835;11.169591397047043
55672;Stazione Di Servizio Esso;Stazione Di Servizio Esso;Via di Prato 24 50041;43.85658698939123;11.149255813598081
55576;AQUILA;AQUILA;XIII MARTIRI 200 50013;43.8075392;11.1280128
36828;BISENZIO EST;VIVOCAFFE' S.A.S. DI DAMIANO GIUSEPPE E C.;Autostrada A1 MILANO-NAPOLI, Km. 280,400, dir. nord - 50013;43.83556936292389;11.160046798147619
7607;CAMPI BISENZIO;G.S.SERVICE S.R.L.; S.S. 325 BARBERINESE KM 84+450 SNC  50013;43.82447576688377;11.126102147607412
20671;CAMPI BISENZIO;"IP SERVICES S.R.L.";Via Allende  50013;43.841431271017996;11.15673691034317
6578;CAMPI BISENZIO "VIA F.LLI CERVI "I GIGLI";SERVIZI & GESTIONI ITALIA srl;VIA F.LLI CERVI "I GIGLI" SNC 50013;43.84947807594298;11.140778368053475
6587;CAMPI BISENZIO PRIMALDO PAOLIERI;SERVIZI & GESTIONI ITALIA srl;VIALE PRIMALDO PAOLIERI SNC 50013;43.823689871807524;11.146528781228653
11284;ENI - SBS di Simone Brunelli Sas;ENI - SBS di Simone Brunelli Sas;VIA CIRCONVALLAZIONE SUD 51/53 50013;43.813940133705685;11.123861074447632
22927;ENI Impianto 58313;BRINI CARLO & BETTARINI ROBERTO S.N.C.;Statale 325 di Val di Setta e Val di Bisenzio, Km. 220, dir. Signa - 50013;43.814116163532;11.119803026285808
5284;Firenze - Campi Bisenzio;Firenze - Campi Bisenzio;VIA VINGONE (S.S. 66)   50013;43.80771866041542;11.102226376533508
16583;S.S. ESSO DI PETRI SNC;PETRI S.N.C. DI PETRI ALESSIO, ANDREA E LEONARDO;VIA S. ALLENDE SNC 50012;43.84141699991552;11.15587194794307
50437;CAPRAIA E LIMITE;SIRTAM S.P.A.;VIALE MONTAGNI  24 50050;43.739001500761994;10.971888369317
49723;EUROPAM - CAPRAIA E LIMITE;EUROPAM S.R.L.;VIA GRAMSCI snc 50056;43.74508846303215;10.985440399711905
43630;ADS CASTELFIORENTINO;ALA CARBURANTI S.R.L.;VIA Vittorio Niccoli 48 50051, CASTELFIORENTINO (FI) 48 50051;43.620038578473114;10.963422060012817
50456;Anass.mlaiki-carburanti.castelfiorentino;DISTRIBUTORE CARBURANTE ENI - CASTELFIORENTINO NORD DI  MLAIKI ANASS;VIA VITTORIO NICCOLI 2P 50051;43.615489349271755;10.96761120658357
46841;AQUILA;R.C.M. DI MOIO NICOLA & C. S.N.C.;VIA B. CIURINI 34/L 50051;43.58877087703086;10.989393889904022
36348;CASTELFIORENTINO;NEW GREEN FUEL S.R.L.;VIA MACHIAVELLI  50051;43.59301018103025;10.968951433897018
13654;IP ITALIANA PETROLI;TOGNAZZI MARIDO;VIA DEI PROFETI SNC 50051;43.60068395641006;10.96646435558796
13544;metano toscana srl (castelfiorentino);metano toscana srl (castelfiorentino);VIA MONTEOLIVO SNC 50051;43.577681457187744;11.007978916168213
18567;self pingua;SELF PINGUA DI PECORINI FILIPPO & C.S.A.S;VIA SUL VINCIO 2C 50050;43.77869392224317;10.858638081020331
11582;CERTALDO-VIA ROMANA 125;SERVIZI & GESTIONI ITALIA S.R.L.;VIA ROMANA 125 50052;43.54089209214217;11.045004606151565
40092;ENI;C.M.D. DI CARUSO ELIO - MAJENZA ROBERTO E C. S.N.C.;VIA DELLE REGIONI 106/A 50052;43.56785089700938;11.024151965975761
40093;ESSO;C.M.D. DI CARUSO ELIO - MAJENZA ROBERTO E C. S.N.C.;VIALE GIACOMO MATTEOTTI 191 50052;43.556068858436525;11.032640512897501
52595;IP;IP;SR429 KM 47+328 ;43.52195;11.08126
11583;DICOMANO-VIA DELLA VITTORIA 21;SERVIZI & GESTIONI ITALIA S.R.L.;VIA DELLA VITTORIA 21 50062;43.88850586930252;11.525309970569651
46312;VIA PROVINCIALE 551 KM 20+900 - DICOMANO;SERVIZI E GESTIONI ZENIT S.R.L. IN SIGLA - ZENIT S.R.L.;VIA PROVINCIALE 551 KM 20+900  50062;43.90743762707499;11.506099265516468
46845;ADS EMPOLI;ALA CARBURANTI S.R.L.;VIA CHERUBINI 58 50053, EMPOLI (FI) 58 50053;43.71991590710714;10.96534252166748
51470;Area di Servizio Eni;Area di Servizio Eni;VIA LIVORNESE 232 50053;43.70190158459696;10.907800932069247
33119;EMPOLI - JACOPO CARRUCCI;"IP SERVICES S.R.L.";VIA  JACOPO CARRUCCI 234 50053;43.7208193847583;10.958960349702807
28142;EMPOLI - VIALE PETRARCA;C.N. SAS DI F. NANNETTI E C.;VIALE PETRARCA  35 50053;43.723131412470096;10.957078635692596
39113;EMPOLI VIA PROVINCIALE LUCCHESE;SERVIZI & GESTIONI ITALIA S.R.L.;VIA PROVINCIALE LUCCHESE  50053;43.72030147444904;10.916437804698944
11584;EMPOLI-PIAZZA SAN ROCCO 36;SERVIZI & GESTIONI ITALIA S.R.L.;PIAZZA SAN ROCCO 36 50053;43.719902740862324;10.938874694442802
11578;EMPOLI-SS. 67 KM.51+176;SERVIZI & GESTIONI ITALIA S.R.L.;SS. 67 KM.51+176 S/N 50053;43.72143956895499;10.967999999999961
50843;ENGO;STOC ENERGY S.R.L.;REGIONALE TOSCANA N.429 SNC 50053;43.687865998658864;10.911906477380494
26073;eni;FOSSI M. & BARILI F.SNC;TOSCO ROMAGNOLA SNC 50053;43.72067540842981;10.963448882102966
55489;Firenze - Empoli;Firenze - Empoli;PROV.LE LUCCHESE SNC 50053;43.72007876160463;10.91646002061693
40050;GAGGIOLI E CALONACI;GAGGIOLI E CALONACI;via val d'orme nuova 10 50053;43.691749794481744;10.961112678050995
20729;Marcignana;"IP SERVICES S.R.L.";Marcignana via prov. Lucchese  50053;43.72030709606452;10.893845558166504
22367;Metano Toscana srl - (Empoli - Via Vald'Elsa);metano toscana srl - via vald'elsa;Via Val D'Elsa snc 50053;43.7040084;10.8932547
13539;Metano Toscana srl - Empoli Via Piovola;Metano Toscana srl - Empoli Via Piovola;VIA DELLA PIOVOLA 63-65-67 50053;43.7165955441996;10.968515574932098
30603;NGN NEWGASNETWORK;NEW GAS NETWORK DI MANDORLINI ELISA & FILIPPO - S.N.C.;VIA LUCCHESE 172 50053;43.720340644944734;10.898133013561278
54592;STAZIONE DI SERVIZIO D'ANGELO SAS;STAZIONE DI SERVIZIO D'ANGELO SAS;LIVORNESE 148 50053;43.71538523026813;10.921229351335725
53115;STAZIONE DI SERVIZIO ESSO;STAZIONE DI SERVIZIO ESSO;PETRARCA 1 50053;44.4814;11.0362
17850;BALLONI S.N.C. DI BALLONI ALBERTO & C.;BALLONI S.N.C. DI BALLONI ALBERTO & C.;Via Faentina - CALDINE 177/A 50014;43.83116691277085;11.307609476584275
55976;ESSO FIGLINE VALDARNO VIA PETRARCA 75;ESSO FIGLINE VALDARNO VIA PETRARCA 75;Via Francesco Petrarca 75  50063;43.6161922;11.477818900000001
25863;FIGLINE VAL D'ARNO;"IP SERVICES S.R.L.";VIA ROMA 106 50063;43.62470000000002;11.46645364418032
11580;FIGLINE VALDARNO FI-S.S. 69;SERVIZI & GESTIONI ITALIA S.R.L.;S.S. 69 S/N 50063;43.62658497566303;11.461803714233838
11581;FIGLINE VALDARNO-VIA TOTI 4;SERVIZI & GESTIONI ITALIA S.R.L.;VIA TOTI 4 50063;43.62509541591032;11.483554020524025
31009;M.A.B.E . Service Figline e incisa valdarno ;M.A.B.E SERVICE DI AGLIETTI MARCO E BARBIERI EMILIANO SNC;VIA FIORENTINA-LOC.LAGACCIONI S.N.C. 50063;43.63227665998316;11.458388864994049
13527;metano toscana srl(figline v.a);metano toscana srl(figline v.a); TRAVERSA SS 69  snc 50063;43.59758367857838;11.496106088161469
46172;SHELL INCISA VALDARNO - VIA ROMA;ESSO INCISA VALDARNO - VIA ROMA;Via Roma  50064;43.65401549456013;11.45083435775226
11591; FIRENZE - VIA DELLA NAVE DI BROZZI - ANGOLO VIA SAN DONNINO;SERVIZI & GESTIONI ITALIA S.R.L.;VIA DELLA NAVE DI BROZZI - ANGOLO VIA SAN DONNINO S/N 50145;43.78976134495156;11.164327561855316
45757;1165;T.D.M. S.R.L.;CAVE DI MONTERIPALDI SNC 50125;43.73827645164292;11.244944493254025
51872;14730 – Firenze Etruria;PV 14730 – Firenze Etruria;V.le Etruria, 40  50142;43.77365532304998;11.215048836374141
52399;2018 SAS DI ROBERTO SERAVELLI E C.;2018 SAS DI ROBERTO SERAVELLI E C.;VIALE EUROPA  200 50126;43.756536941736;11.299966578434764
24667;2063;T.D.M. S.R.L.;SENESE - LOC.I ROSSI SNC 50124;43.74463374754643;11.22713572883606
5493;34710 FIRENZE;FIRENZE;Lungarno De Nicola SNC 50136;43.7662243307795;11.298588901452831
29232;4099;T.D.M. S.R.L.;GUIDONI SNC 50127;43.79771642383509;11.221474707126617
42384;54205;GESTIONI INNOVATIVE ITALIA S.R.L.;via antonio canova snc 50142;43.780536756385;11.192737519741058
24794;54221 Firenze De Nicola;Firenze De Nicola;VIA ENRICO DE NICOLA 16 50136;43.76611164942626;11.301458179950714
26855;55923 Guidoni FI;ENI FUEL S.P.A.;VIALE ALESSANDRO GUIDONI SNC 50127;43.79787772020989;11.214415401154838
41915;8086;T.D.M. S.R.L.;DEL SANSOVINO SNC 50142;43.77508320448903;11.227165013551712
51387;Aleardi s.a.s;Aleardi s.a.s;viale Aleardo Aleardi 45/47 50124;43.76927387381429;11.235237463788973
51085;AREA DI SERVIZIO FIRENZE;PETROL-FIN S.R.L.;via senese   ;43.74410829566967;11.226771289843782
6582;BAGNO A RIPOLI LOC. PONTE A EMA GOFFREDO DELLA TORRE;SERVIZI & GESTIONI ITALIA srl;GOFFREDO DELLA TORRE LOC. PONTE A EMA SNC 50126;43.74305002870873;11.288914812164307
49172;beyfin;G. & C. CARBURANTI DI TIBAUDO & COZZOLINO S.N.C.;VIA SENESE 186/A/2 50124;43.74564707292896;11.228195975352296
37866;BEYFIN;T.R.T DI FAINI ANDREA & C. SNC;VIA ROCCA TEDALDA 451 50136;43.76871030105542;11.316774710985555
14560;BEYFIN;PALAZZINI SERGIO;VIA REGINALDO GIULIANI  50141;43.820311715338356;11.222624033689499
52367;BRONZINO;D.A.R.M. PETROLI S.R.L.;VIA BRONZINO SNC 50142;43.7726773352397;11.223795527549775
54869;COSTANTINI FABIO;COSTANTINI FABIO;Via Sestese S.N. 50141, FIRENZE (FI) 185 50141;43.81994270161045;11.220960093740505
18157;DISTRIBUTORE IP;DISTRIBUTORE IP;VIALE F. TALENTI 56 50142;43.77388183344993;11.216896139950563
16784;DISTRIBUTORE IP - via baracca 48p;DISTRIBUTORE IP - via baracca 48p;VIA BARACCA 48P 50127;43.79032052943718;11.22289627790451
55851;DISTRIBUTORE IP - VIADOTTO DEL PONTE ALL'INDIANO ;DISTRIBUTORE IP - VIADOTTO DEL PONTE ALL'INDIANO ;Viadotto del Ponte all'Indiano  ;43.77498316625933;11.186431596511829
55790;DISTRIBUTORE IP VIA PISTOIESE 28;DISTRIBUTORE IP VIA PISTOIESE 28;PISTOIESE 26 50145;43.79542093064771;11.199671873635872
16788;DISTRIBUTORE IP- via baracca 38m;DISTRIBUTORE IP- via baracca 38m;VIA BARACCA 38m 50127;43.78901007774902;11.224363446235657
47442;EDRA OIL - BORGHINI;EDRA OIL - BORGHINI;Via Borghini  50133;43.78918642132511;11.267257332801819
47441;EDRA OIL - PELAGO;EDRA OIL - PELAGO;Via Forlivese 3 50060;43.775752541793516;11.445022821426386
47443;EDRA OIL - PUCCINI;EDRA OIL - PUCCINI;Piazza Puccini  50144;43.78614990300712;11.22868657112121
52373;ENI;DI.SA. S.N.C. DI SASSETTI ROBERTO & C.;PIAZZA L.B.ALBERTI, 1 5 50136;43.769785576477965;11.281087143171817
52368;ENI;AZIDUE SERVICE DI OMAR ES SABBAR;Via Bolognese 168 50100;43.806398742818324;11.274831542327872
10344;ENI 04812;BAROCCHI LUCA E MATTEO & C. S.N.C.;Via Del Romito 34 50134;43.78784839108384;11.245269120237708
51007;Eni 04891;Eni 04891;BACCIO DA MONTELUPO 115 50142;43.769008304718206;11.196181441478886
43670;ENI DI OMAZI SERVICE SNC;ENI DI OMAZI SERVICE SNC;VIALE EDOMONDO DE AMICIS 4729 50100;43.774186179513116;11.286364376057463
45037;ENI PIAZZA PIER VETTORI;ENI PIAZZA PIER VETTORI;piazza pier vettori 65 50144;43.771948231487606;11.232010845403693
46605;ENI STATION;ZECCA GIANLUCA S.P.A. ( SERVIZI - PROGETTI - APPALTI );VIA BARACCA 114 50127;43.79152794740759;11.218919903039932
52290;ESSO;ESSO;VIA FRANCESCO BARACCA 136/A 50127;43.7929069105935;11.214583989675656
42828;esso;ERRECI DI PERUCCA RICCARDO E VANNI COSIMO S.N.C.;VIA REGINALDO GIULIANI 126 50141;43.80134045828712;11.2380058775625
52508;Esso;NEW ART DECO' DI PATRIZIA LEGITTIMO;VIA BACCIO DA MONTELUPO 359 50142;43.765348889002645;11.181387667493814
53562;ESSO - FIRENZE PIAZZA MURATORI;PAD MULTIENERGY S.P.A;MURATORI 1/A 50134;43.6500331;10.608406
45243;ESSO FIRENZE - P.ZZA DONATELLO;PAD MULTIENERGY S.P.A;Piazza Donatello  50132;43.778213697210624;11.268246215938575
47007;ESSO FIRENZE - V. SENESE 2 STRADE;PAD MULTIENERGY S.P.A;Via Senese 2 Strade 199 50124;43.74881941421416;11.23417883757209
47122;ESSO FIRENZE - V. TORCICODA;PAD MULTIENERGY S.P.A;Via Torcicoda  50142;43.775735475845536;11.217565420797879
47001;ESSO FIRENZE - V.LE NENNI;PAD MULTIENERGY S.P.A;Viale Nenni 39 50143;43.764292843659376;11.200690197829811
47499;ESSO FIRENZE V.le Europa 203;PAD MULTIENERGY S.P.A;V.LE EUROPA 203  50122;43.75714368740046;11.298335546723518
51632;esso futura sas;esso futura sas;via senese loc galluzzo Km 296,112 snc 50125;43.74511211776015;11.22759818781549
41840;EUROPAM - FIRENZE;EUROPAM S.R.L.;PIAZZA PUCCINI  50100;43.786164275776756;11.228267850940938
38214;F.lli Campigli snc distributore Eni 04732;F.lli Campigli snc distributore Eni 04732;Piazzale Donatello  50132;43.77745152737205;11.269018913801915
15532;Fibbi&Valacchi snc;FIBBI E VALACCHI  S.N.C. DI FIBBI PAOLO & C.;VIA SENESE 150 50124;43.75025822578593;11.235971376299858
5527;FIRENZE;"IP SERVICES S.R.L.";Viale Pietro Nenni 16/1 50143;43.76593231492432;11.206875233135179
25344;FIRENZE - GIANNOTTI;"IP SERVICES S.R.L.";VIALE  GIANNOTTI  50126;43.75728934487764;11.287302682208974
34234;FIRENZE - REGINALDO GIULIANI 150;"IP SERVICES S.R.L.";VIA REGINALDO GIULIANI 150 50100;43.802717618523594;11.236761991798858
5628;Firenze - Viale Luder;Firenze - Viale Luder;VIALE GIOVANNI LUDER 41-42 50127;43.801268366030115;11.20362243558202
40878;Firenze - Viale XI Agosto;Firenze - Viale XI Agosto;Viale XI Agosto 100 50127;43.80446578354315;11.215470822721272
22332;FIRENZE BACCIO DA MONTELUPO,170-172;SERVIZI & GESTIONI ITALIA S.R.L.;BACCIO DA MONTELUPO 170-172 50142;43.766731101888254;11.185656487941742
30414;FIRENZE SIMONE MARTINI;SIRTAM S.P.A.;VIA SIMONE MARTINI  50142;43.774432143989806;11.199470534920692
6588;FIRENZE TALENTI 112;SERVIZI & GESTIONI ITALIA srl;VIALE F. TALENTI 112 50142;43.773687320062294;11.215008881614722
45078;Firenze V.le Guidoni;TORREGAS - S.R.L.;Viale Guidoni 222 57126;43.79937131775589;11.209431864671956
6591;FIRENZE VIA ARETINA 371;SERVIZI & GESTIONI ITALIA srl;VIA ARETINA 371 50136;43.76748218883609;11.304911703041057
41684;FIRENZE VIA BACCIO DA MONTELUPO N.18/P;SERVIZI & GESTIONI ITALIA S.R.L.;VIA BACCIO DA MONTELUPO 18/P 50142;43.77045041565588;11.208910446592313
22369;FIRENZE VIA CANOVA ANG.VIA FEDI;SERVIZI & GESTIONI ITALIA S.R.L.;VIA CANOVA ANG.VIA FEDI  50142;43.77729196505502;11.20542773306579
48844;FIRENZE VIA D'ANNUNZIO/ARCOLAIO;SERVIZI & GESTIONI ITALIA S.R.L.;VIA D'ANNUNZIO/ARCOLAIO  50135;43.775496921530944;11.290233181597333
9118;FIRENZE VIA DEI CATTANEI SNC;SERVIZI & GESTIONI ITALIA S.R.L.;VIA DEI CATTANEI SNC  50145;43.79650296459189;11.158780753612518
6584;FIRENZE VIA DI SCANDICCI 292-292/A;SERVIZI & GESTIONI ITALIA srl;VIA DI SCANDICCI 292-292/A 50143;43.760457411460905;11.205131315869153
37766;FIRENZE VIA PONTE ALLE MOSSE N. 154;SERVIZI & GESTIONI ITALIA S.R.L.;VIA PONTE ALLE MOSSE 154 50144;43.784318802532496;11.231749955819737
6589;FIRENZE VIA SENESE 207/A;SERVIZI & GESTIONI ITALIA srl;VIA SENESE 207/A 50125;43.7481949447391;11.232985282803384
6579;FIRENZE VIALE EUROPA;SERVIZI & GESTIONI ITALIA srl;VIALE EUROPA SNC 50126;43.75601480262551;11.304206044180319
6585;FIRENZE VIALE GUIDONI;SERVIZI & GESTIONI ITALIA srl;VIALE GUIDONI SNC 50127;43.797956039170856;11.213692458196988
14932;FIRENZE VIALE GUIDONI;OIL SERVICE S.R.L.;VIALE ALESSANDRO GUIDONI 207/209 50127;43.79899573852016;11.209166049957275
40639;FIRENZE VIALE GUIDONI/CARRAIA;SERVIZI & GESTIONI ITALIA S.R.L.;VIALE GUIDONI/CARRAIA  50127;43.79928778748094;11.208260449073805
32251;FIRENZE VIALE NENNI DIR FI;STAR SERVICE S.R.L.;VIALE NENNI DIR FIRENZE  50143;43.76504327293209;11.2061807513237
32252;FIRENZE VIALE NENNI DIR SCANDICCI;STAR SERVICE S.R.L.;VIALE NENNI DIR SCANDICCI  50143;43.76487471778861;11.202536970376968
11590;FIRENZE-VIA GIOVANNI AGNELLI;SERVIZI & GESTIONI ITALIA S.R.L.;VIA GIOVANNI AGNELLI S/N 50126;43.746975232809554;11.287371955680783
11587;FIRENZE-VIA MARAGLIANO 2;SERVIZI & GESTIONI ITALIA S.R.L.;VIA MARAGLIANO 2 50144;43.78435670519642;11.239780058860788
11589;FIRENZE-VIA PISANA 83/A;SERVIZI & GESTIONI ITALIA S.R.L.;VIA PISANA 83/A 50143;43.772192252750195;11.228280466270462
11588;FIRENZE-VIA SESTESE N 86;SERVIZI & GESTIONI ITALIA S.R.L.;VIA SESTESE 86 50141;43.81538257101056;11.226754051589978
39404;FUSI MARCO;FUSI MARCO;VIA CURZIO MALAPARTE 40 50145;43.79686267696318;11.158397868275642
52378;GAS STATION CASTELLO SAS;GAS STATION CASTELLO SAS;VIA VIA SESTESE, 97/99 97 50100, FIRENZE (FI) 97/99 50141;43.81724405253075;11.223786664418029
9060;GIGLIO S.N.C. DI CECCHINI GIANLUCA E CECCHINI ROSSANA;GIGLIO S.N.C. DI CECCHINI GIANLUCA E CECCHINI ROSSANA;VIA BACCIO DA MONTELUPO ANGOLO VIA LUNGA SNC 50142;43.77065144001496;11.210137009620667
9352;ICM - Firenze;I.C.M. SOCIETA' IN NOME COLLETTIVO DI BRUNO, CRISTIANO E FABRIZIO MAGGI;VIA SENESE 184 50124;43.7461807639952;11.228799819946289
52472;Il Cerchio Motori Srl;Il Cerchio Motori Srl;Via Pratese 93 50145;43.80052480157103;11.19148969650268
19230;Impianto ENI;CELLAI DANIELE & C. S.N.C.;DONATO GIANNOTTI 26/28 50126;43.76019842655871;11.28452219999997
48592;IMPIANTO ENI 4852;ALDERIGHI MAURIZIO S.N.C.;VIA DEL POLLAIOLO 150 50142;43.771376652615416;11.216186775463113
45656;IMPIANTO VIA BRONZINO SNC;IMPIANTO VIA BRONZINO SNC;VIA BRONZINO SNC 50142;43.77270818961268;11.223745000000008
16515;ip;DUE C SAS DI CENCINI FRANCESCO;viadotto dell indiano  50144;43.7750247155836;11.18645042181015
50787;IP;CALTABIANO FRANCESCO;Piazza Ferrucci  50126;43.76399775364684;11.270572543144226
55781;IP Viale Etruria ;IP Viale Etruria ;Viale Etruria 3 50142;43.771872730503745;11.232065749527386
53781;ITALIANA PETROLI;ITALIANA PETROLI;VIA BRONZINO, 4 50142;43.773629;11.232538
41006;LA BOLOGNESE;LA BOLOGNESE S.N.C. DI CAVALLO ROSA E LO PRESTI FRANCESCO;VIA DI SCANDICCI SNC 50143;43.75704382085943;11.199213713407516
28102;lingui leonardo 59178;lingui leonardo 59178;Viale U. Ojetti  50137;43.7828816;11.2936456
32714;M&Z snc di Marucelli Franca e Zanieri Jacopo;M & Z S.N.C. DI MARUCELLI FRANCA E ZANIERI JACOPO;VIA FAENTINA 380/A 50133;43.80047226922806;11.277049445438365
43543;MANNI ANDREA;MANNI ANDREA;ARETINA 224/A 50136;43.76744081089964;11.301922317790968
52423;newframar;newframar;via Bolognese  96 50139;43.79386566395113;11.261473894119257
55220;ovest bisenzio di fusi e c snc;OVEST BISENZIO DI FUSI E C. S.N.C.;SENESE SNC 50124;43.77;11.2601
29802;PATTINO SAS;PATTINO SAS;VIA PISTOIESE 500 50145;43.7940835912895;11.156173499336205
53752;PERETOLA NORD;ENI FUEL S.P.A.;Autostrada A11 FIRENZE-PISA N., dir. Firenze ;43.819695;11.1731615
13623;PINI E SETTESOLDI SNC;PINI LEONARDO E SETTESOLDI IACOPO - SOCIETA' IN NOME COLLETTIVO ( IN FORMA ABBREVIATA PINI E SETTESOLDI - SNC);VIALE DEI MILLE 7 50131;43.78041060340574;11.279211394442768
30222;PV 4740;GESTIONI INNOVATIVE ITALIA S.R.L.;VIA SENESE LO.GALLUZZO SNC 50124;43.73848661757374;11.224814057350159
24905;PV 4875;GESTIONI INNOVATIVE ITALIA S.R.L.;VIA SENESE- LOC. I ROSSI 194, 50124  ;43.74296572085396;11.225570440292358
9269;Q8 f.lli iacoviello;Q8 f.lli iacoviello;VIA REGINALDO GIULIANI 556 50141;43.82086326001945;11.22130036354065
38216;Reginaldo Giuliani;"IP SERVICES S.R.L.";via Reginaldo Giuliani 96 50141;43.79991627292815;11.23872734606266
17817;riccardo carotti sas;RICCARDO CAROTTI S.A.S.;REGINALDO GIULIANI 49 50141;43.79911677847703;11.238952947885082
54539;SHELL - FIRENZE VIA BACCIO DA MONTELUPO 4 ANGOLO VIA LUNGA;PAD MULTIENERGY S.P.A;BACCIO DA MONTELUPO SNC 50142;43.7706351;11.2109398
54933;SHELL - FIRENZE VIA REGINALDO GIULIANI, 126;PAD MULTIENERGY S.P.A;REGINALDO GIULIANI 126 50141;43.801340000000003;11.237830000000001
42776;SHELL FIRENZE - V.LE EUROPA (ANG. VIA ALBANIA);PAD MULTIENERGY S.P.A;Viale Europa  50126;43.75661987751152;11.29338368646036
19009;staz. di serv. Eni M.F snc di Vitellozzi;M.F. S.N.C. DI VITELLOZZI MATTEO & C.;via pistoiese 223 50145;43.79384977691213;11.187198758125305
35582;Stazione Carburante Ludoil s.p.a.;Stazione Carburante Ludoil s.p.a.;VIA VIA LUNGO L'AFFRICO SNC 50137, FIRENZE (FI) SNC 50137;43.77480418140975;11.286990587388573
53766;Stazione IP di Corti Andrea;Stazione IP di Corti Andrea;LUIGI GORI 2/1 2/2 50127;43.795575988579934;11.206538826227188
14370;STAZIONE SERVIZIO CHIARACANE;CHIARACANE SALVATORE;PIAZZA L. B. ALBERTI  50136;43.76969697993754;11.281165172922318
11019;tamoil ;tamoil ;VIALE EUROPA 46 50126;43.75661573034039;11.2928504694504
42919;TIBER FIRENZE;TIBER FIRENZE;VIALE PAOLI 15 50137;43.77899563614063;11.282336711883545
29123;TOTALERG;TOTALERG;VIALE ETRURIA 30 50142;43.77293007919961;11.199337813491866
28290;TotalErg;AUTOCARROZZERIA DUE T CAR LIFTING SERVICE DI TIZIANO TRALLORI;VIA RONDINELLA SNC 50135;43.77527697291198;11.292230039834976
16947;DUE ESSE SNC;DUE ESSE SNC;VIA IMOLESE 35 50033;44.11850192072636;11.38371302841665
19266;S.I.M srl Pietramala;S.I.M srl;Statale 65 della Futa, Km. 55, dir. Bologna  ;44.16329230044633;11.331768482923508
34931;ADS FUCECCHIO;ALA CARBURANTI S.R.L.;VIA STRADA PROVINCIALE NUOVA FRANCESCA BIS SNC 50054, FUCECCHIO (FI) 7 50054;43.73815207963681;10.778999261376952
46455;AQUILA;2ESSE DI STABILE SABRINA;VIA PISTOIESE 5/A 50054;43.73688705040582;10.809774398803711
55334;B.FUEL FUCECCHIO;B.FUEL FUCECCHIO;VIA CIRCONVALLAZIONE FRANCESCA BIS 10/P 50054;43.72248243242106;10.80780029296875
13728;ENI;ENI;VIALE BUOZZI 122/124 50054;43.73165055750501;10.802912685319484
5031;Eni - Fucecchio;Eni - Fucecchio;STRADA PROV.LE ROMANA LUCCHESE 4, 50054  ;43.770539876620504;10.726293325424194
50435;FUCECCHIO;STAR SERVICE S.R.L.;VIA SAN MINIATESE - LOC SAN PIERINO  50054;43.70861066728562;10.821283465596743
6583;FUCECCHIO ROMANA LUCCHESE 330-GALLENO;SERVIZI & GESTIONI ITALIA srl;ROMANA LUCCHESE 330-GALLENO  50054;43.776800274869736;10.716819763183594
53741;IP 45626;IP 45626;VIA VIA PROV.NUOVA FRANCESCA BIS SNC 56029, SANTA CROCE SULL'ARNO (PI) 18 50054;43.734785072563405;10.772718640945138
35444;MAC;NERI LUCA;VIA VIA  CESARE   BATTISTI 176 50054, FUCECCHIO (FI) 176 50054;43.72448071803517;10.821073204278946
50664;My Oil;My Oil;Via provinciale fiorentina 64 50054;43.7214461887574;10.799143407437555
19977;Quattropetroli;BANTI PAOLO;via Delle Cerbaie Massarella 53 50050;43.78862521582311;10.773982272578223
53660;IP;IP;VOLTERRANA SNC 50050;43.5449379;10.9568443
25218;MALORI FUELS & EXTRA;MALORI FUELS & EXTRA;VIA VIA MORANDI -  LOC. RICAVOLI 18/B 50050, GAMBASSI TERME (FI) 18/B 50050;43.582453911686194;10.965288877487183
54828;IP;IP;S.R.T. 222 CHIANTIGIANA KM.9+980 50022;43.7186;10.9425
46425;Italiana Petroli;PETROL B DI VIERI BALDANZI;SS 222 Chiantigiana  4 50022;43.59865492098936;11.314635769317192
32442;Poli Service snc;POLI SERVICE S.N.C. DI POLI EMANUELE E C.;S.R.T.222 CHIANTIGIANA KM9+980 SNC 50022;43.681824915271264;11.292668219574011
52254;Q8;ENI;SR 222 Km 22,317  50022;43.60015932315713;11.312622874975204
54671;SHELL;GREVE SERVICE DI POLI SIMONE;SRT CHIANTIGIANA SNC 50022;43.58727552641908;11.314818179237363
55927;SUPERGAS;SUPERGAS;PIAZZA DELLA FIERA  50022;43.67173;11.35445
40162;BARONI DIMITRI;BARONI DIMITRI;VIA IMPRUNETANA PER TAVARNUZZE 8B 50023;43.68860262186948;11.249727085232735
7226;m&m di maionchi;m&m di maionchi;VIA CASSIA 192 50023;43.7095928217255;11.215973839811682
9947;CAR GOLD DI BANDINI DANIELE E GAGGILI STEFANO;CAR GOLD DI BANDINI DANIELE,GAGGIOLI STEFANO & C. S.A.S.;VARIANTE STRADA PROV.N12 - -;43.70969678951952;11.06446087360382
4882;Delfini Carburanti - Lastra a Signa;Delfini Carburanti - Lastra a Signa;VIA DEGLI SCALPELLINI 1 50055, LASTRA A SIGNA (FI) 1 50055;43.770751575715195;11.122662797570229
18434;impianto eni 04839 alderighi snc;ALDERIGHI MAURIZIO S.N.C.;Statale 67 Tosco Romagnola, Km. 65, dir. firenze - 50055;43.7695791833251;11.110860407352448
18433;impianto eni 04842 alderighi snc;ALDERIGHI MAURIZIO S.N.C.;Statale 67 Tosco Romagnola, Km. 67, dir. firenze -  50055;43.7743979894223;11.088401600718498
26637;Lastra a Signa - S.G.C. FI-PI-LI LOC. PIANACCI;SERVIZI & GESTIONI ITALIA S.R.L.;S.G.C. FI-PI-LI LOC. PIANACCI  50055;43.735667676319856;11.106273829936981
11579;LASTRA A SIGNA-SS. 67 KM. 69+689;SERVIZI & GESTIONI ITALIA S.R.L.;SS. 67 KM. 69+689 S/N 50055;43.76991477706214;11.116764780426024
46724;Metano Toscana GINESTRA F.NA;METANO TOSCANA S.R.L.;VIA VIA VAL DI PESA SNC 50055, LASTRA A SIGNA (FI) KM 13,75 50055;43.71499185870938;11.05290377546309
46819;SHELL - LASTRA A SIGNA;PAD MULTIENERGY S.P.A;Via Livornese 65 ;43.76959860238855;11.119470377023218
39034;7080;T.D.M. S.R.L.;S.S. 302 KM. 64+450 - 50034;44.085639122737184;11.626363545656204
11586;MONTAIONE-VIA MURA 45;SERVIZI & GESTIONI ITALIA S.R.L.;VIA MURA 45 50050;43.57480210156574;10.889474898576736
5658;PA.PETROL SNC;PA.PETROL S.N.C. DI MONICA PARRI & C.;LEONARDO DA VINCI 71 50050;43.54433717198904;10.927308797836304
26443;ENI;TOGNETTI LUCA;Statale 67 Tosco Romagnola, Km. 53+577mt., dir. EMPOLI - 50056;43.72751746500209;10.993224084377289
46048;ESSO MONTELUPO FIORENTINO;PAD MULTIENERGY S.P.A;Via Caverni 34 50056;43.7312871990499;11.018717015169935
15448;MONTELUPO FIORENTINO;MONTELUPO FIORENTINO;VIA VIA DI BRAMASOLE 1 50056, MONTELUPO FIORENTINO (FI) 1 50056;43.713773633865834;11.042733639478683
24660;MONTELUPO FIORENTINO - SS TOSCO ROMAGNOLA;SERVIZI & GESTIONI ITALIA S.R.L.;Statale 67 Tosco Romagnola, Km. 55, dir. Empoli - 50056;43.727660519343374;11.020466685295105
47606;STAZIONE DI SERVIZIO D'ANGELO SAS;STAZIONE DI SERVIZIO D'ANGELO;RAFFAELLO CAVERNI 141 50056;43.72980170793105;11.017400845885277
46635;Gozzi Maico;Gozzi Maico;VIA TADDEINI S.N. 50025, MONTESPERTOLI (FI) SNC 50025;43.64605;11.06513
18791;LUPI SRL;LUPI SRL;s.p. 80 del Virginio   50025;43.67408687396308;11.074816882610321
19471;MONTAGNANA ;S.A.C. S.N.C. DI BENINCASI LEONARDO E C.;VIA VOLTERRANA NORD (DISTRIBUTORE)  50025;43.672338920315646;11.103678792715073
49397;Firenze - Palazzuolo sul Senio;Firenze - Palazzuolo sul Senio;PIAZZA RAGAZZINI SNC 50035;44.11387667078642;11.548999994993205
46768;Stazione di servizio IP di Nanni Barbara;NANNI BARBARA;Via Casentinese km 14,5 50060;43.7797336195341;11.594371108092218
54667;STAZIONE SERVIZIO IP CONSUMA;STAZIONE SERVIZIO IP CONSUMA;STRADA STATALE  70 KM 14,50 SNC 50060;43.779475909085846;11.594395637512207
4662;distibutore q8;distibutore q8;Statale 67 Tosco Romagnola, Km. 1+600, dir. firenze  50065;43.770983804704066;11.429502815008163
8179;ENI - PONTASSIEVE;ENI - PONTASSIEVE;Variante SS67 Tosco-Romagnola Km 1,335  50065;43.771144175787164;11.426060199737549
45939;ENI OMAZI SERVICE;ENI OMAZI SERVICE;via Aretina 64 50065;43.77611294972306;11.427404953372957
46789;ESSO PONTASSIEVE - LOC. LE SIECI;PAD MULTIENERGY S.P.A;Loc. Le Sieci - V. Aretina 29 ;43.78470120413844;11.401348239635135
13829;IP - PONTASSIEVE;IP - PONTASSIEVE;Viale Hanoi 1 50065;43.771477800890196;11.426837692590327
24330;AREA DI SERVIZIO eni BARTALUCCI STEFANO;AREA DI SERVIZIO eni BARTALUCCI STEFANO;VIA GRAMSCI  50066;43.68024485236639;11.531932353973389
53509;ARNO OVEST;ARNO Ovest;Autostrada A1 MILANO-NAPOLI,  Km. 321,5, dir. Napoli 50063;43.64946028543757;11.464040279388428
13575;BEYFIN;BEYFIN;VIA RONA  50066;43.63296447210156;11.472883522510529
33174;IP pian di rona;reggello;LOCALITA' RONA DI SOPRA 139/D 50066;43.642573605035345;11.466326862573624
38374;Paolo Pagliazzi;PAGLIAZZI PAOLO;Statale 69 di Val d'Arno, Km. 10+963, dir. Firenze - 50066;43.69936811160266;11.464557945728302
29475;REGGELLO;MARINO S.N.C. DI FERRINI SIMONE & C.;VIA DI MEARINO SNC 50066;43.67264816242499;11.526604145765305
49747;6098;T.D.M. S.R.L.;LOC. LA CHIOCCIOLA SNC 50067;43.70706894190441;11.399626941104488
30204;Mabe service Rignano ;M.A.B.E SERVICE DI AGLIETTI MARCO E BARBIERI EMILIANO SNC;LOC. PIAN DELL'ISOLA 33 50063;43.703994015690434;11.449559032917023
51693;4704 – Rufina;ENI FUEL S.P.A.;VIA DUCA DELLA VITTORIA, 10  50068;43.82605277651483;11.487259170602144
8000;carlo misuri;carlo misuri;Statale 67 Tosco Romagnola, Km. 106+625, dir. firenze  50068;43.81896824720896;11.48401066660881
13833;Q8 - CONTEA;Q8 - CONTEA;Via Forlivese 1 50060;43.859237118984865;11.526679183697532
52266;AQUILA;AQUILA;VIA VOLTERRANA  80/P 50026;43.68747233394747;11.136358881539739
13596;ENI;BELLINI FERDINANDO E COLI ANDREA - SOCIETA' IN NOME COLLETTIVO;VIALE G. PASCOLI SNC 50026;43.657274921248465;11.18776872754097
52253;Q8;ENI;Via Grevigiana 86 50026;43.63688230783481;11.221677213907242
6920;Q8 - SAN CASCIANO;Q8 - SAN CASCIANO;Via Giuseppe di Vittorio 57/A  50026;43.66114483056827;11.182862151589953
50569;SAN CASCIANO EST;NUOVA SIDAP  S.R.L.;RA03 RACCORDO AUTOSTRADALE SIENA-FIRENZE, Km. 43+600, Nord - 50026;43.61881076491031;11.187634407198951
40908;SAN CASCIANO OVEST;NUOVA SIDAP  S.R.L.;Autostrada RA03 RACCORDO AUTOSTRADALE SIENA-FIRENZE, Km. 41+983, dir. Sud - 50026;43.60595742207956;11.191051080822945
46493;TM04790;SALIERI NICO;SS. 67 KM. 128+070 67 50060;43.92856657351415;11.621556256894905
54595;Bambi Alfiero e Bambi Andrea Snc;BAMBI ALFIERO E BAMBI ANDREA - S.N.C.;VIA DEI TURRI 20 50018;43.757371959394106;11.187066905487882
5291;Firenze - Scandicci;Firenze - Scandicci;VIA PISANA  50018;43.76508851230084;11.162133514881134
13739;METANO SCANDICCI;METANO SCANDICCI;VIA DEI PRATONI 11/13 50018;43.77251360679481;11.151174889935305
26911;PV 4843;GESTIONI INNOVATIVE ITALIA S.R.L.;VIA B.DA MONTELUPO SNC 50018;43.7649494324733;11.177605837583542
51427;PV ALA SCANDICCI;ALA CARBURANTI S.R.L.;VIA EMPOLESE 3 50018, SCANDICCI (FI) 3 50018;43.69610906585635;11.101474761962885
5940;SCANDICCI;"IP SERVICES S.R.L.";Via Pisana KM 71+896  50018;43.765768433187965;11.15582513988113
42206;soc torre;TORRE DI RICCITELLI STEFANO & C. - S.N.C.;VIA DONIZETTI 79 50018;43.760083575512105;11.180273086577586
10661;stazione di servizio esso di Zurlo & C snc;STAZIONE DI SERVIZIO DI ZURLO DENNY E C. S.N.C.;DELLE NAZIONI UNITE 10 50018;43.76736953009038;11.158558130264282
20989;beyfin belli;BELLI GIAMPIERO & VALTER S.N.C.;LA TORRE-PETRONA 33/B-C 50038;43.96355529033261;11.338669806718826
9112;SAN PIERO A SIEVE - TAIUTI;SIRTAM S.R.L.;S.P. 65 BOLOGNESE - SAN PIERO A SIEVE  50037;43.94856940024065;11.311371624469757
23784;SAN PIERO A SIEVE MASSARONDINAIA;STAR SERVICE S.R.L.;VIA PROVINCIALE MASSARONDINAIA  50037;43.96189880822631;11.306119859218597
52786;SCARPERIA VIA GIACOMO MATTEOTTI 47;SERVIZI & GESTIONI ITALIA S.R.L.;MATTEOTTI 47 50038;43.9924496;11.3542353
53026;SOPETI SAN PIERO;SOCIETA' PETROLIFERA TIRRENA - SO.PE.TI. - S.R.L.;STATALE 65 KM24+250 50038;43.95014376867223;11.311659761844636
53231;STAZIONE DI SERVIZIO " OIL ITALIA ";STAZIONE DI SERVIZIO " OIL ITALIA ";CASE NUOVE TAIUTI SNC 50038;43.944492137607476;11.309620964888536
27356;Stazione Rifornimento AQUILA di Galeotti Daniele,Mugelli Gabriele e c. snc;GALEOTTI DANIELE MUGELLI GABRIELE E C. SNC;VIALE KENNEDY 115 50038;43.97884602604943;11.33737564086914
3510;BISENZIO OVEST;blu service snc;Autostrada A1 MILANO-NAPOLI, Km. 279+800, dir. Sud - 50019;43.83969433000652;11.162055568122923
55814;DUE V s.n.c.;DUE V s.n.c.;Via dell'Osmannoro 244 50019;43.8208308;11.1904756
23267;ENI DI MATTEUCCI RICCARDO;ENI DI MATTEUCCI RICCARDO;VIALE  PRATESE 94 50019;43.84203804956496;11.1860592539673
47006;ESSO SESTO FIORENTINO - V.LE PRATESE;PAD MULTIENERGY S.P.A;Viale Pratese 68 50019;43.84124178274129;11.187481714421668
55852;ESSO SESTO FIORENTINO VIA LUCCHESE 116 LOC. OSMANNORO;ESSO SESTO FIORENTINO VIA LUCCHESE 116 LOC. OSMANNORO;Via Lucchese 116 - Loc. Osmannoro  50019;43.808750000000003;11.172816600000001
36724;FIRENZE NORD;SARNI S.R.L.;Autostrada A1 MILANO-NAPOLI, Km. 4+600, dir. NORD - 50019;43.83286286066999;11.160603314638138
14071;il pegaso s.n.c. di margarini massimo e david;il pegaso s.n.c. di margarini massimo e david;VIA GRAMSCI 474/476 50019;43.82955304864728;11.208816466270491
29957;IP;IP;GIULIO CESARE 35/37 50019;43.836221911640365;11.190971932540833
55514;MASSIMO MARTINI;RAUGEI EDO & BIANCALANI ROBERTO S.A.S. DI MARTINI MASSIMO & C.;PRATESE 36 50019;43.83929818098948;11.191286349773426
4995;OILFIN;OILFIN S.R.L.;VIA FERRUCCIO PARRI 6/8 50019;43.840595625331765;11.175780603388148
53062;PERETOLA NORD;PERETOLA NORD;Autostrada A11 FIRENZE-PISA N.,  Km. 3,300, dir. NORD - 50019;45.4642035;9.189982
3500;PERETOLA NORD;sara srl;Autostrada A11 FIRENZE-PISA N., Km. 3+000, dir. Ovest - 50019;43.81950641010759;11.173160117721523
3861;PERETOLA SUD;ENI FUEL S.P.A.;Autostrada A11 FIRENZE-PISA N., Km. 3+000, dir. Est - 50019;43.81833036988592;11.172902584075928
34321;SESTO FIORENTINO;STAR SERVICE S.R.L.;VIA P PASOLINI  50019;43.81985050745649;11.20680570602417
43490;stzione Q8 JKV sas;JKV DI NIERI VALENTINA & C SAS;via provinciale lucchese 31 50019;43.80543239788912;11.180034955440987
29223;8088;T.D.M. S.R.L.;66 KM. 15+702 - 50058;43.811217647749274;11.080061942338943
11155;Brini e Bettarini;BRINI CARLO & BETTARINI ROBERTO S.N.C.;VIA PISTOIESE 327 50058;43.813252484045236;11.066374831213352
54272;Esso 331627;Esso 331627;Via Dei Colli s.s. 325 km 88+665 snc 50058;43.8003905;11.1068285
6937;Vezzosi Mauro e Filippo snc;Vezzosi Mauro e Filippo snc;viale Arte della Paglia 10, 50058  ;43.78660944463103;11.101405620574951
54410;MV carburanti;MV carburanti;Via del Chianti 10  50028;43.5618288;11.1802515
41476;stazione Eni 14708;VANNI DUCCIO;via chiantigiana s.c. 50028;43.54588257797509;11.227458715438843
51319;DISTRIBUTORE IP - VAGLIA;DISTRIBUTORE IP - VAGLIA;VIA FIORENTINA / 50036;43.84536694260526;11.290465713517117
5084;Chioscar snc;CHIOSCAR SNC DI CIUCCHI FRANCESCO E ROSARI MARCO;VIA BARDUCCI, RENZE 21 50039;43.93790803372079;11.44159020370489
7673;STAZIONE DI RIFORNIMENTO SHELL;STAZIONE DI RIFORNIMENTO ESSO;VIA VIA MARTIRI DI CAMPO DI MARTE 10 50039, VICCHIO (FI) 10 50039;43.93402513288584;11.458285568122847
42222;8087;T.D.M. S.R.L.;PROV.LE MERCATALE 250 50059;43.74177777991287;10.901294071163875
20277;desideri snc ;DESIDERI S.N.C. DI DESIDERI LUIGI E ALESSANDRO E C.;VIA L. DA VINCI 371/373 50059;43.73129695039245;10.917478501796722
8492;Eni;Eni;via provinciale mercatale 8/10 50059;43.77116548106554;10.917835235595703
51528;VINCI VIA PALMIRO TOGLIATTI 219;SERVIZI & GESTIONI ITALIA S.R.L.;VIA PALMIRO TOGLIATTI 219 50053;43.72794327649014;10.936059269940577
52654;AREA SERVIZIO CASE ROSSE;AREA SERVIZIO CASE ROSSE;LOC. IL PIANO SP 64 IL CIPRESS  58031;42.89647643518997;11.517080962657928
20861;Stazione di servizio Esso;RAFFI MASSIMILIANO;Strada Provinciale Arcidosso  58031;42.87163177024889;11.532678008079529
29676;AUTOGRILL CAPALBIO;AUTOGRILL CAPALBIO;Statale 1 Via Aurelia, Km. 132+150, dir. SUD  58011;42.41494987355314;11.36535108089447
13840;BAR IL GIRASOLE;BAR IL GIRASOLE;Statale 1 Via Aurelia, Km. 127, dir. Nord  58011;42.414852132217014;11.425706592343204
29614;CAPALBIO - AURELIA;"IP SERVICES S.R.L.";SS 1 AURELIA KM 128,720  58011;42.4149039604422;11.407037550926248
6573;CAPALBIO LC.NUNZIATELLA S.S. 1 AURELIA KM. 133;SERVIZI & GESTIONI ITALIA srl;S.S. 1 AURELIA KM. 133 LC.NUNZIATELLA SNC 58100;42.41502670808588;11.351958741738827
51433;capalbio sud - l'oasi di Capalbio;PANTA IMPIANTI DISTRIBUZIONE CARBURANTI E AFFINI  S.R.L.;1 Via Aurelia, Km. 130, roma - 58011;42.41462638642552;11.384947744152896
48849;ENERPETROLI CAPALBIO BORGO CARIGE;CIANCHETTA EMANUELE;LOCALITA' BORGO CARIGE SNC 58011;42.42472211082569;11.415989064143227
30452;CASTEL DEL PIANO - ROMA 21;"IP SERVICES S.R.L.";VIA ROMA 21 58033;42.88728820857191;11.535596559524492
15001;CECCARELLI MARIO;CECCARELLI MARIO;VIA DEL GALLACCINO 14 58033;42.89072182318114;11.528104171156883
53955;esso;esso;DEL PORTO 3 58043;42.80519;10.76490
27178;esso;esso;PROVINCIALE CASTIGLIONESE SNC 58043;42.768715390974336;10.885596937196397
25761;SELF AREA 4966;DI VIVONA FRANCESCO;VIA ANSEDONIA  32 58043;42.76121886274206;10.887711010873318
9749;TAMOIL;ELETTRAUTO SERVICE S.N.C. DI VITI GIANCARLO E C.;STRADA PROV.LE  3 PADULE SNC 58043;42.771032556185325;10.889827609062195
27862;TOTAL EXPO;TOTALEXPO DI ANTONIO BENINCASA;MARCONI 88 58043;42.76500741825929;10.871012705804446
50659;CINIGIANO;SYNERGY S.R.L.;Loc la Crocina snc 58044;42.893776861578246;11.398507663698842
32459;CINIGIANO - AMIATA MONTICELLO;"IP SERVICES S.R.L.";VIA AMIATA MONTICELLO  58047;42.88420048306433;11.479445170553504
29960;CINIGIANO - SP.CIPRESSINO;"IP SERVICES S.R.L.";S.P. 64 CIPRESSINO KM 10,662  58044;42.95747589406813;11.3833570846557
8297; PAGANICO;SIRTAM S.R.L.;Statale 223 di Paganico, Km. 22+700, dir. SIENA - 58045;42.928933895360956;11.265846490859985
23295;CIVITELLA PAGANICO CIPRESSINO;SIRTAM S.R.L.;S.P. 64 DEL CIPRESSINO  58045;42.92920648520498;11.266331970691681
47518;ENI SA.MA POWER S.A.S.;SA.MA.POWER S.A.S. DI NICOLA SABATINI & C.;LOC.LAMPUGNANO SS223 KM.34+806 SNC 58045;43.02869702857576;11.278731226921076
7021;IP;IP;VIA FRAZ. CIVITELLA MARITTIMA - VIA GROSSETO 1 58045, CIVITELLA PAGANICO (GR)  58045;42.997057634401386;11.285233497619629
42224;Piccinifuels - Civitella;Piccinifuels - Civitella;223 di Paganico, Km. 26.603, Grosseto  58045;42.97773110825657;11.282919279762268
36054;Autolavaggio D'avino Fabio ;TOTAL ERG DI D' AVINO FABIO;Via litoranea  4 58022;42.9262896818544;10.751923352710946
21576;cardini e lazzerini snc;CARDINI E LAZZERINI SNC DI CARDINI EDO E LAZZERINI MANOLA;VIA AURELIA SNC 58022;42.936195224194975;10.778027772903442
10222;Distributore di Follonica;Distributore di Follonica;DIACCIO  58022;42.93945991506522;10.781149574471556
16317;DISTRIBUTORE ESSO DI SCOZIO GIUSEPPE;DISTRIBUTORE ESSO DI SCOZIO GIUSEPPE;VIA BICOCCHI   58022;42.92594062610336;10.756133973336546
11131;ENERPETROLI - PV FOLLONICA U.BASSI - GR;ENERPETROLI S.R.L.;VIA UGO BASSI SNC 58022;42.92796166424806;10.753251694527762
13142;ENI \tS & G SNC DI FERRETTI STEFANO E GIACOMO;ENI \tS & G SNC DI FERRETTI STEFANO E GIACOMO;S.P. 152 (vecchia aurelia) km42+300, snc SNC 58022;42.93564893727554;10.775361061096186
53298;f.lli carli andrea e claudio snc;f.lli carli andrea e claudio snc;DELLE COLLACCHIE SNC 58022;42.914887023418714;10.769160801049793
49043;Follonica;NUOVA SIDAP  S.R.L.;1 Via Aurelia, Km. 226+673, Nord - 58022;42.951615245171425;10.776901245117188
31855;FOLLONICA - SP 152 KM 46 VIA AURELIA NORD;SERVIZI & GESTIONI ITALIA S.R.L.;SP 152 KM 46 VIA AURELIA NORD  58022;42.93742614428065;10.730392076075077
34730;FOLLONICA B.FUEL;FOLLONICA B.FUEL;s.p. 152 "Vecchia Aurelia" km 42,500  58022;42.935584117195944;10.773259713425773
11130;FOLLONICA VIA SANTINI - GR;ENERPETROLI - PV FOLLONICA G.B. SANTINI - GR;VIA SANTINI SNC 58022;42.92596203372656;10.753037631511688
25242;esso;esso;via curiel 10 bagno di gavorrano  58023;42.93840893267775;10.887863612233787
11614;GAVORRANO-LOC.LA MENGA VARIANTE AURELIA;SERVIZI & GESTIONI ITALIA S.R.L.;LOC.LA MENGA VARIANTE AURELIA S/N 58023;42.951404172544585;10.908896559524464
52003;04920;STEFANINI EMILIO;via Scansanese 25 58100;42.761393034616034;11.121452217349777
55864;4385;4385;Via Pietro Mascagni 77  58100;42.759689416826866;11.122387929222226
54957;4957 Grosseto Aurelia;4957 Grosseto Aurelia;VIA AURELIA SUD KM 179+720   ;42.74396;11.11805
51871;4961 – Grosseto Batignano;PV 4961 – Grosseto Batignano;Strada Statale 223 Km 8+300 Fraz. Batignano  58100;42.84048810029954;11.152971450315212
51870;53628 – Grosseto;PV 53628 – Grosseto;Via Aurelia Sud  58100;42.75121550266971;11.112872188121745
44758;8090;T.D.M. S.R.L.;SENESE 147 58100;42.771238651453366;11.120467362565591
8477;8091;PIAZZI GIANNI;Statale 1 Via Aurelia, Km. 185.500, dir. sud - -;42.74505741088775;11.116195321083069
22979;Aquila Il Bucchero;IL BUCCHERO DI COSMO LUCIANO & C. S.N.C.;Statale 223 di Paganico, Km. 1+370, dir. grosseto siena - 58100;42.81016326457247;11.13338828086853
48115;AREA DI SERVIZIO GOLDENGAS GROSSETO;AREA DI SERVIZIO GOLDENGAS GROSSETO ESSO;Via Aurelia Sud 51 58100;42.746659874902896;11.114845173748495
46816;Bernardini - Grosseto;Bernardini - Grosseto;223 KM 2 + 509 SNC 58100;42.82850731826267;11.138811707496643
4652;Braccagni;NUOVA SIDAP  S.R.L.; VIARIANTE SS1 AURELIA K196+445 SNC, 58100 - -;42.86825061011571;11.076123118400574
24630;CONAD SUPERMERCATI GROSSETO;CLODIA COMMERCIALE SRL;Via Bulgaria  35 58100;42.77558358909064;11.115090250968933
50693;CONAD SUPERMERCATO GROSSETO;CONAD SUPERMERCATO GROSSETO;VIA SCANSANESE  58100;42.7623715074205;11.132437084655775
38753;DI VIVONA FRANCESCO;DI VIVONA FRANCESCO;VIA MONTEROSA 152 58100;42.772862853890956;11.113673374056816
22531;Distributore Carburati TOTALERG di Fuligni Fabio;Distributore Carburati TOTALERG di Fuligni Fabio;VIA SCANSANESE, STIACCIOLE 444  58100;42.77638834312402;11.172751846319898
55696;DISTRIBUTORE ENI;DISTRIBUTORE ENI;SENESE 85 58100;42.76850055496255;11.119270903110532
32028;EMPORIO DA PIETRINO SNC;EMPORIO DA PIETRINO S.N.C. DI GRANDINI LUISELLA E CHERUBINI FABRI ZIO;VIA SCANSANESE 480 58100;42.77957656692439;11.177132427692413
34028;ENERPETROLI - PV GROSSETO VIA GIULIO CESARE;ENERPETROLI S.R.L.;VIA GIULIO CESARE 73 58100;42.76644003508155;11.102463752031326
41612;ENERPETROLI - PV GROSSETO VIALE DELLA REPUBBLICA;ENERPETROLI S.R.L.;VIALE DELLA REPUBBLICA 21 58100;42.755305376599225;11.10461113693998
31126;ENI DI PASQUI PAOLO;PASQUI PAOLO;VIA AURELIA NORD KM. 162  58100;42.778787126629865;11.09894871711731
52481;ESSO - GROSSETO BIVIO ROSELLE 104;PAD MULTIENERGY S.P.A;ROSELLE S.S. 223 KM 2 + 969 58100;42.797874424406324;11.134345447560635
53716;ESSO - GROSSETO V.LE SONNINO 57;PAD MULTIENERGY S.P.A;SONNINO 57 58100;43.7063373;13.2103381
50158;ESSO GROSSETO;JONATHAN PNEUMATICI DI FREGOLI JONATHAN;VIALE SONNINO 57 58100;42.752559403108464;11.112141907215113
13966;fanfani marco;fanfani marco;AURELIA SUD 3 58100;42.751873599517296;11.112678945064545
51067;Grifo Carburanti;Grifo Carburanti;VIALE CARAVAGGIO 65 58100;42.74916869923278;11.11189277041856
24199;GROSSETO;GROSSETO;VIA AURELIA NORD 50 58100;42.769542447545476;11.107818961143494
25075;GROSSETO - AURELIA NORD;"IP SERVICES S.R.L.";VIA AURELIA NORD 17  58100;42.768819690086296;11.108724139881133
30299;GROSSETO - VARIANTE SS1;"IP SERVICES S.R.L.";VARIANTE S.S. 1 - AURELIA KM. 189,260  58100;42.805611807031255;11.093983906745962
27933;Grosseto Aurelia;"IP SERVICES S.R.L.";Via Aurelia Nord 98 58100;42.77335014973591;11.10515333712101
50510;GROSSETO BANDITELLA;SIRTAM S.P.A.;1 Via Aurelia, Km. 170+999, GROSSETO - 58100;42.6748650748414;11.141434816445214
6574;GROSSETO DEI MILLE 107;SERVIZI & GESTIONI ITALIA srl;VIA DEI MILLE 107 58100;42.752922768288286;11.11264944076538
21656;GROSSETO ROSELLANA, 135;SERVIZI & GESTIONI ITALIA S.R.L.;ROSELLANA 135 58100;42.79541954741251;11.132650673389435
6572;GROSSETO VIA AURELIA NORD KM.184;SERVIZI & GESTIONI ITALIA srl;VIA AURELIA NORD KM.184 SNC 58100;42.778203603749915;11.100584864616394
42100;GROSSETO VIALE GIUSTI;STAR SERVICE S.R.L.;VIALE GIUSTI  58100;42.77467710082975;11.101890429854393
11613;GROSSETO-VIA AURELIA NORD 120;SERVIZI & GESTIONI ITALIA S.R.L.;VIA AURELIA NORD 120 58100;42.77693034423373;11.101794635581996
9294;IP;IP;VIA AURELIA KM.174 SN, 58100 183 ;42.70787446566384;11.14086627960205
38925;IP MARTINI ALESSANDRO ;IP;CASTIGLIONESE 49 58100;42.77050605994606;11.093505844473839
50649;IP STAZ SERV . BRACCAGNI;DARIEN S.A.S. DI GRECO SALVATORE;VIA ELENA LUCREZIA CORNARO EX VIA AURELIA VECCHIA 58 58100;42.87180751800218;11.0756504535675
54806;LEVANTE GROSSETO;LEVANTE GROSSETO;Via Ecuador  58100;42.7877655479323;11.11796770840855
46922;Luca Alcamo;ALCAMO LUCA;Via Pietro Mascagni 77 58100;42.75968978630193;11.122527770423744
43770;Mac Grosseto Nord;TORREGAS - S.R.L.;Località Rugginosa  58100;42.80102304802358;11.08415871717932
43771;Mac Grosseto Sud;TORREGAS - S.R.L.;Strada provinciale 158 58100;42.74982560496126;11.093877201223336
13526;MARINA CARBURANTI;MARINA CARBURANTI S.R.L.;VIA GROSSETANA, MARINA DI GROSSETO 60 58100;42.71877367773859;10.990595793254101
55968;NUOVA PESA SRL ;NUOVA PESA SRL ;SENESE 175 58100;42.77902;11.12476
47570;Q8;Q8;VIA CASTIGLIONESE 67 58100;42.771744000123;11.090228000123
36766;stazione di serviozio esso di giannini filippo;STAZIONE DI SERVIZIO ESSO DI GIANNINI FILIPPO;VIA DELLA PACE 129 58100;42.76909453219253;11.111423726983617
39017;STAZIONE DI SERVIZZIO DI GIANNINI FILIPPO;STAZIONE DI SERVIZZIO ESSO DI GIANNINI FILIPPO;VIA AURELIA NORD 56 58100;42.7715384979936;11.10641303865782
50225;Tirrenogas Grosseto;TIRRENO GAS DI TAVOLIERI ARNALDO E C. S.N.C.;AURELIA NORD 236 58100;42.78478740743983;11.092790365219116
15767;UNIONE GAS AUTO SPA - MY EN;MF SNC DI ANGELI M. & SINIBALDI F.;VIA SCANSANESE 309 58100;42.766042081863006;11.15630641579628
31928;Bancalà Emanuele distributore q8;BANCALA' EMANUELE;via umberto I 67 58012;42.35942388048221;10.92087613739966
52232;LOC MONTICELLO;LOC MONTICELLO;BANCALA EMANUELE DISTRIBUTORE Q8 67 58012;42.363811100454555;10.914606442626992
47275;Ala Carburanti;BRICOLOBI S.R.L.;Strada provinciale 160 amiatina km. 97,400  58051;42.5853492792878;11.286461353301997
18329;KALOROIL MANCIANO;KALOROIL MANCIANO;VIA PARIDE PASCUCCI SNC 58014;42.5924218264777;11.520582373584261
18330;KALOROIL SATURNIA;KALOROIL SATURNIA;VIA DELLE TERME 51, 58014  ;42.65511063947189;11.511208960499175
50661;MANCIANO;SYNERGY S.R.L.;Via Circumvallazione Nord  37 58014;42.58892177906998;11.517132428601773
9185;TAMOIL;TAMOIL;S.R. 74 km 11,770 - -;42.53497095179947;11.336098909378052
5946;MASSA MARITTIMA;"IP SERVICES S.R.L.";Via Circonvallazione 2 58024;43.05198735973446;10.887038597553214
21016;Stazione Rifornimento Esso;BARGELLI S. & C. S.N.C.;LOCALITA' SCHIANTAPETTO  58024;43.03318378123235;10.884260684251785
34220;04947;ALOCCI MARINA;strada provinciale orbetellana  58019;42.40547756998365;11.200216859579086
9633;Argentario Carburanti;ARGENTARIO CARBURANTI DI ROSI GABRIELE & C. S.A.S.;VIA CAMPONE ALTO SNC 58019;42.41849469090976;11.115725790085662
30836;Confessore Rino;CONFESSORE RINO;TERRA ROSSA SNC 58018;42.42557740544466;11.197828352451324
47219;ENI PV4904;ENI PV4904;PIAZZA DEL VALLE SNC 58019;42.43441563319328;11.12233256917444
4370;località Costa di Teva;ARGENTARIO TRADE S.R.L.;località  Costa di Teva S.P. 161 KM 8+700  58019;42.42980273153456;11.163234561681747
47647;PIERONI ANDREA;PIERONI ANDREA;VIA MOLO MARINAI D' ITALIA SC 58019;42.43543191061528;11.122724562883372
23662;reteitalia;reteitalia;piazza Mario Cheli   58025;43.14708983885971;10.856137810457994
15366;keropetrol;SOZZI ANDREA;LOCALITA' GABELLINO SNC 58026;43.07839327334394;11.015451550483704
54705;4956 Orbetello;4956 Orbetello;Loc. Fonteblanda – p.te Osa  ;42.54653;11.17565
16677;AGIP;VILARDI MICHELE;MARCONI  58015;42.440566502779824;11.214853674173355
50709;Beyfin Orbetello;E.G PUNTO SOSTA SAS DI GIUGGIOLI EMILIANO & C.;Loc.LA POLVEROSA, STR.REG. 74 KM 7 58015;42.52134937220107;11.28011687935539
16600;ENERPETROLI ;SASSETTI FABRIZIO;VIA MONTIANESE 24 58015;42.56575347622328;11.171282610838716
34157;ENI OSA;STAZIONE DI SERVIZIO DI RINALDI MARIO;Statale 1 Via Aurelia, Km. 156, dir. sud - 58015;42.546599156869064;11.175689399242401
45508;IP Orbetello Scalo;BENICCHI CESARE;1 Via Aurelia, Km. 144,400, nord - 58015;42.45924539434173;11.247215867042542
32998;ORBETELLO - FONTEBLANDA;"IP SERVICES S.R.L.";VIA AURELIA KM. 159,830  58010;42.57883700485404;11.164709212303137
23997;ORBETELLO - FONTEBLANDA;STAR SERVICE S.R.L.;Statale 1 Via Aurelia, Km. 159+200, dir. GROSSETO - ;42.57387227493479;11.167409420013428
27264;ORBETELLO OIL ITALIA;OIL ITALIA SRL;STRADA PROVINCIALE N.7 BARCA DEI GRAZI  SNC 58100;42.51354230288021;11.242410304087116
52781;ORBETELLO SS AURELIA,244 KM 152+090 ALBINIA;ORBETELLO SS AURELIA,244 KM 152+090 ALBINIA;1 KM 152+095 SNC 58015;42.5153623;11.1944954
34023;Panta Talamone;CI.ERRE. NAUTICA S.R.L.S.;Piazza del Porto 1 58015;42.55428534969903;11.135302037000656
25576;Stazione di Servizio ESSO di Vanni C & Segato M snc;VANNI CESARE E SEGATO MARCO S.N.C.;PIAZZA MARIO CORTESINI 35, 58015 - -;42.43948929829656;11.213878020644188
12621;Stazione di servizio PANTA s.r.l.;Stazione di servizio PANTA s.r.l.;strada Provinciale 440 km 2+272  58015;42.44374758190295;11.229059336376167
40123;totalerg;MAGAROTTO ANDREA;Statale 1 Via Aurelia, Km. 150+200, dir. roma - 58015;42.50040260140667;11.20401956140995
10347;giovanni dondolini;DONDOLINI GIOVANNI;VIA N. CIACCI 513 58017;42.63655258278026;11.674544631056051
18332;KALOROIL PITIGLIANO;KALOROIL PITIGLIANO;STRADA REGIONALE MAREMMANA 74  55372 58017;42.647349692325456;11.707957434752302
29705;PITIGLIANO;PITIGLIANO;VIA NICOLA CIACCI 16 58017;42.634524659605155;11.671684831380844
20572;BOCCINI BRUNO;BOCCINI BRUNO;STRADA STATALE 323 SNC 58053;42.78301533779549;11.483602970838547
43537;8089;T.D.M. S.R.L.;MONTEMASSI 88 58036;42.970230062593714;11.03930111660236
12586;Distribuore Da Frassini;DA FRASSINI ANDREA;VIA ROMA 201/B 58036;43.02561114770337;11.090097427368164
27253;DISTRIBUTORE IP di BONCIOLI PAOLO E ANDREA;DISTRIBUTORE IP di BONCIOLI PAOLO E ANDREA;VIA MAZZINI 55 58036;43.013739161595076;11.166065633296967
43837;Geno Srl;GENO SRL;Loc. Il Terzo Snc 21 58036;43.00111967345741;11.171936996628574
21662;Staz. Servizio di Vecchiarelli Tito e Piero Snc;Staz. Servizio di Vecchiarelli Tito e Piero Snc;S.P. 19 DI MONTEMASSI  58036, ROCCASTRADA (GR) SNC 58036;42.92544663898517;11.08071858810581
39996;BALDUCCI SNC;BALDUCCI S.N.C. DI BALDUCCI ROBERTO & C.;VIA martiri di niccioleta 17 58037;42.83457021741693;11.584484818385363
32908;SCANSANO;STAR SERVICE S.R.L.;S.P. DELLE COLLACCHIE  58054;42.693509348474414;11.320925652980804
50660;SCANSANO;SYNERGY S.R.L.;S.P. Fronzina km 24- Loc. Baccinello snc 58054;42.78911016159195;11.36141799033821
51574;Andrea Raffaelli Soccorso Stradale;RAFFAELLI ANDREA;STRADA PROVINCIALE N.158 KM 10+970  snc 58020;42.85488593254055;10.806830999999981
15613;ESSO DI IMPARATO SALVATORE ;IMPARATO SALVATORE S.A.S.;Statale 1 Via Aurelia, Km. 224, dir. SUD - 58020;42.940209639380505;10.806766301393509
53300;f.lli carli andrea e claudio snc;F.LLI CARLI ANDREA E CLAUDIO S.N.C.;STATALE 322 KM 5+532 SNC 58020;42.89818592438348;10.784909725189209
50723;IP RAFFAELLI E SOCCORSO STRADALE H 24;PUNTO AUTOTRASPORTI S.A.S. DI RAFFAELLI F. & C.;S.P. N. 158 DELLE COLLACCHIE KM 10+970 SNC 58020;42.854894579875335;10.80684804287801
8718;La Castellina s.s.1;PITTALIS RAIMONDO FRANCESCO & C. S.N.C. DI PITTALIS RAIMONDO FRAN CESCO E PITTALIS GIOVANNA RITA;Statale 1 bis Via Aurelia, Km. 223, dir. Roma - 58020;42.95867210715349;10.816238522529602
7447;S.A.M. Scarlino;S.A.M. Scarlino;SP. 152 Aurelia Vecchia Km.48+300 Scarlino Scalo  58020;42.94351568016679;10.825131386518478
46006;KALOROIL CATABBIO;KALOROIL CATABBIO;LOCALITA' CASE RIGO SNC 58055;42.6997606397355;11.56418556322626
51386;6101;T.D.M. S.R.L.;DELLA REPUBBLICA S.N.C. 58010;42.66917357403328;11.7629446490738
25594;Area di rifornimento La Botte;Area di rifornimento La Botte;LOCALITA' MONTORIO SNC, 58010  58010;42.73135737392533;11.762920171022415
31345;Officina Gagliardi e C. Snc;OFFICINA GAGLIARDI E C. S.N.C. DI GAGLIARDI RICCARDO E COSTANZI F LORIANO;DEL PRETORIO 39/43 58010;42.65742241954757;11.647913912222407
29208;tamoil;CHECCHINI SONIA;PIAZZA DELLA REPUBBLICA 13/B 58010;42.669009377870836;11.762951804935142
46735;Manfredi Samuele snc;MANFREDI S.N.C. DI MANFREDI SAMUELE & C.;AURELIA 47 57020;43.27103381655962;10.542469914701996
45071;PV MARINA DI BIBBONA;ALA CARBURANTI S.R.L.;VIA LOC.MARINA DI BIBBONA VIA PROV.LE DEI MELOGRANI 11 57020, BIBBONA (LI) 11 57020;43.24720728482552;10.54064691066742
45597;ADS VENTURINA;CHECCHI CARBURANTI DI CHECCHI DANIELE & C. S.N.C.;1 Via Aurelia, Km. 245+10, ROMA - 57021;43.018311241961214;10.589698353075846
21153;CAMPIGLIA EST;CAMPIGLIA - S.R.L.;LOCALITA' AFFITTI  57021;43.00325798125213;10.6111179292202
51087;CAMPIGLIA MARITTIMA;SYNERGY S.R.L.;VIA CERRINI 142 57021;43.01710773902328;10.595207628355764
43937;CIBA DI CECCHINI FABIO E C. SNC;CIBA DI CECCHINI FABIO E C. SNC;AURELIA SUD 5/A 57021;43.02333341039866;10.608962774276733
31274;CONAD ETRUSCO S.R.L.;ETRUSCO S.R.L.;Via Dell'Agricoltura 41 57021;43.027692389953586;10.611718850279658
8081;EFFE & EFFE;EFFE & EFFE;Statale 1 Via Aurelia, Km. 243, dir. roma  57029;43.03100474981981;10.598696619272232
48680;EUROPAM S.R.L. - CAMPIGLIA MARITTIMA;EUROPAM S.R.L.;VIA INDIPENDENZA - FZ VENTURINA 269 57021;43.032426468212506;10.597026822090147
37896;PROGETTO GAS;PROGETTO GAS SRL;VIA DEI FALEGNAMI 36 57021;43.00619544099125;10.586963674566618
43334;PV CAMPIGLIA;ALA CARBURANTI S.R.L.;VIA VIA DI VENTURINA SC 57021, CAMPIGLIA MARITTIMA (LI) SNC 57021;43.05741853014303;10.614836046627033
46737;simone friani;simone friani;indipendenza  9 57021;43.02608298109543;10.604969801258108
38283;AREA DI SERVIZIO ENI;PISANI ALESSANDRO;PER PORTOFERRAIO 656 57034;42.75218616583377;10.23483082652092
50916;BEY0045;GAMBA E.M. W. & C. - SOCIETA' IN ACCOMANDITA SEMPLICE;LOC. MOLO PESCE SNC 57034;42.74339560761731;10.237943906745922
37918;DISTRIBUTORE ALZI - BEYFIN;PIZZOLANTE ANDREA;ALZI - VIA PROV. POMONTE SNC 57034;42.74320139989684;10.216800055048338
45349;DISTRIBUTORE BEYFIN LA PILA;PIZZOLANTE ANDREA;LA PILA SNC 57034;42.76620591050832;10.236551463603973
55497;capraia rifornimenti;capraia rifornimenti;via assunzione 75 57032;43.05153014111591;9.83688622713089
24056;Area Servizio Le Colonne;FOSSI FABIO & FOSSI FEDERIGO SNC;VIA AURELIA KM.257 665, 57022 - -;43.122023775499656;10.545439267079928
44724;BEYFIN;ALESSIO CARBURANTI DI SIGNORINI ALESSIO & C. S.A.S.;Strada Statale 329, Km. 2,015, dir. SUD  57022;43.168704236957836;10.585202425718307
46066;CASTAGNETO B.FUEL;B.FUEL CASTAGNETO;VIA UMBERTO I 43 57022;43.15993297230388;10.606832504272461
6564;CASTAGNETO CARDUCCI AURELIA SUD 241;SERVIZI & GESTIONI ITALIA srl;AURELIA SUD 241 57022;43.16204885944747;10.563358693254031
11620;CASTAGNETO CARDUCCI-FZ.DONORATICO VIA AURELIA;SERVIZI & GESTIONI ITALIA S.R.L.;FZ.DONORATICO VIA AURELIA S/N 57024;43.175630138856945;10.56704118847847
6851;CONAD;FORMENTERA S.R.L.;S.P.N.39 EX S.S. AURELIA  57022;43.173620288037725;10.56634247303009
6563; CECINA V.AURELIA KM.278+025- LOC. CEDRINO;SERVIZI & GESTIONI ITALIA srl;V.AURELIA KM.278+025- LOC. CEDRINO SNC 57023;43.29378364543625;10.526449978351593
42571;54101 Cecina;PV 54101 Cecina;via Variante Aurelia Km 273  57023;43.2897587750513;10.543888300507888
47633;ACI;ACI;VIA VIA AURELIA AL KM 280 + 739 SNC 57023, CECINA (LI) 1 57023;43.316225697502034;10.513486652028206
10108;Cecina;"IP SERVICES S.R.L.";Via Aurelia Nord  Loc. San Pietro in Palazzi  57023;43.32869349978992;10.503674000501633
32475;CECINA B.FUEL;B.FUEL CECINA;VIA DEL PARATINO 9/E 57023;43.30444181854402;10.54328411737447
11622;CECINA LI-SS.1 VARIANTE AURELIA LATO DESTRO;SERVIZI & GESTIONI ITALIA S.R.L.;SS.1 VARIANTE AURELIA LATO DESTRO S/N 57023;43.28980933258288;10.543288863754242
28139;Cecina Matteotti;"IP SERVICES S.R.L.";Corso Giacomo Matteotti 354 57023;43.299963336771995;10.523166954517365
11621;CECINA-LOC.PALAZZACCIO AURELIA 365/B;SERVIZI & GESTIONI ITALIA S.R.L.;LOC.PALAZZACCIO AURELIA 365/B 57023;43.30110019406791;10.522947013378143
55106;ENI;ENI;PISANA LIVORNESE KM 0,700 57023;43.333360891697644;10.50635153842566
36999;ENI;GALASSO ANGELO & VITINA S.N.C.;PISANA LIVORNESE KM. 0,700  57010;43.33313888647109;10.506343177101485
23421;ENI DI PIO LUCA E MARCO;ENI DI PIO LUCA E MARCO;VIA MONTANARA SNC 57023;43.31379625939881;10.52788496017456
11250;ESSO;CIGNI DALMAZIO E C. S.N.C.;CORSO MATTEOTTI 294/A 57023;43.30396760637648;10.52109816322934
55836;ESSO CECINA CORSO MATTEOTTI 294/F LOC. PALAZZACCIO;ESSO CECINA CORSO MATTEOTTI 294/F LOC. PALAZZACCIO;Corso Giacomo Matteotti 294/F  57023;43.3029911;10.5215975
7632;Esso CM;Esso CM;VIA AURELIA NORD 2 57023;43.31754593965860;10.513366162776930
33921;Gpl Elf;Gpl Elf;Via Montegrappa  128 57023;43.30654916243151;10.537227094173431
52895;SPAZIO CONAD CECINA;SPAZIO CONAD CECINA;VALDICECINA 70 INT 2 57023;43.3300;10.5243
14600;STAZIONE ENI CARBURANTE;VADI GIANCARLO S.N.C. DI VADI GIANCARLO E DI QUIRICO SONIA;VIA AURELIA NORD KM 281  57023;43.31972530812731;10.512302666902542
49184;ACI VICARELLO;ACI VICARELLO;VIA GALILEO GALILEI 84-86 57014;43.61128881253568;10.467393380205532
31492;COLLESALVETTI - S.S. 206;"IP SERVICES S.R.L.";S.S. 206 KM 33,585  57019;43.60386503941091;10.472151720237662
32823;COLLESALVETTI DIR FI;STAR SERVICE S.R.L.;SGC FI-PI-LI KM 70+650 DIR FI LOC.MORTAIOLO  57014;43.61193401512959;10.425317287445068
32994;COLLESALVETTI DIR LI;STAR SERVICE S.R.L.;SGC FI-PI-LI KM 69+449 DIR LI LOC.MORTAIOLO  57014;43.616771329127424;10.438979119062424
35303;COLLESALVETTI GRECCIANO;NEW GREEN FUEL S.R.L.;SGC FI-PI-LI KM 64+607  57014;43.622039307895356;10.49641728401184
55109;esso;esso;AURELIA 136 57014;43.558826;10.31565
30730;EURPETROLI SAS;EURPETROLI DI MAMELI SIMONE S.A.S.;AURELIA 15/D 57014;43.58938249203169;10.34693559192658
24020;F.LLI TRAVAGLINI SNC;TRAVAGLINI F.LLI S.N.C.;VIA PISANA LIVORNESE NORD 95 57019;43.63100266931269;10.457098131213343
54953;G.D. FUEL SRL;COLLESALVETTI DIR LIVORNO;SGC FI-PI-LI  DIR.LI.KM 69+449 SNC 57014;43.616664;10.439097
37729;Grecciano sud;EFFECI OIL & FOOD S.N.C. DI CARDINALI FLORISA E C.; SGR DIR FIRENZE SNC 57014;43.621273119812464;10.49623355269432
5671;lenzi claudio;lenzi claudio;VIA PISANA LIVORNESE KM. 31,400  57014;43.58426432219009;10.47235518693924
28890;MORRONE MONICA;MORRONE MONICA;VIA EUROPA 9/11/13 57014;43.60131539363137;10.472599512164265
10221;Stazione di metano di Collesalvetti;TIRRENOMET S.N.C. DI TAVOLIERI ARNALDO & C.;AIACCIA 74 57017;43.57953740372085;10.357101887544331
54483;STRADA REGIONALE 206 PISANA LIVORNESE CARBURANTI TOSCANA SERVIZI SRL ;STRADA REGIONALE 206 PISANA LIVORNESE CARBURANTI TOSCANA SERVIZI SRL ;ST.LE 206 PISANA LIVORNESE SNC 57014;43.5889;10.475
29898;1263;T.D.M. S.R.L.;PETRARCA ANG. V. FERRIGNI 150 57124;43.54382180048641;10.326396077871323
55655;53663 LIVORNO;ENI FUEL S.P.A.;Via dell'Ardenza  57128;43.51890;10.32399
29489;7077;T.D.M. S.R.L.;DELL'ARTIGIANATO 21 57121;43.56515048172131;10.341841578483582
51988;ACI ANTIGNANO;ACI ANTIGNANO;Viale del Littorale 277 57128;43.48748095568926;10.330607891082758
31724;ardenza;JOLLY WASH DI GALEAZZI UMBERTO;DELL'ARDENZA 134 57123;43.51890509361613;10.323986113071442
19599;Baroncini & Benvenuti snc;BARONCINI & BENVENUTI SNC DI BARONCINI STEFANO & BENVENUTI GRAZIA NA;viale petrarca 113 57100;43.543205252885;10.326592385319486
18237;CaLeLo;CA.LE.LO. S.R.L.;VIA FIRENZE 65 57121;43.574545210802604;10.33450573682785
18555;distributore esso grossi moreno e c. s.a.s;distributore esso grossi moreno e c. s.a.s;VIA FIRENZE 18 57121, LIVORNO (LI) 18 57121;43.56181645779501;10.326154346032695
6274;Distributore Mac di Papi G. & c. sas;Distributore Mac di Papi G. & c. sas;VIA CATTANEO CARLO 42 57128;43.53024935061863;10.318977952639784
46348;Edra Oil ;MARINARI DANIELE;LARGO BELLAVISTA 8 57126;43.54060046807032;10.301972632461684
46706;ENI BARONTINI LORENZO;ENI BARONTINI LORENZO;FIRENZE 36 57121;43.563054464867584;10.325593847195153
51940;Eni Station 05037;Eni Station 05037;PIAZZALE BARRIERA ROMA 82 57100;43.53258707922147;10.319235860118852
50568;ENI STATION DI VITIELLO VINCENZO;VITIELLO VINCENZO;viale petrarca 122 122 57124;43.54458891302396;10.326932100227259
50623;ESSO Ulivieri Luca;ESSO Ulivieri Luca;VIA DELL'ARDENZA KM. 312+626 80 57128, LIVORNO (LI) 80 57128;43.52749825356055;10.321580171585083
45684;EUROPAM - LIVORNO;EUROPAM S.R.L.;Via Mastacchi  317 57121;43.56321513277455;10.32969391534425
34221;Impianto di carburanti IP di Curzi simone;CURZI SIMONE;VIA DI MONTENERO 189 57128;43.49999170855866;10.342536270618439
41640;IP - MARCO GIUDICI;GIUDICI MARCO;VIA DI SALVIANO 459 57124;43.536806367210204;10.341872518385344
46335;IP DI ATTANASIO ANDREA;IP DI ATTANASIO ANDREA;VIA DELLE SORGENTI 470 57121;43.56934264607765;10.37855364382267
14979;ITALIANA PETROLI Terreni e Bucchioni S.n.C.;ITALIANA PETROLI Terreni e Bucchioni S.n.C.;VIA MACHIAVELLI NICCOLO' 61/B 57128;43.52526625749534;10.325154215097427
55229;ITALIANA PETROLI TERRENI E BUCCHIONI S.N.C.;ITALIANA PETROLI TERRENI E BUCCHIONI S.N.C.;VIA VIA DI SALVIANO 459 57121, LIVORNO (LI) 459 57124;43.52496609758994;10.324842334901927
4655;Livorno;NUOVA SIDAP  S.R.L.;VIA DI LEVANTE S.N.C. 57100;43.531763261253495;10.339660942554474
10101;LIVORNO;"IP SERVICES S.R.L.";Via Firenze   57121;43.56439928797997;10.325211882591248
27759;LIVORNO - ANTIGNANO;"IP SERVICES S.R.L.";ANTIGNANO - VIA VESPUCCI  57100;43.49383384268782;10.324164373016401
29281;LIVORNO - FIRENZE 10;"IP SERVICES S.R.L.";VIA FIRENZE 10 57100;43.56073585966929;10.326367813491856
31486;LIVORNO - LEONARDO DA VINCI;"IP SERVICES S.R.L.";VIA LEONARDO DA VINCI 10 57100;43.573909716112674;10.320124139881159
31142;Livorno Firenze;"IP SERVICES S.R.L.";via Firenze 87 57121;43.575603080656784;10.336010456085205
32487;LIVORNO V.LE BOCCACCIO 21;SERVIZI & GESTIONI ITALIA S.R.L.;V.LE BOCCACCIO  21 57100;43.535625338973816;10.323584710416071
23320;LIVORNO V.NTE SS.1 KM.4,3 LATO MARE;SERVIZI & GESTIONI ITALIA S.R.L.;V.NTE SS.1 KM.4,3 LATO MARE  57121;43.5505760998068;10.342302918434143
40640;LIVORNO VARIANTE AURELIA SS1 KM 317+472;SERVIZI & GESTIONI ITALIA S.R.L.;VARIANTE AURELIA SS1 KM 317+472  57121;43.567762184267494;10.347437777246114
23319;LIVORNO VARIANTE SS 1 KM 4+320 L.MONTE;SERVIZI & GESTIONI ITALIA S.R.L.;VARIANTE SS 1 KM 4+320 L.MONTE  57121;43.550915038102424;10.343284215869176
48872;LIVORNO VIA DEL LITTORALE 283;SERVIZI & GESTIONI ITALIA S.R.L.;VIA DEL LITTORALE 283 57128;43.48579748308487;10.331576051520539
6562;LIVORNO VIA FIRENZE 14;SERVIZI & GESTIONI ITALIA srl;VIA FIRENZE 14 57121;43.561304332513025;10.326135233044624
54573;LIVORNO VIALE FRANCESCO PETRARCA 176;LIVORNO VIALE FRANCESCO PETRARCA 176;Viale Francesco Petrarca 176  57124;43.5422037;10.3251897
37178;Mazzei Daniele;Mazzei Daniele;VIA VIA CINTA ESTERNA S.N. 57100, LIVORNO (LI) 52 57122;43.55519552140894;10.305282119907247
14464;nicola ricciuti;RICCIUTI NICOLA;VIALE NIEVO IPPOLITO 43/C 57122;43.55772393567285;10.326629140252294
41497;P.V. 5027;ULIVARI CESARE SAS DI ROSALBA CARLO & C.;VIA ENRICO CIALDINI  04 57123;43.54881383209623;10.304510565641408
25678;S.L.A.C. srl;S.L.A.C. srl;VIA FIRENZE 70 57121;43.56616199999995;10.323725294967646
37356;Saviozzi Paolo;SAVIOZZI PAOLO;Viale Boccaccio 10 57127;43.53688895849657;10.322479979762306
55198;SHELL LIVORNO VIALE PETRARCA, 113;PAD MULTIENERGY S.P.A;FRANCESCO PETRARCA 113 57124;43.5435348;10.3264902
4663;Società Combustibili Appalti Termici S.p.A.;SOCIETA' COMBUSTIBILI APPALTI TERMICI  S.P.A.;VIA DELLE CATERATTE 73 57122;43.57116565565136;10.316196978092194
52724;STAZIONE DI SERVIZIO ACI- AGIP SNC DI MASSIMILIANO FORTE E C.;STAZIONE DI SERVIZIO ACI- AGIP SNC DI MASSIMILIANO FORTE E C.;NIEVO IPPOLITO 126 57121;43.5454043;10.3162332
7585;Stazione di Servizio Barontini Marco;Stazione di Servizio Barontini Marco;VIA MARRADI GIOVANNI 152 57125;43.53933905580143;10.316677088638244
20684;Stazione di sevizio Scutti Claudio;SCUTTI CLAUDIO;VIA VIA MONDOLFI,154 ANTIGNANO S.N. 57100, LIVORNO (LI) 154 57128;43.509595233856054;10.32704047858715
37219;SV Carburanti;S.V. CARBURANTI DI GUIDETTI ROBERTO;viale nazario sauro  95 57127;43.531996610592266;10.318083576858044
48028;Tamoil- Carburanti Toscana Srl ;CARBURANTI TOSCANA S.R.L.;via L. Poet (Mc Donald's- Levante) 14 57124;43.532659317881574;10.3281569480896
20598;VIA FIRENZE;VIA FIRENZE;VIA FIRENZE 56 57121;43.56553335828056;10.32476450674585
54265;EDRA OIL - PROCCHIO;EDRA OIL - PROCCHIO;Via delle Ginestre 24 57030;42.785759897765104;10.244998628716244
6842;eni di murzi mauro;MURZI MAURO;viale cerboni n.36, 57033 - -;42.80439293065895;10.199421644210815
35447;1262;T.D.M. S.R.L.;CALAMANDREI SN 57025;42.92884840903516;10.520323812961578
49393;CIBA DI CECCHINI FABIO E C. SNC;CIBA DI CECCHINI FABIO E C. SNC;PIAZZA NICCOLINI 22 57025;42.924454967435246;10.53151500372687
10787;DE.CA PETROL SRL;Pompe Bianche ;VIA CAVALLEGGERI  ;42.936438327209345;10.50224170088768
36746;eni;PIACENTINI PAOLA & C SNC;UNITA' D'ITALIA 121 57025;42.943653746540605;10.537413932540858
44852;ENI SALIVOLI ;ENI SALIVOLI ;VIA  LUNGOMARE MARCONI  73 57025;42.936921000123;10.507448000123
46221;Italiana Petroli ;Italiana Petroli ;sp. 39 km. 234 Località Preselle  57025;42.950029361797164;10.700430124998093
7942;P.G.CIARDIELLO S.N.C;P.G.CIARDIELLO S.N.C;DELLA BASE GEODETICA 16 57025;42.96718213855647;10.548905432224274
47861;Piombino;NUOVA SIDAP  S.R.L.;Viale Dell'Unita' D'Italia  57025;42.94101056674619;10.535089373588562
27106;PIOMBINO - DELLA PACE;"IP SERVICES S.R.L.";Piombino Via della Pace  13 57025;42.937315709150944;10.524383906745925
6566;PIOMBINO PRINCIPESSA 17 LOC.FABBRICIANE;SERVIZI & GESTIONI ITALIA srl;VIA PRINCIPESSA LOC.FABBRICIANE 17 57020;42.97874169430303;10.531774163246155
6565;PIOMBINO STAZ.SERV.Q8 LUNGOM.MARCONI;SERVIZI & GESTIONI ITALIA srl;STAZ.SERV.Q8 LUNGOM.MARCONI SNC 57020;42.93412275498225;10.509274295631371
42221;q8 di MA.BE.snc di Pallecchi e Pratesi;q8 di MA.BE.snc di Pallecchi e Pratesi;q8 viale unita' italia 21 57025;42.9306226391679;10.526081845164299
4458;ristorante il diavolino;A & G. S.A.S. DI GALLI ALESSIO E GIANLUCA;loc. perelli 10 - -;42.96675339740917;10.62467918314519
26777;UNIONE GAS AUTO;LE FABBRICIANE DI SPATARO G.  & C.  SAS;VIA DELLA PRINCIPESSA 13 57025;42.98842106705455;10.533548399816937
7506;Bazar di Mola;BAZAR DI MOLA - F.LLI VAGO S.N.C.;via P.le Ovest 101-103 - Loc. Mola  57036;42.759140407673364;10.377576649188995
36831;beyfin;GAMBA E.M. W. & C. - SOCIETA' IN ACCOMANDITA SEMPLICE;Strada Provinciale Ovest 67 57036;42.76012781483875;10.369934365153313
50912;Livorno - Elba Porto Azzurro;Livorno - Elba Porto Azzurro;BANCHINA IV NOVEMBRE SNC 57036;42.76457431102737;10.398384630680079
45944;3A BARONTINI;BARONTINI PETROLI DI BARONTINI ANNALISA & C. SAS;strada provinciale per marciana 28/A 57037;42.798830205830626;10.304273289071716
19792;aci-agip;COLLINI FABRIZIO;VIA R.MANGANARO 5 57030;42.813810838303674;10.317442579487874
47907;CONAD SUPERMERCATI PORTOFERRAIO;SUPERMERCATI ISOLA D'ELBA SRL;Via Cementeria 15 57037;42.811481498607726;10.314920341104509
52994;EDRA OIL - CARPANI;EDRA OIL - CARPANI;Via Colonnello Marco Antonio Carpani 42 57037;42.804973657638406;10.306880761901862
40591;ENI PORTOFERRAIO;PISANI ALESSANDRO;VIA CARPANI 90 57037;42.803400522243685;10.306644961237907
37804;Impianto Beyfin ;MANCUSI MIRCO;VIA MICHELANGELO 23 57038;42.85897395772876;10.422502433531122
42833;Beyfin Bazar La Ginestra;BAZAR LA GINESTRA DI MELANI IVAN & C. SNC;strada provinciale per Porto Azzurro  57039;42.808503128915156;10.400998387731534
49917;5054 – Rosignano Marittimo;ENI FUEL S.P.A.;Via Aurelia Fraz. Rosignan Solvay  57026;43.39609989344248;10.431612153442366
10220;Distributore di Rosignano;Distributore di Rosignano;LE MORELLINE  57013;43.38605401182636;10.469348967189944
50862;Eni Le Spianate;Eni di Caleca Vito;1 bis Via Aurelia, Km. 296,6, Livorno  57016;43.42320759404088;10.416671780942474
50264;ENI STATION CM;ENI STATION  CM;STRADA STATALE 206 LOC ACQUABONA KM 11 + 250 SNC 57016;43.41609973923278;10.483194401539118
3842;FINE EST;FINE EST;Autostrada A12 LIVORNO-CIVITAVECCHIA,  Km. 200.325, dir. Nord - ;43.42540681214629;10.490012168884277
46742;IP;IP;VIA VIA DEI LAVORATORI 26 57016, ROSIGNANO MARITTIMO (LI) 26 57016;43.40398896498023;10.470736473798752
33265;Kerotris - Rosignano;"KEROTRIS - SOCIETA' A RESPONSABILITA' LIMITATA";LOCALITA' CAFAGGIOLO - S.S.206 SNC 57016;43.47776996826883;10.46746551990509
31087;ROSIGNANO M.MO - ROSIGNANO SOLVAY;"IP SERVICES S.R.L.";VIA SALVATORE ALLENDE  57026;43.396848723181854;10.435729504299161
31083;ROSIGNANO M.MO- CAMPOLECCIANO;"IP SERVICES S.R.L.";VIA AURELIA KM.299+700 - CAMPOLECCI  57010;43.44384352501052;10.383216093254077
3607;SAVALANO OVEST;SAVALANO OVEST;Autostrada A12 LIVORNO-CIVITAVECCHIA,  Km. 195.075, dir. Sud 57016;43.4591041950259;10.492377877235413
45728;SHELL ROSIGNANO MARITTIMO - V. AURELIA;ESSO ROSIGNANO MARITTIMO - V. AURELIA;Via Aurelia 360 57013;43.39760126327708;10.430068762726982
40797;Stazione Servizio Q8;VERGILI MICHELE;VIA AURELIA KM 288-270  57018;43.363238931232395;10.452699959278107
6335;tamoil 1261;BIESSE S.N.C. DI SCALIA ROBERTO & C.;via della repubblica - rosignano solvay 23 57016;43.39527102046786;10.447822373016379
53269;ZAGAGLIA SAS;ZAGAGLIA S.A.S. DI ZAGAGLIA LUCIANO & C.;DELLA CAVA 100 B 57016;43.397832000123;10.447132000123
21740;Distributore Metanocar;Distributore Metanocar;STRADA COMUNALE PER CAMPIGLIA SNC 57027;43.07962077121753;10.556581810711691
49187;ENI SAN VINCENZO;ENI SAN VINCENZO;1 Via Aurelia, Km. km 256+304, Livorno  57027;43.10656217136873;10.540973335533677
49121;esso;esso;1 Via Aurelia, Km. 256, livorno 18 57027;43.11104593600656;10.542757111162361
54223;IP 45505;IMPIANTO 45505;SS 1 AURELIA SNC 57027;43.0900932;10.552046
55546;SCAM DI MATTEO AIUTI E C DISTRIBUTORE CARBURANTE MARINA DI SAN VINCENZO;SCAM DI MATTEO AIUTI E C DISTRIBUTORE CARBURANTE MARINA DI SAN VINCENZO;FRATELLI MAGNANI SNC 57027;43.098500321097134;10.536710494842518
19378;TAMOIL;CELLI ANDREA;VIA AURELIA SUD 5 57027;43.09062276041784;10.544741302728653
14718;DISTRIBUTORE SASSETTA;CO. E CI. TRANS OIL SRL - I N   L I Q U I D A Z I O N E;VIA di Castagneto 18 57022, CASTAGNETO CARDUCCI (LI)  ;43.13126635534652;10.64503456912962
52992;Stazione di servizio;Stazione di servizio;ACQUARI SS 398 SNC 57028;43.07187479673691;10.674103271163972
14936;ALTOPASCIO;OIL SERVICE S.R.L.;VIA ROMANA EST 24 55011;43.82833822036752;10.645076036453247
31174;Altopascio Oils ;SANTACROCESE OILS S.R.L.;ROMA 1 55011;43.809188196676565;10.68233996629715
6569;ALTOPASCIO VIA EUROPA IMP. Q8;SERVIZI & GESTIONI ITALIA srl;VIA EUROPA IMP. Q8 SNC 55011;43.816039575300415;10.674583155819732
18835;AQUILA MARGINONE;AQUILA  MARGINONE;VIA MAMMIANESE SUD 29 55010;43.83625878344765;10.690735280513763
30803;CONAD ALTOPASCIO;CONAD ALTOPASCIO;VIA DELLE CERBAIE 49 55011;43.81900318263215;10.68719656242672
55827;IP altopascio;IP altopascio;ROMEA 94 55011;43.9166732;10.5322594
45931;LOC. SPIANATE - ALTOPASCIO;SERVIZI E GESTIONI ZENIT S.R.L. IN SIGLA - ZENIT S.R.L.;LOC. SPIANATE  55011;43.81012300076982;10.712167226659858
42963;stazione di servizio Eni Altopascio;CHECCHI CARBURANTI DI CHECCHI DANIELE & C. S.N.C.;via della galeotta snc 55011;43.809122591007885;10.691749614378182
9921;Stazione di servizio Esso "PETROLSERVICE";PETROL SERVICE DI SICILIANO OMAR & C. S.A.S.;Viale Europa 29/31 55011;43.81632772766908;10.67749212579497
5027;Torregas Srl - Marginone;TORREGAS - S.R.L.;LOCALITA' PONTE ALLA CILIEGIA 14 55011;43.83503872614666;10.708504915237427
5033;Torregas Srl - Riatri;TORREGAS - S.R.L.;VIA COMUNALE DELLA SIBOLLA SNC 55011;43.814290838001725;10.694777369499207
10666;papi sergio;PAPI SERGIO;via roma 65 c 65022;44.004710585676584;10.583933740854263
28959;San Carlo Ponte Maggio;San Carlo Ponte Maggio;12 dell'Abetone e del Brennero, Km. 62, Abetone  55022;44.04323034650533;10.683262646198273
44928;5106;B.& C. DI BERNARDINI SERENA E CIANELLI GIANLUCA S.N.C.;VIA DELLA REPUBBLICA 52 55051;44.045831000123;10.478767000123
13989;BENASSI MARIANGELA - DISTRIBUTORE 4 PETROLI;BENASSI MARIANGELA;VIA SR445 PONTE ALL'ANIA, - -;44.04289137902435;10.482128804041395
46743;IL CIOCCO ;IL CIOCCO S.P.A.;LOCALITA' IL CIOCCO-FRAZ. CASTELVECCHIO P. SNC 55051;44.0903939060389;10.466131276999477
46844;VIA ROMA, 12 - BARGA;SERVIZI E GESTIONI ZENIT S.R.L. IN SIGLA - ZENIT S.R.L.;VIA ROMA 12 55051;44.075211849801285;10.481336033695243
42214;2559;T.D.M. S.R.L.;PROVINCIALE LUDOVICA SNC 55023;43.95544396785351;10.502301728836073
10755;b&c snc;B.& C. DI BERNARDINI SERENA E CIANELLI GIANLUCA S.N.C.;Statale 12 dell'Abetone e del Brennero, Km. 42, dir. abetone - -;43.99849667160124;10.558175146579742
9785;Nuova carburanti;NUOVA CARBURANTI DI PIOLI SANDRO;VIA I MAGGIO SNC 55023;43.97639628308016;10.542218685150146
21538;stazione servizio q8 derni d&f;stazione servizio q8 derni d&f;VIA SALVATORE QUASIMODO 34, 55023  55023;43.96120095909183;10.507985891401631
11635;CAMAIORE LU-PIAZZA ROMBONI;SERVIZI & GESTIONI ITALIA S.R.L.;PIAZZA ROMBONI S/N 55041;43.93621924304203;10.307895927140635
37763;CAMAIORE VIALE ITALICO;SERVIZI & GESTIONI ITALIA S.R.L.;VIALE ITALICO  55041;43.916971317535484;10.255365053372998
47263;Distributore IP di Della Latta Samuele;SAMUELE DELLA LATTA;VIA ITALICA 138 55041;43.90563868983226;10.23632874232787
51369;GRIMALDI 4 petroli;DI PALO BURRONE MARIA;via provinciale per camaiore 98 55064;43.89887203263619;10.39527733632181
51370;GRIMALDI 4 petroli;DI PALO BURRONE MARIA;via provinciale per camaiore 98 55064;43.89887203263619;10.39527733632181
26618;IP Giannelli Simone;IP Giannelli Simone;VIALE COLOMBO 410 55041;43.898724138840635;10.222388413811586
35276;Paoli carburanti;IP di Paoli Dante;via dello stadio  17 55041;43.939040438414764;10.299356058239937
47832;stazione di servizio api di vitali luca e e c snc vitali;STAZIONE DI SERVIZIO API DI VITALI LUCA  &  C. S.N.C.;1 Via Aurelia, Km. 361+750, massa - 55041;43.90774903884411;10.226374490980312
26750;stazione di servizio ip ;STAZIONE DI SERVIZIO API DI VITALI LUCA  &  C. S.N.C.;VIA AURELIA KM.361 122 55041;43.901022859880094;10.231273144418083
47201;Stazione di servizio IP di Mallegni Nicola;MALLEGNI NICOLA;via stadio 1 55041;43.93899664861448;10.300267891264303
55923;SUPERGAS;SUPERGAS;VIA PROVINCIALE EST  1012 55041;43.92395;10.32638
26642;TotalErg di Binelli Dario;BINELLI DARIO;ss439 km 3320 capezzano pianore  55041;43.93544912036996;10.253772959360845
42119;Estegas;ESTEGAS S.R.L.;V.G.Garibaldi snc 55031;44.16292879859148;10.329527554276865
41291;2150;T.D.M. S.R.L.;DELLE VILLE 200 55012;43.882328437402926;10.575876394512079
44768;2321;T.D.M. S.R.L.;EUROPA 402 55012;43.89324699445594;10.550791457672176
55657;beyfin;beyfin;Viale Europa 10  55012;43.8600494;10.5836250
28695;CAPANNORI;G.S.SERVICE S.R.L.;VIA CARLO PIAGGIA  55100;43.84000988636571;10.573068782687187
39686;CAPANNORI;CAPANNORI;PROVINCIALE MADONNINA 67 55012;43.83288118210731;10.556238966656565
30952;CAPANNORI - GRAGNANO FONTANA NUOVA;"IP SERVICES S.R.L.";VIA PESCIATINA 667 55010;43.86759033139874;10.636413411045055
45730;CAPANNORI FRAZ.SEGROMIGNO IN MONTE;SERVIZI & GESTIONI ITALIA S.R.L.;FRAZ.SEGROMIGNO IN MONTE  55018;43.87927873327254;10.596128954596338
40818;europam;europam;Statale 12 dell'Abetone e del Brennero, Km. 429, dir. lucca 26 55012;43.8884870589064;10.535272374933584
10279;l'aquilotto snc;L'AQUILOTTO - SOCIETA' IN NOME COLLETTIVO DI GALELLA F. & PAGLIAI M. ABBREVIABILE IN L'AQUILOTTO S.N.C. DI GALELLA F. & PAGLIAI M.;via del frizzone 4 55012;43.83738490368195;10.597618206993047
52091;LAMMARI;SOCIETA' PETROLIFERA TIRRENA - SO.PE.TI. - S.R.L.;EUROPA 140 55012;43.87611034065624;10.571112416975836
8500;MASINI;F.LLI MASINI S.R.L.;VIALE EUROPA 83 55013;43.87094216218684;10.574657099999968
18660;Meschi Totalerg;MESCHI E C. - S.N.C.;VIALE EUROPA 152 55013;43.877469135897606;10.570072084665298
31709;Q8;Q8;viale europa  346 55014;43.89266294812934;10.5560152977705
52160;Q8 LAPPATO;Q8 LAPPATO;VIA PESCIATINA 853 55012;43.883779704805676;10.647849230346386
13664;RICCHI S.N.C. DI AVENANTE GAIA E ALESSIO;RICCHI S.N.C. DI AVENANTE GAIA E ALESSIO;VIA PESCIATINA 145 55012;43.85692358061386;10.575025914720754
48927;T.C. OIL SAS;TC OIL DI TOMMASO CIERVO S.A.S.;S.P. 23 ROMANA KM 5+613  55012;43.83878286852174;10.584511703854561
46012;VIA LOMBARDA - CAPANNORI FRAZ. LAMMARI ;SERVIZI E GESTIONI ZENIT S.R.L. IN SIGLA - ZENIT S.R.L.;VIA LOMBARDA - FRAZ. LAMMARI  55013;43.87346493019983;10.557757392525673
46046;VIA TIGLIO - LOC.PIEVE DI COMPITO;SERVIZI E GESTIONI ZENIT S.R.L. IN SIGLA - ZENIT S.R.L.;VIA  DI TIGLIO 754 55012;43.78195352490891;10.59212327003479
11634;CASTELNUOVO DI GARFAGNANA-VIA NICOLA FABRIZI 64;SERVIZI & GESTIONI ITALIA S.R.L.;VIA NICOLA FABRIZI 64 55032;44.105038710953586;10.408546775579453
14757;CASTELNUOVO GARFAGNANA;SIRTAM S.R.L.;S.P.  F. AZZI  55032;44.106322569070734;10.407473891973495
54668;ENI Station Castelnuovo G.;ENI Station Castelnuovo G.;NICOLA FABRIZI 45/A 55032;44.10623627693607;10.409392839471439
46390;VIA ROMA - CASTELNUOVO DI GARFAGNANA;SERVIZI E GESTIONI ZENIT S.R.L. IN SIGLA - ZENIT S.R.L.;VIA ROMA 40 55032;44.11200080531083;10.4128312725544
7023;Maufer;Maufer;VIA NAZIONALE  55025;44.03328443341881;10.499871969223022
55926;SUPERGAS;SUPERGAS;VIA FERRIRE 4 55020;43.99900;10.43251
38133;BEYFIN;VIETINA CARBURANTI DI VIETINA LORENZO & C. S.A.S.;via G.B. VICO 140/b 55042;43.95730385725239;10.194953083992004
50157;ELP;ELP;via provinciale della marina 63 55042;43.96403841646855;10.17936658895493
50479;FORTE DEI MARMI;SIRTAM S.P.A.;VIA GB VICO LOC CARANNA  55042;43.96517889607383;10.186382127985638
11637;FORTE DEI MARMI-VIA G.B.VICO 96;SERVIZI & GESTIONI ITALIA S.R.L.;VIA G.B.VICO 96 55042;43.96094287118438;10.190657842922178
15317;stazione di servizio esso;VERONA GIANNI;VIA REPUBBLICA 2 55042;43.95081380028221;10.174940058551783
55550;CONAD SUPERSTORE GALLICANO;CONAD SUPERSTORE GALLICANO;DI FONDOVALLE SNC 55027;44.064386;10.441959
28630;GALLICANO;"IP SERVICES S.R.L.";Strada Provinciale Fondo Valle  55027;44.067933841266736;10.440678298473358
41795;Torregas Srl - Gallicano;TORREGAS - S.R.L.;VIA ROMA SNC 55027;44.049235610626944;10.45530840754509
29897;1272;T.D.M. S.R.L.;PESCIATINA KM 1+526 SNC 55100;43.85235091798223;10.539505630731583
48248;235129;FAST WASH DI SOHAIL NAEEM;VIALE MARCONI 395 55100;43.846024147568166;10.516265630722046
25949;4QUATTROPETROLI DI CERBINO GIUSEPPE S. MARIA A COLLE;CERBINO GIUSEPPE;VIA DI POGGIO 94 55100;43.84784595642544;10.445221960544586
15759;4QUATTROPETROLI DI CERBINO GIUSEPPE SAN CONCORDIO;CERBINO GIUSEPPE;VIALE SAN CONCORDIO 684 55100;43.832120142391254;10.49799076808813
16800;AVP;VANNUCCHI ANDREA;VIA SARZANESE 2479 55100;43.856520454736064;10.440171323803725
48244;CHECCHI CARBURANTI GUAMO;CHECCHI CARBURANTI DI CHECCHI DANIELE & C. S.N.C.;VIA NUOVA PER PISA SNC 55100;43.82002580921985;10.49166218650817
12468;CHECCHI ERINO & FIORELLA SNC;CHECCHI ERINO & FIORELLA - S.N.C.;VIALE SAN CONCORDIO, PONTETETTO 1275 55057;43.82694569786182;10.495958335810883
48371;CONAD SUPERMERCATI LUCCA;ZAGARA S.R.L.;Via Di Tiglio 345 55100;43.84191934553335;10.518859008598334
18452;Distributore carburanti Lucca;METANO ITALIA - S.R.L.;VIA SARZANESE  55100;43.8484634012013;10.466395318508148
54237;DISTRIBUTORE ESSO ACQUACALDA;ALA CARBURANTI S.R.L.;DELLE VILLE 1140/C 55100;43.85885;10.52422
48542;ENI ;E.PI.C. S.A.S. DI PIOLI SANDRO & C.;VIA PESCIATINA - S. VITO  406 55100;43.851505427427355;10.533587976686478
33408;Eni;Eni;VIA DEL BRENNERO 746 55100;43.857838027383046;10.513736307621002
53247;ESSO;TORRI TIZIANO;ROMANA 2800 55100;43.84207954151348;10.552702769637108
53245;ESSO;ESSO;Via Romana 2800 55100;43.842076;10.552666
45176;ESSO LUCCA - V. DI TIGLIO;PAD MULTIENERGY S.P.A;Via di Tiglio 1676 ;43.839032598995914;10.533826322448547
47218;ESSO LUCCA - V.LE CARDUCCI;PAD MULTIENERGY S.P.A;Viale Carducci 597 55100;43.8406869950486;10.494867385114897
34640;ESSO PAPESCHI GIUSEPPE;ESSO PAPESCHI GIUSEPPE;Statale 12 dell'Abetone e del Brennero, Km. 12, dir. ABETONE  55100;43.857320090112324;10.512678176164627
51471;ESSO VIA VECCHIA PESCIATINA;DIENNE RENT S.R.L.;VIA VECCHIA  PESCIATINA 61 55100;43.85058383101153;10.52088749206541
10277;FISICARO PAOLO & C. S.A.S.;FISICARO PAOLO & C. S.A.S.;VIALE GIACOMO PUCCINI  368 55100;43.844148697996374;10.48700675368309
52065;GASAUTO GT MECCATRONICA;GASAUTO GT MECCATRONICA;VIA DELLA MACCHIA  4181 55100;43.8792207116191;10.529377609491348
8069;Impianto Eni Marraccini Andrea;MARRACCINI ANDREA;Statale 12 dell'Abetone e del Brennero, Km. 11,4, dir. Pisa - Lucca - 55058;43.782358220779564;10.464752167536062
11085;IP;IP;via romana 914 55100;43.84479133925741;10.529520450262453
7687;IP MONTE SAN QUIRICO;FRATELLI CHECCHI - S.N.C.;VIA DI CAMAIORE 1110 55100;43.86399220156659;10.50929456949234
55825;Ip ponte a moriano;Ip ponte a moriano;DEL BRENNERO SS12 SNC 55100;41.9027835;12.4963655
12453;LLM DI MARINAI PIERO & C. SNC;LLM DI MARINAI PIERO & C. SNC;VIA LOC. NAVE - VIA SARZANESE 600 55100, LUCCA (LU) 600 55100;43.85007296672267;10.460946941069778
28392;LUCCA;"IP SERVICES S.R.L."; V.PISANA VECCHIA LOC.S.ANNA   55100;43.842067077935525;10.488473922014236
30955;LUCCA - ACQUACALDA;"IP SERVICES S.R.L.";VIA DELLE VILLE 626 55100;43.85632707720695;10.519594635581939
52092;LUCCA MC DONALDS;SOCIETA' PETROLIFERA TIRRENA - SO.PE.TI. - S.R.L.;EUROPA 1130 55100;43.83042091472649;10.495142122163088
45103;LUCCA NAPOLEON;SOCIETA' PETROLIFERA TIRRENA - SO.PE.TI. - S.R.L.;EUROPA 575 55100;43.83445330602037;10.494791526880362
24850;LUCCA PONTETETTO;STAR SERVICE S.R.L.;S.P. SOTTOMONTE - LUCCA  - LOC. PONTETETTO  55100;43.817539765298235;10.493364930152893
6570;LUCCA S.S. 12 KM 6+570 S.LOREN.A VAC;SERVIZI & GESTIONI ITALIA srl;S.S. 12 KM 6+570 S.LOREN.A VAC SNC 55100;43.79371699439313;10.478395698147551
6568;LUCCA V.LE C. CASTRACANI 1028;SERVIZI & GESTIONI ITALIA srl;V.LE C. CASTRACANI 1028 55100;43.849339457722685;10.525777414441109
52803;LUCCA V.LE EUROPA;LUCCA V.LE EUROPA;EUROPA SNC 55100;43.8357128;10.4945291
45467;LUCCA VIA DELLE TAGLIATE III,91 SAN MARCO;SERVIZI & GESTIONI ITALIA S.R.L.;VIA DELLE TAGLIATE III,91 SAN MARCO  55100;43.849974926029226;10.500525406745965
11636;LUCCA-VIALE EUROPA INGR. AUT. FI/MARE;SERVIZI & GESTIONI ITALIA S.R.L.;VIALE EUROPA INGR. AUT. FI/MARE S/N 55100;43.83455417419581;10.494334461307517
8149;MINGHI MARCO;MINGHI MARCO;VIALE GUGLIELMO MARCONI 271 55100;43.8470203522222;10.516169055809979
3823;MONTE DI QUIESA NORD;FRATELLI CHECCHI - S.N.C.;Autostrada A11-A12 VIAREGGIO-LUCCA, Km. 73.289, dir. Nord - 55100;43.85385919419026;10.40779709815979
46190;PONTETETTO;PIERONI ALESSIA;VIALE SAN CONCORDIO LOC PONTETETTO 1580 55100;43.82446114176773;10.494341254234314
28594;Q8;COLOMBINI LELIO;VIA DI CAMAIORE 4188 55100;43.88105680440843;10.484934863229341
14968;Q8 ;FERRARI FILIPPO S.A.S.DI FERRARI F. & C.;VIALE EUROPA SNC 55100;43.83573717629719;10.494566559791565
10635;RUBERTI ALBERIGO & C. S.N.C. DI RUBERTI GIOVANNI E PRATESI EMANUELA;RUBERTI ALBERIGO & C. S.N.C. DI RUBERTI GIOVANNI E PRATESI EMANUE LA;via provinciale Sant' Alessio 1592 55100;43.861558417852315;10.488097071647644
52090;SANTA MARIA GIUDICE;SOCIETA' PETROLIFERA TIRRENA - SO.PE.TI. - S.R.L.;STATALE 12 KM 5+846 55100;43.78614701016679;10.46897469714167
18343;STAZIONE DI RIFORNIMENTO ENI;FRATELLI CHECCHI - S.N.C.;VIA GAETANO LUPORINI 911 55100;43.839912392255876;10.482919313353023
28233;Stazione di Servizio Carburanti Netti Nicola S. Alessio;NETTI SANTO NICOLA;VIA PER S.ALESSIO 662 55100;43.85964254604997;10.498432186508126
28234;Stazione di Servizio Carburanti Netti Nicola Via Marti;NETTI SANTO NICOLA;VIA AGOSTINO MARTI 315 55100;43.84974133963023;10.51269227537773
5032;Torregas Srl - Antraccoli;TORREGAS - S.R.L.;VIA PROV.LE DELLA MADONNINA SNC 55100;43.84739099302856;10.559034794569016
51292;VIA CATALANI - LOC. S. ANNA - LUCCA;SERVIZI E GESTIONI ZENIT S.R.L. IN SIGLA - ZENIT S.R.L.;VIA CATALANI - LOC. S. ANNA 76 55100;43.84273959670314;10.493222256523843
47314;VIA DI MUGNANO (FRAZ. MUGNANO);SERVIZI E GESTIONI ZENIT S.R.L. IN SIGLA - ZENIT S.R.L.;VIA DI MUGNANO (FRAZ. MUGNANO)  55100;43.835241000123;10.517995000123
46013;VIA PAPI, 12 - LUCCA;SERVIZI E GESTIONI ZENIT S.R.L. IN SIGLA - ZENIT S.R.L.;VIA PAPI, 12  55100;43.84291633294169;10.494062035426055
47315;VIA PROV. DELLA MADONNINA (FRAZ. ANTRACCOLI);SERVIZI E GESTIONI ZENIT S.R.L. IN SIGLA - ZENIT S.R.L.;VIA PROV. DELLA MADONNINA (FRAZ. ANTRACCOLI)  55100;43.84580149540811;10.558957681059837
46067;VIALE MARCONI (STADIO) - LUCCA;SERVIZI E GESTIONI ZENIT S.R.L. IN SIGLA - ZENIT S.R.L.;VIALE MARCONI  183 55100;43.847960000123;10.515659000123
47048;ADS MASSAROSA;ALA CARBURANTI S.R.L.;VIA provinciale Montramito 1073 55054, MASSAROSA (LU) 1073 55054;43.876957169428145;10.288398563861847
44335;carburanti toscana srl ;CARBURANTI TOSCANA S.R.L.;via sarzanese 2333 55054;43.854172000123;10.361171000123
54269;DI VINCENZO FABRIZIO;DI VINCENZO FABRIZIO;VIA Sarzanese Valdera sud  loc. Bozzano 1429 55054, MASSAROSA (LU) 1429 55054;43.857322;10.351148
53334;ENI;ENI;MATTEOTTI 1315 55054;43.8926727;10.3110878
54453;IP Moriconi;IP Moriconi;DI MONTRAMITO SNC 55054;43.88264978380972;10.295920885840442
46500;MASSAROSA;STAR SERVICE S.R.L.;VIA SARZANESE 819 55054;43.87386983108405;10.331477558119445
47634;MF CARBURANTI;"MF DI GRAZIANI MICHELA & C. SOCIETA' IN ACCOMANDITA SEMPLICE" INSIGLA "MF DI GRAZIANI MICHELA & C. S.A.S.";via delle sezioni Piano di Conca 420 55054;43.89155608771081;10.298020320593926
19267;S.I.M. srl;S.I.M. - SRL;VIA PROV.VIAREGGIO MONTRAMITO  55054;43.879687864340646;10.291568264365196
27529;STAZIONE SERVIZIO ENI;A.G. DI GIGLI MARIA MADDALENA & ANGELI G. E S. S.N.C. ABBREVIATA IN A.G. DI ANGELI & GIGLI S.N.C.;VIA SARZANESE 1429 55054;43.85736263927551;10.351183712482452
32075;4petroli-ferri;FERRI MICHELE;LA PIANA 2 55034;44.15561008606501;10.247408242223742
13378;Kerotris - Gramolazzo;KT S.R.L.;VIA PRIMO TONINI SNC 55034;44.162138212913185;10.240146964788437
41857;PV MOLAZZANA;ALA CARBURANTI S.R.L.;VIA LOC. VIZZANO STRADA PROV.LE FONDOVALLE SNC 55020, MOLAZZANA (LU) SNC 55020;44.08130233519528;10.44330799485931
55648;BENEDETTI MORENO ;BENEDETTI MORENO ;DON MINZONI 4/6 55015;43.8519049;10.6846155
14950;STEFANO DECANINI;STEFANO DECANINI;PER CAMAIORE SNC 55064;43.907088803676245;10.44491820037365
15093;Brega Daniele;BREGA DANIELE & ORSI ALESSANDRA S.N.C.;Via Provinciale per Sillano  55035;44.196012960997145;10.304296016693115
46208;VIA ROMA - PIAZZA AL SERCHIO;SERVIZI E GESTIONI ZENIT S.R.L. IN SIGLA - ZENIT S.R.L.;VIA ROMA 52 55035;44.184155000123;10.299297000123
13016;AGIP LANDI MAURO DI MANFREDI A. & C SNC;LANDI MAURO DI MANFREDI ALESSANDRA & C. S.N.C.;UNITA' D'ITALIA 9 55045;43.95201456058158;10.20119994878769
47177;BURRONI FABRIZIO;BURRONI FABRIZIO;VIA AURELIA  55044;43.925176385141405;10.219157338142395
8699;del corto cristiano;del corto cristiano;Statale 1 Via Aurelia, Km. 369, dir. roma 169/171 55045;43.96447077590919;10.216629356145859
18453;Distributore metano;METANO ITALIA - S.R.L.;1 Via Aurelia, Km. 368, Viareggio - 55045;43.93412018403951;10.222109109163284
38605;DISTRIBUTORE PIETRASANTA;ALA CARBURANTI S.R.L.;VIA AURELIA SUD 91 55045, PIETRASANTA (LU) 91 55045;43.94351609854073;10.226255804300308
15633;f.lli maremmani snc;F.LLI MAREMMANI S.N.C. DI MAREMMANI VALENTINO E C.;VIA GARIBALDI 142 55045;43.952356972516846;10.237360644180285
27209;Innocenti Moreno & c snc;Innocenti Moreno & c snc;VIALE ROMA 129 55045;43.91160341394626;10.211723654370076
32476;PIETRASANTA;STAR SERVICE S.R.L.;VIALE UNITA' D'ITALIA  55045;43.931018789159936;10.218238681554794
31219;PIETRASANTA - MARCONI;"IP SERVICES S.R.L.";VIA GUGLIELMO MARCONI  55045;43.96123861360752;10.222750961971315
11632;PIETRASANTA-VIA AURELIA KM.366+700;SERVIZI & GESTIONI ITALIA S.R.L.;VIA AURELIA KM.366+700 S/N 55045;43.95001634939587;10.228225886821747
48527;PONTE ARANCI;PONTE ARANCI;VIA LOC. PONTE ARANCI,  VIA PROV. VALLECCHIA, SNC 55045, PIETRASANTA (LU)  55045;43.97239124924465;10.220678140677899
47211;PORTA;SOCIETA' PETROLIFERA TIRRENA - SO.PE.TI. - S.R.L.;1 Via Aurelia, Km. 373+474, VIAREGGIO - 55045;43.99497789532128;10.176417428135375
54267;SOPETI CANNICCIA;SOPETI CANNICCIA;UNITA' D'ITALIA 10 55045;44.041136;10.045213
38541;SS AQUILA;PAMPAOIL DI PAMPALONI FRANCESCO;Statale 1 Via Aurelia, Km. Nord, dir. Massa - 55045;43.963627108769344;10.218404978513718
19351;STAZIONE DI SERVIZIO IP S.C.L.A.SRL;STAZIONE DI SERVIZIO IP S.C.L.A.SRL;VIALE ROMA 20 55045;43.93186825611446;10.195442968261673
32573;ULIVI EMILIANO;ULIVI EMILIANO;VIA UNITA' D'ITALIA 10 55045;43.953161551261516;10.19942969083786
22171;VERSILIA EST;PIETRASANTA CARBURANTI - SOCIETA' IN NOME COLLETTIVO DI FABRIZIO DI VINCENZO E LUCA MARIA FILIPPETTO;A12 SESTRI L.-LIVORNO, Km. 131, genova - 55045;43.92811890822932;10.223223567008972
22167;VERSILIA OVEST;VERSILIA OVEST;Autostrada A12 SESTRI L.-LIVORNO,  Km. 131,00, dir. SUD 55045;43.92844653304682;10.224430561065674
15861;angelini fabrizio;angelini fabrizio;VIA NAZIONALE SNC 55036;44.12936698784068;10.411606505513191
33817;AQUILA;AQUILA;VIA SAN GIOVANNI 2/C 55036;44.12958068552634;10.410734117031097
49607;CASTELNUOVO B.FUEL;B.FUEL CASTELNUOVO;Via Pietro Togneri 1 55036;44.12635800383486;10.40507197380066
54894;Q8;Q8;LUNI SNC 55036;44.13527;10.38673
46877;4762;T.D.M. S.R.L.;ROMANA EST 73 55016;43.83542351716826;10.626331888954951
6571;PORCARI MONTECARLO VIA LUIGI BOCCHERINI 626;SERVIZI & GESTIONI ITALIA srl;VIA LUIGI BOCCHERINI 626 55016;43.84111980462068;10.603279173374176
43159;Torregas srl - Porcari;TORREGAS - S.R.L.;via Avvocato del Magro 777 51016;43.82736549782516;10.60427055554203
47144;VIA PROVINCIALE LUCCHESE ROMANA - PORCARI;SERVIZI E GESTIONI ZENIT S.R.L. IN SIGLA - ZENIT S.R.L.;VIA PROVINCIALE LUCCHESE ROMANA   55016;43.83772624946264;10.608847425933416
42253;Distributore IP;Distributore IP;VIA FEDERIGI 860 55047;43.97145023315178;10.192247689306214
22556;Impianto eni - Perini Alessio;PERINI ALESSIO;VIA MARCONI 262 55047;43.992953049415114;10.224013477563858
55265;IMPIANTO IP SERAVEZZA;IMPIANTO IP SERAVEZZA;ALCIDE DE GASPERI 77 55047;43.9877632;10.2268928
55608;IP;MAGGI FABRIZIO;A.DE GASPERI 1231 55040;43.9818445;10.207493
55609;IP;MAGGI FABRIZIO;A.DE GASPERI 1231 55040;43.9818445;10.207493
27746;IP LOMI GRAZIA;LOMI GRAZIA;VIA ALCIDE DE GASPERI 77 55047;43.985208430881265;10.219955306356041
55376;Salatino Francesco;Salatino Francesco;AURELIA STRADA STATALE N.1 1583 55046;43.9791284;10.1967231
38083;STAZIONE SERVIZIO STOM;VIOLANTE IMMOBILIARE SRL;VIA ZARRA 266 55047;43.99650117186664;10.255619184418038
37250;Cagnoni Rita Assunta;CAGNONI RITA ASSUNTA;LOCALITA' BIVIO  55030;44.1133304917555;10.282429973606895
30052;BEYFIN;TESSITORE SALVATORE;VIA AURELIA ANG. VIA GUIDICCIONA EST 1 55049;43.83450666040098;10.28782457113266
54794;ENI 53692;ENI 53692;RISORGIMENTO SNC 55049;43.88733991923604;10.244027855617105
49301;eni tiber oil;eni tiber oil;viale alfredo belluomini snc 55049;43.88863404480408;10.230566447365648
47163;IP;IP;VIA AURELIA SUD 282 55049;43.85879962273083;10.271825194358826
4734;IVAN ZAMARCHI SPERANZA;ENI ZAMARCHI SPERANZA IVAN;Statale 1 Via Aurelia, Km. 354,00, dir. NORD  55049;43.85281241451527;10.275682210922241
38659;MATTEUCCI PETROLI SRL;MATTEUCCI PETROLI SRL;via della Gronda  335 55049;43.88629554939884;10.253622410589628
46546;P.ZZA D'AZEGLIO - VIAREGGIO;SERVIZI E GESTIONI ZENIT S.R.L. IN SIGLA - ZENIT S.R.L.;PIAZZA MASSIMO D' AZEGLIO  55049;43.8668168287926;10.243968516588211
54793;Pitstop di Puccetti e Borghesi snc;Pitstop di Puccetti e Borghesi snc;AURELIA NORD 300 55049;43.8874034882231;10.244213705002618
19032;Shell Marchetti & C.- S.N.C.;Esso Marchetti & C.- S.N.C.;VIA NICOLA PISANO  74K 55049;43.8593262174603;10.262022167662507
17142;stazione di servizio esso ;stazione di servizio esso ;VIALE BELLUOMINI 8 55049;43.88550601105465;10.232820415869128
40266;Stazione di Servizio Q8;VIETINA ALESSANDRO;BUONARROTI ANG. EINAUDI SNC 55049;43.888966149074946;10.231357365846634
54565;STAZIONE DI SERVIZIO SHELL DI GIANNELLI SIMONE;STAZIONE DI SERVIZIO SHELL DI GIANNELLI SIMONE;Largo Risorgimento 1 55049;43.8681757;10.2589298
46420;STAZIONE IP;DI NARDO SALVATORE;VIA CIABATTINI 57 55049;43.87836233259417;10.255950303075792
8343;tamoil;CARMASSI & LOTTI S.N.C.;via marco polo 107 55049;43.88544325187442;10.248756173610673
32930;TORRE DEL LAGO;STAR SERVICE S.R.L.;VIA DEI LECCI  55048;43.836059892339385;10.273875743150711
26677;TotalErg di Binelli Dario;BINELLI DARIO;piazza brin 36 55049;43.86464239351884;10.251231416677683
25157;VIAREGGIO AURELIA SUD;SERVIZI & GESTIONI ITALIA S.R.L.;AURELIA SUD  55049;43.86393785475312;10.267421188360572
50453;VIAREGGIO GNOLAINI;SIRTAM S.P.A.;SS1 - LOC. GNOLAINI  55049;43.845300588435855;10.288687645483927
6567;VIAREGGIO LARGO RISORGIMENTO;SERVIZI & GESTIONI ITALIA srl;LARGO RISORGIMENTO SNC 55049;43.869264486079196;10.259650183467102
11633;VIAREGGIO LU-LOC.VARIGNANO SS. 1 AURELIA;SERVIZI & GESTIONI ITALIA S.R.L.;LOC.VARIGNANO SS. 1 AURELIA S/N 55049;43.86719033133385;10.260564373016337
47829;VIAREGGIO SS AURELIA KM. 350+917;SERVIZI & GESTIONI ITALIA S.R.L.;SS AURELIA KM. 350+917  55048;43.826931820471835;10.291889275463099
45930;VIA DELLE CARTIERE, 34 (LOC.BOTTICINO) - VILLA BASILICA;SERVIZI E GESTIONI ZENIT S.R.L. IN SIGLA - ZENIT S.R.L.;VIA DELLE CARTIERE  34 55019;43.918436911781555;10.648734847313904
9198;Cecchi Danilo;Cecchi Danilo;VIA PIANE 3 55030;44.16152460169303;10.39411649107933
6599;AULLA V.LE LUNIGIANA;SERVIZI & GESTIONI ITALIA srl;V.LE LUNIGIANA SNC 54011;44.216639047231965;9.966753846032702
11726;AULLA-QUARTIERE MATTEOTTI 27;SERVIZI & GESTIONI ITALIA S.R.L.;QUARTIERE MATTEOTTI 27 54011;44.20476539053607;9.968750961971296
51507;ESSO;TAVOLACCINI PIER FRANCESCO;62 della Cisa, Km. 7, LA SPEZIA - 54011;44.205130884529034;9.969363764190227
54941;ESSO - AULLA S.S. 62 DELLA CISA;PAD MULTIENERGY S.P.A;NAZIONALE DELLA CISA SNC 54011;44.204731;9.968881
13392;Kerotris - Pallerone;KT S.R.L.;pallerone - -;44.203781688673764;10.012644142138697
42766;METANO LAUDA FIBRE;LAUDA FIBRE  SRL;VIA GUIDO ROSSA SNC 54011;44.20422006224492;10.010496794124037
9869;Stazione di rifornimento ENI ;Stazione di rifornimento ENI ;VIA LUNIGIANA 5, 54011    54011;44.216585734177414;9.966339660713174
26897;DISTRIBUTORE IP ;BARBIERI GABRIELE;VIA L. QUARTIERI SNC 54021;44.31372031341584;9.9916032854278
38873;04510 Agip;04510 Agip;VIALE XX SETTEMBRE 93 54033;44.064427223415905;10.073037930874648
41321;aliah srl s.;ALIAH SOCIETA' A RESPONSABILITA' LIMITATA SEMPLIFICATA;VIA G. DA VERRAZZANO 1 54033;44.03438444181884;10.048762452709184
46148;bertelloni alessandro;bertelloni alessandro;SS 1 39  54033;44.05929400000001;10.0487704
43783;Bonotti Alexandre;Bonotti Alexandre;VIA COVETTA 53 54033;44.053323003801694;10.043061966662208
50481;CARRARA;SIRTAM S.P.A.;VIALE XX SETTEMBRE LOC TURIGLIANO  54033;44.056797558582;10.065194903364038
31902;CARRARA - MARINA DI CARRARA;"IP SERVICES S.R.L.";VIALE CRISTOFORO COLOMBO  54033;44.036703856451595;10.042381224536939
24780;CARRARA - XX SETTEMBRE;"IP SERVICES S.R.L.";VIA XX SETTEMBRE 271  54033;44.04231232849551;10.048612804435379
29203;Carrara Carburanti Doganella;CARRARA CARBURANTI S.R.L.;XX SETTEMBRE 284 54033;44.04593572981138;10.05310413491816
48271;CARRARA VIA XX SETTEMBRE 55B-LOC.FOSSOLA;SERVIZI & GESTIONI ITALIA S.R.L.;VIA XX SETTEMBRE 55B-LOC.FOSSOLA  54033;44.06902023750535;10.07967892331353
49992;COIL CARRARA;COIL CARRARA;VIALE TURIGLIANO 5 54033;44.0545454481178;10.066049563456456
46051;Eni;EMMESERVICE DI FABBRI MARCELLO E C. S.N.C.;VIA GALILEO GALILEI 80 54033;44.049236000123;10.035472000123
54104;ESSO ;ESSO ;SS 1 127  54033;44.0596549;10.0449367
55436;ESSO CARRARA LOC. AVENZA VIA GALILEI, 15 BIS;PAD MULTIENERGY S.P.A;GALILEI 15BIS 54033;44.055679;10.043139
53819;EUROPAM MARINA DI CARRARA DI RAFANELLI VALERIO;EUROPAM MARINA DI CARRARA;NAZIONI UNITE SNC 54033;44.03828304930243;10.042401026261638
10241;fini maurizio;fini maurizio;VIALE GALILEI 31 54033;44.05325478202659;10.040425658226013
49982;Futura Carburanti;Futura Carburanti;VIA COVETTA 19 54033;44.04865500009899;10.052870634469386
35615;IP DELLI PAOLI;DELLI PAOLI GIACOMO;VIALE XX SETTEMBRE 173 54033;44.05702677915408;10.064895463962557
45721;IP di In-Go...E Snc;IP di In-Go...E Snc;VIALE GALILEI 13 54033;44.055769261407896;10.0440070049533
12017;PALAGI LINO;PALAGI LINO;DA VERAZZANO 13 54036;44.03317760198015;10.052110753195166
19271;S.I.M srl Avenza;S.I.M srl;VIA COVETTA 3 54031;44.04625300869024;10.058365613222122
54220;STAZIONE SERV. ESSO FATIMA NAJID;STAZIONE SERV. ESSO FATIMA NAJID;ROMA 31 54033;44.073942176261625;10.094399083577718
16687;STRENTA BARBARA & C. S.n.c.;STRENTA BARBARA & C. S.N.C.;VIA DON MINZONI 27 54033;44.074577653404305;10.095852983373334
13851;Tamoil di Orsi Maria;ORSI MARIA;Piazza della torre  54014;44.19997586200658;10.175191115665939
55935;SUPERGAS;SUPERGAS;VIA ROMA  54015;44.29258;10.13019
46441;VIA PONTE NAZIONALE S.S 62 - FILATTIERA;SERVIZI E GESTIONI ZENIT S.R.L. IN SIGLA - ZENIT S.R.L.;62 della Cisa, Km. 30+746 , FILATTIERA - 54023;44.331629412512896;9.930874365036061
51843;DISTRIBUTORE ALA FIVIZZANO;ALA CARBURANTI S.R.L.;VIA SS 63 DEL CERRETO KM 10+500 54013, FIVIZZANO (MS) SNC 54013;44.2070413101123;10.082535743713374
52756;DISTRIBUTORE IP di Pietrelli Lorenzo;PIETRELLI LORENZO;NAZIONALE SNC 54013;44.2382456;10.1271607
45932;ESSO FIVIZZANO - V. NAZIONALE NORD;PAD MULTIENERGY S.P.A;NAZIONALE NORD 12 54013;44.241947453407086;10.13088607147387
26879;IP;SOCIETA' IN NOME COLLETTIVO F.LLI PIETRINI & C. DI PIETRINI GRAZIANO E PIETRINI ROBERTA;VIA CESARE BATTISTI 119 54013;44.166786968081674;10.122404542489675
47478;1307;T.D.M. S.R.L.;GIARELLA SNC 54016;44.25009936514591;10.013217907357607
54830;SOPETI TERRAROSSA;SOPETI TERRAROSSA;Via Nazionale 82 54016;44.24115769890915;9.960169974227915
50353;4509 – Massa;ENI FUEL S.P.A.;Località Frigido  54100;44.022465581832265;10.11998885129703
37614;apuana carburanti;SOCIETA' APUANA CARBURANTI S.R.L.;Via Aurelia Ovest 154 54100;44.039995206375146;10.120924014251386
48722;Carrefour Massa;Carrefour Massa;Via Dorsale, snc  54100;44.02476634931849;10.110751618687015
37275;CENTO OTTANI SNC;CENTO OTTANI SNC;Via Pellegrini 8 54100;44.022076264843086;10.139780044555664
19961;CUMA di Mainardi Luciano s.a.s. ;CUMA di Mainardi Luciano s.a.s. ;BOZZONE 143 54037;44.03105870502335;10.078521072864532
4841;eni;MARCHINI A. E G. S.N.C. DI MARCHINI GIUSEPPE E LAZZONI ANDREA;via democrazia 34 54100;44.03382551779129;10.141129673016394
51943;ENI;COOPERATIVA SOCIALE ESSENZA A R.L.;VIA DELLA REPUBBLICA 126 54100;44.00850494534242;10.125744128617947
4980;eni antonioli e grassi snc;ANTONIOLI MARIO E GRASSI ANTONIO S.N.C. DI ANTONIOLI MARIO E GRASSI ANTONIO;Statale 1 Via Aurelia, Km. 380, dir. nord - -;44.05005887634848;10.074792114253796
19822;Esso - Universal Motors;UNIVERSAL MOTORS SOCIETA' IN NOME COLLETTIVO DI BELLE' G. & C.;Statale 1 Via Aurelia, Km. 383, dir. Ovest - 54100;44.038955786756276;10.095707327127457
38166;GAS AUTO DI GIANFRANCHI LOREDANA;GAS AUTO DI GIANFRANCHI LOREDANA;VIA DEL CACCIATORE 2 54100;44.02797953377613;10.078272968530655
31156;IMPIANTO TOTALERG F.LLI ANTIBO S.N.C.;F.LLI ANTIBO SNC DI SALVATORE MARIA E ALESSANDRO ANTIBO;VIALE MATTEI 4 54100;44.018657908914555;10.101488849568113
11257;IP;totalerg;VIALE ROMA 252/A 54100;44.01509615302672;10.119211499722269
55663;IP VIA CARDUCCI MASSA;IP VIA CARDUCCI MASSA;VIA VIA CARDUCCI SNC 54100, MASSA (MS) 1 54100;44.03283993876145;10.12446029898582
55950;IP via delle piete;IP via delle piete;Via delle Pinete 344 54100;44.055701048673875;10.044256226980023
55677;Massa Codupino;Massa Codupino;AURELIA OVEST 372 54100;44.0372161865;10.1042070389
6600;MASSA VIA AURELIA LOC. CASTAGNOLA;SERVIZI & GESTIONI ITALIA srl;VIA AURELIA LOC. CASTAGNOLA SNC 54100;44.040371777817114;10.124801631946525
54912;MASSA VIA X APRILE;MASSA VIA X APRILE;via X Aprile  54100;44.0388500;10.1387961
11725;MASSA-VIALE DEMOCRAZIA;SERVIZI & GESTIONI ITALIA S.R.L.;VIALE DEMOCRAZIA S/N 54100;44.03337327674089;10.141655568122815
50537;PIERONI GUSEPPE;PIERONI GIUSEPPE;VIA DEMOCRAZIA 41 54100;44.03225707072638;10.143351584586298
10542;primax carburanti;PRIMAX CARBURANTI S.N.C. DEI F.LLI PRIMO E MASSIMO MANFREDI;VIA MARINA VECCHIA 446 54100;44.02248581972936;10.119977789549239
15254;Shell;esso;VIA MARINA VECCHIA SNC 54100, MASSA (MS) 198 54100;44.029596890522555;10.130729451590014
25269;STAZIONE DI SERVIZIO DI SPALLANZANI ANDREA;STAZIONE DI SERVIZIO DI SPALLANZANI ANDREA;VIALE MATTEI 55, 54100 - -;44.014347067920845;10.096215605735779
50189;Stazione Q8 FM Carburanti Di Dazzi E Mosti SNC;FM CARBURANTI DI DAZZI FLAVIO E MOSTI MARCO S.N.C.;Via X Aprile 3 54100;44.039052976468376;10.139141082763667
16699;Strenta Barbara & c. Snc;STRENTA BARBARA & C. S.N.C.;VIALE ROMA 285 54100;44.01221985604788;10.117011839811767
12924;TAMOIL Massa;Tamoil Massa;VIA MASSA AVENZA SNC 54100;44.03026110957324;10.090928971767426
4920;Tongiani Carburanti ;Tongiani Carburanti ;VIA OLIVETI 106 54100;44.02720699509203;10.110791884655782
13602;TotalErg;CRISTIANI PAOLO;VIA SAN LEONARDO 218, 54100 - -;44.01577332501576;10.109748483605927
7073;BMP SNC;BMP SNC;VIA Nerino Garbuio  LOC. DEBBIA 19 54038, MONTIGNOSO (MS) 54038 54038;44.015492972813355;10.156301105487842
26489;IP di braconi massimo;BRACONI MASSIMO;VIA 8 APRILE SNC 54038;44.01420586824598;10.166631639003754
22094;IP DI DEL GRANDE MARCO;DEL GRANDE MARCO;VIALE IV NOVEMBRE  54030;43.97728416251269;10.144764930009842
29128;keropetrol - Montignoso;keropetrol - Montignoso;viale marina  102 54038;43.99986634682026;10.156754875463093
43569;S. BENEDETTO EST;"IP SERVICES S.R.L.";A15 PARMA-LA SPEZIA, Km. 28, nord - 54026;44.31270038024247;9.927226954370099
29505;S. BENEDETTO OVEST;GE.SE.CO. DI MARTINELLI MIRCO & C. SOCIETA' IN NOME COLLETTIVO;Autostrada A15 PARMA-LA SPEZIA, Km. 80, dir. sud - 54026;44.311285118058024;9.926801919937134
44341;ENI PONTREMOLI;ENI PONTREMOLI;VIA NAZIONALE 112/114 54027;44.368515000123;9.885177000123
47002;ESSO PONTREMOLI - SANTA GIUSTINA;PAD MULTIENERGY S.P.A;Via Nazionale della Cisa - Loc. Santa Giustina  54027;44.35956576203467;9.899957340254936
39589;ip Nicoil;NICOIL S.N.C. DI MUSETTI ANGELO;Statale 62 della Cisa, Km. 35+22, dir. Parma - 54027;44.36091050587076;9.89906202331349
37291;MONTAIO OVEST;SARNI S.R.L.;Autostrada A15 PARMA-LA SPEZIA, Km. 65+430, dir. sud - 54027;44.4148049;9.870882499999999
27683;Valter Cresci;TOTALERG;Statale 62 della Cisa, Km. 38, dir. LA SPEZIA \\ 54027;44.37724474510354;9.884962141513824
37009;IP DI MORNELLI SNC;IP DI MORNELLI SNC;VIA ROMA 171 54012;44.24211484971644;9.944525957107544
44778;1305;T.D.M. S.R.L.;S.S. N. 62 KM. 26,800 SN 54028;44.294000258989115;9.951088252557838
8013;lam;LAM DI MUSETTI MASSIMO & C. S.N.C.;PIAZZA DELLA RESISTENZA SNC, 54028 - -;44.29283881765152;9.951735734939575
46884;LOC.COLORETTA - ZERI (MS);SERVIZI E GESTIONI ZENIT S.R.L. IN SIGLA - ZENIT S.R.L.;LOC. COLORETTA  54029;44.3436432184112;9.757895365131617
31318;BIENTINA - MANETTI 8/10;"IP SERVICES S.R.L.";VIA MANETTI 8/10 56031;43.74615737159374;10.633849038028757
6561;BIENTINA MARCO POLO 16;SERVIZI & GESTIONI ITALIA srl;VIA MARCO POLO 16 56031;43.70758417731088;10.61864136931149
31938;Stazione di servizio Battaglia Ilio;BATTAGLIA ILIO;VIA CRISTOFORO COLOMBO 20 56031;43.75384571355153;10.619147171228065
12004;Donati & Giari;Donati & Giari;VIA PROV.LE ARNACCIO-MONTE SERRA SNC 56011;43.72338883156677;10.513803362846375
54604;Leo e Massi Auto Srl;Leo e Massi Auto Srl;PROVINCIALE LUNGOMONTE 39 56011;43.723923;10.5006258
46262;Beyfin;STAZIONE DI SERVIZIO GALLETTI ALESSANDRO;VIA DELLA BOTTE 66 56012;43.68010028100335;10.584100509855489
5961;CALCINAIA;"IP SERVICES S.R.L.";Via Circonvallazione 21 56012;43.67455857980305;10.580048457672092
44719;DISTRIBUTORE ALA CALCINAIA;ALA CARBURANTI S.R.L.;DEL TIGLIO 149 56012;43.70001075988008;10.62046080827713
36559;ENI fornacette 53735;ENI fornacette ;via tosco romagnola  km 16+650  56012;43.66973299743817;10.589320957660675
49321;PV CALCINAIA S.P. 2 VICARESE;ALA CARBURANTI S.R.L.;VIA S.P. VICARESE N. 2 - KM 1+550 SNC 56012, CALCINAIA (PI) SNC 56012;43.68602010959109;10.606617927551264
43415;Ciesseci Snc di Casalini Stefano e C.;Ciesseci Snc di Casalini Stefano e C.;VIA VOLTERRANA 200 56033;43.58798324635699;10.673069655895233
40238;Pratelli Carburanti di Pratelli Alberto;Pratelli Carburanti di Pratelli Alberto;439 Sarzanese-Valdera, Km. 69+500, sud 314 56033;43.585233427011616;10.676284208893776
44461;ADS CASALE MARITTIMO;ALA CARBURANTI S.R.L.;VIA VIA CECINESE STR. PROV. 3 COMUNI KM. 10,640/700 SNC 56040, CASALE MARITTIMO (PI) SNC 56040;43.297998772103085;10.61229407787323
24186;CASCIANA TERME;TIBER S.R.L.;VIA DEL COMMERCIO NORD 70 56035;43.535743713378906;10.619789123535156
6557;CASCIANA TERME V.DANTE ALIGHIERI 29;SERVIZI & GESTIONI ITALIA srl;V.DANTE ALIGHIERI 29 56034;43.52447958466973;10.620603561401367
52603;Ciesseci Snc di Casalini Stefano e C.;Ciesseci Snc di Casalini Stefano e C.;LIVORNESE OVEST 81 56035;43.60342968086247;10.570393862460508
9233;GIRASOLE S.R.L. CONAD;GIRASOLE S.R.L. CONAD;VIA DEL COMMERCIO 48 56035;43.5821636347685;10.629213452339172
11764;LARI-FZ.CEVOLI VIA DEL COMMERCIO 95;SERVIZI & GESTIONI ITALIA S.R.L.;FZ.CEVOLI VIA DEL COMMERCIO 95 56030;43.581468660329605;10.629673177909808
53968;PAPUCCI DINO PERIGNANO;PAPUCCI DINO;LIVORNESE EST 116 56035;43.6664368;10.6493117
12484;QUATTROPETROLI;QUATTROPETROLI;VIA XVI LUGLIO , LARI (PI) 2 56035;43.57037067989727;10.594018176198006
51011;53750 – Cascina;ENI FUEL S.P.A.;Loc. San Frediano - CASCINA  56021;43.683295038710696;10.510976932173623
42566;Beyfin;Cascina;S.S. 67 bis Arnaccio 16/a 56021;43.66758404476622;10.55734509286799
47303;CASCINA;CASCINA;VIA T. ROMAGNOLA 2639 56021;43.69276691018944;10.455314711639415
4686;Cascina;NUOVA SIDAP  S.R.L.; S.C.G. FI-PI -LI  KM. 70+445 SNC 56021;43.68281152472107;10.448529124259949
42393;CASCINA;SIRTAM S.P.A.;VIA CARLO LEVI  56021;43.684462530235685;10.480284467339516
31417;CASCINA - LATIGNANO;"IP SERVICES S.R.L.";VIA NAZZARIO SAURO snc 56021;43.66246503332634;10.542093962430954
7294;CASCINA - SDA GRANDE COM FI-PI;SERVIZI & GESTIONI ITALIA S.R.L.;SDA GRANDE COM FI-PI-LI SN 56021;43.68358487834814;10.448975712060928
8614;CASCINA LOC.MARCIANA SUPERSTR.FI/PI/LI;SERVIZI & GESTIONI ITALIA S.R.L.;LOC.MARCIANA SUPERSTR.FI/PI/LI  56021;43.668145096730186;10.524512409787008
11768;CASCINA PI-VIA TOSCO ROMAGNOLA 1516;SERVIZI & GESTIONI ITALIA S.R.L.;VIA TOSCO ROMAGNOLA 1516 56023;43.685327154735006;10.499059766864775
30850;Cascina Sud;P.S.A. PRESTAZIONI SERVIZI AUTOMOBILISTICI S.N.C. DI TRIPEPI NICO  DANIELE E MATTEO;GRANDE COMUNICAZIONE S.N.C. 56021;43.6340712867068;10.58691142573241
11762;CASCINA-LOC.SAN FREDIANO A SETTIMO V. TOSCO;SERVIZI & GESTIONI ITALIA S.R.L.;LOC.SAN FREDIANO A SETTIMO V. TOSCO S/N 56026;43.681302145456094;10.522267406082165
53679;ip arnaccio;ip arnaccio;s.s206 km39  56021;43.64750743706976;10.44738955975343
33900;Navacchio;"IP SERVICES S.R.L.";via Oristano snc 56023;43.67644886698039;10.475322366270461
30604;NEW GAS NETWORK;NEW GAS NETWORK DI MANDORLINI ELISA & FILIPPO - S.N.C.;RIO POZZALE SN 56021;43.66333797029339;10.540913880442758
41909;PISA CARBURANTI CASCINA;PISA CARBURANTI S.R.L.;VIA NAZARIO SAURO 124 56021;43.66907218630058;10.541029125452042
30507;SHELL VISIGNANO;ESSO VISIGNANO;VIA LOC.  NAVACCHIO -  VIA TOSCO ROMAGNOLA 2351 56021, CASCINA (PI) 2351 56023;43.68938879305508;10.474706189926905
50201;STAZIONE DI SERVIZIO ENI;BSA CARBURANTI E SERVIZI S.A.S. DI STEFANO BARONCINI & C.;VIA TOSCOROMAGNOLA 626 56021;43.678233420148416;10.537764925746648
24601;CASTELFRANCO DI SOTTO;SIRTAM S.R.L.;VIA FRANCESCA BIS  56022;43.72175668312704;10.745546221733093
46399;eni;eni;via provinciale francesca sud  197 56022;43.70443899955922;10.768339547980872
7074;FABBRI E ZUCCHELLI;FABBRI E ZUCCHELLI;VIA PROVINCIALE FRANCESCA SUD 66 56022;43.69901205071147;10.739494646388266
49002;G.Service di Dervishi Euroglen ;G. SERVICE DI DERVISHI EUROGLEN;Via Provinciale Francesca Nord  142 56022;43.70093008322254;10.752805243389007
55122;IP;IP;EMILIA 79 56040;43.398063077901654;10.496492385864258
44277;IP;LAZZERINI MASSIMO;VIA EMILIA 79 56040;43.397234000123;10.496200000123
55855;PV4105;PV4105;Via A. Gramsci snc 56041;43.21065776496701;10.900350104365193
52013;Q8;GALINGANI LUCA;VIA GRAMSCI SNC 56041;43.21075871537296;10.900023982495998
46254;VIA DELLA RIMEMBRANZA - CHIANNI;SERVIZI E GESTIONI ZENIT S.R.L. IN SIGLA - ZENIT S.R.L.;VIA DELLA RIMEMBRANZA  56034;43.48634233250227;10.640440060066226
21596;IP;LANDI LUBRIFICANTI S.A.S. DI LANDI ALESSANDRO & C.;VIA LAVORIA 1 INT.B 56042;43.60948756716238;10.527127042991651
55188;VIA VENETO SNC CRESPINA LORENZANA (PI) CAP 56042;VIA VENETO SNC CRESPINA LORENZANA (PI) CAP 56042;VENETO SNC 56042;43.60666;10.53455
20110;Fauglia;"IP SERVICES S.R.L.";Via Marconi, Acciaiolo   56043;43.551613971970845;10.505634930059387
35751;europam;FOSSAROLI ALESSIO;Statale 68 di Val Cecina, Km. 15+741, dir. volterra - 56040;43.3286019923368;10.666807293891907
10429;IP;FULCERI S.A.S. DI FULCERI FILIPPO &  C.;VIA VOLTERRANA 17 56030;43.49942132364904;10.72684972454499
37023;Europam;M.S.G. SNC DI MASI SIMONE & C.;VIA VOLTERRANA 91 56040;43.33566546319082;10.741032599182518
36705;IP;CICCHETTI LUCIA GERARDA;LOCALITA' BACCHETTONA 103 56040;43.40191571098131;10.783199071884155
23420;AQUILA ENERGIE spa PIO LUCA & MARCO;AQUILA ENERGIE spa PIO LUCA & MARCO;STRADA PROV.LE TRE COMUNI KM, 1,16  56040;43.32571387566988;10.547355115413666
21181;Jugi Fuel;JUGI ENERGY S.R.L.;VIA DEL POGGETTO 2 56040;43.31368736028728;10.54034247994423
30733;Metano Cecina;METANO TOSCANA S.R.L.;DEL POGGETO 7 56040;43.31648705997104;10.542419850826263
26851;STAZIONE CARBURANTI NANNI ALESSANDRO;NANNI ALESSANDRO;VIA PROV.LE DEI TRE COMUNI  56040;43.32760052289627;10.611785463988781
31707;Damiano di Righini Damiano & C. SAS;DAMIANO DI RIGHINI DAMIANO E C. -SOCIETA' IN ACCOMANDITA SEMPLICE;VIA VOLTERRANA SNC 56040;43.203692088711776;10.73449619114399
42535;esso;T.B. GROUP DI TESI WALTER & BELFIORE FABIO S.N.C.;VIA MATTEOTTI 96 56020;43.6877568813655;10.76575402579499
52096;IP San Romano;ESSEAUTO S.R.L. SEMPLIFICATA;Via Cavour 76 56020;43.68996342500181;10.759557658895481
55292;SHELL MONTOPOLI IN VAL D'ARNO VIA MATTEOTTI, 96 LOC. SAN ROMANO;PAD MULTIENERGY S.P.A;LOC. S. ROMANO VIA MATTEOTTI 96 56020;43.6877627;10.765577
42804;BIENTINESI MASSIMILIANO;BIENTINESI MASSIMILIANO;Via provinciale di Orciano Nord 2 56040;43.4973271857501;10.517167707201224
50415;Falchi Alessandra;FALCHI ALESSANDRA;Piazza della repubblica 5 5 56036;43.60499224679936;10.773375702726202
33024;PALAIA - MONTANELLI;"IP SERVICES S.R.L.";VIA PROVINCIALE PER LEGOLI  56030;43.59241942625319;10.718965131282857
46164;beyfin;BOVE GRAZIA;STRADA PROV.LE DELLA FILA 36 56037;43.5654914294841;10.71079761021582
21432;API-IP DI SIRAGUSA MARCO;API-IP DI SIRAGUSA MARCO;PIAZZA FRANCESCO DOMENICO GUERRAZZI 40, 56125 40 ;43.709918690086916;10.405614482803344
44342;Autoservice;Autoservice;VIA VECCHIA TRAMVIA  11 56121;43.704191497614254;10.411684275424477
47313;B.I.P ;PROM. SELF S.R.L.;Via San Pio da Pietrelcina  56124;43.70158737747469;10.436182916164398
12217;bandinelli roberta esso;bandinelli roberta esso;VIA AURELIA NORD 7 56122;43.716417967049615;10.382214188575745
53998;Beyfin;Beyfin;Lungarno Gabriele D'Annunzio snc 56128;43.67900116994546;10.278959520403998
40847;CASTAGNOLO EST;BE.MA. S.N.C. DI MARZIALE CLAUDIO E MARZIALE LUCA;Autostrada A12 SESTRI L.-LIVORNO, Km. 163.512, dir. Nord - 56122;43.66940758451526;10.359202418749419
3563;CASTAGNOLO OVEST;NUOVA SIDAP  S.R.L.;Autostrada A12 SESTRI L.-LIVORNO, Km. 163.659, dir. Sud - 56100;43.667839791040905;10.359388589859009
44376;CECCHETTI SNC;CECCHETTI MILVANO & CECCHETTI ALESSANDRO  SOCIETA' IN NOME COLLET TIVO;VIA CONTESSA MATILDE 1 56123;43.72288156308838;10.401088297367096
35835;DAMIANO MASSEI;MASSEI DAMIANO;VIA AURELIA NORD 6 56122;43.71613821294091;10.382619449073786
51335;DISTRIBUTORE ALA PISA FOSSA DUCARIA;ALA CARBURANTI S.R.L.;DELLA FOSSA DUCARIA 8-10 56122;43.71130717551932;10.379112958908076
46296;Distributore IP Marghe s.a.s di Emmanuel Busiello;MARGHE S.A.S. DI EMMANUEL BUSIELLO;VIA MONSIGNOR ARISTO MANGHI 10 56124;43.71087139675548;10.442028051422426
43562;eni;eni;VIA S.S. 206 LOC. OSPEDALETTO Km. 43,245 56100, PISA (PI) 442 56121;43.682777482354574;10.425316682209086
15732;ENI CISANELLO 05291;ENI CISANELLO 05291;via cisanello 170 56013;43.70740988671347;10.432974322753921
43560;ENI CONTE FAZIO;ENI CONTE FAZIO;VIA CONTE FAZIO 26 56100, PISA (PI) 26 56122;43.7109504383386;10.388543605804443
19159;ESSO;M. & M. S.A.S. DI MALACARNE MAURIZIO E C;VIA MARSALA 11,  11 56121;43.69499386730775;10.444285629222122
52124;ESSO - PISA LOC. TIRRENIA VIA PISORNO, 40;PAD MULTIENERGY S.P.A;LOC. TIRRENIA VIA PISORNO 40 56128;43.63135172315733;10.29805889965519
41609;Esso di Fannelli Daniele;FANNELLI DANIELE;Via Pisorno Tirrenia 40 56128;43.63132952687346;10.298053833343488
44459;FABRIS CLAUDIO;FABRIS CLAUDIO;VIA LIVORNESE 744 56122;43.680787250074225;10.350666271037426
48775;Franco Del Giacco;Franco Del Giacco;AURELIA KM 331 SNC 56121;43.686454578662286;10.38298606872558
54905;GD FUEL SRL;PISA CISANELLO;Via Cisanello  56124;43.70708;10.43415
31689;IMP. ENI 5260 GPL di Simone Cipolli;CIPOLLI SIMONE;VIA PIETRASANTINA 169/A 56122;43.73674712985573;10.38263127207756
24462;IMPIANTO IP;ALESSANDRINI ANTHONY;VIA VIALE ROSSINI - VILLAGGIO CEP SNC 56126, PISA (PI)  56125;43.712616604432704;10.3741554915905
44280;IP;STAZIONE DI SERVIZIO ERG S.N.C. DI BACCIARDI MARCO & BETTI PAOLO;AURELIA SUD KM. 333+296 SNC 56121;43.69684404651426;10.38800984621048
43835;IP CICORIA DAVIDE _ AT YOUR SERVICE;CICORIA DAVIDE;VIA CONTE FAZIO 6 56122;43.711556174984196;10.39083753780335
55591;L'OASI DEL CARBURANTE DI NICOLAO BERNARDINI;L'OASI DEL CARBURANTE DI NICOLAO BERNARDINI;DEL BRENNERO 1 56123;43.72302305375972;10.402854881570454
38907;LA NUOVA OASI DEL CARBURANTE;LA NUOVA OASI DEL CARBURANTE DI BERNARDINI VERONICA;VIA DEL BRENNERO 1 56123;43.72294264496515;10.403105364418025
32346;PISA - AEREOPORTO;"IP SERVICES S.R.L.";VIA PASQUALE PARDI 1X 56100;43.699532965798795;10.396640991401682
29279;PISA - VITTORIO VENETO 14;"IP SERVICES S.R.L.";VIA VITTORIO VENETO 14 56127;43.72113101545497;10.410440233135205
15051;PISA CARBURANTI OSPEDALETTO;PISA CARBURANTI S.R.L.;VIA EMILIA 452 56121;43.67538649959021;10.430292785167694
41404;PISA CARBURANTI S.ERMETE;PISA CARBURANTI S.R.L.;VIA EMILIA 183 56121;43.69813459328533;10.413814634084702
35564;PISA COLTANO;SIRTAM S.P.A.;VIA AURELIA  56121;43.65417542648384;10.364769101142883
6558;PISA CONTE FAZIO;SERVIZI & GESTIONI ITALIA srl;VIA CONTE FAZIO SNC 56100;43.71126452719102;10.389796803704826
6559;PISA DI CISANELLO 13;SERVIZI & GESTIONI ITALIA srl;VIA DI CISANELLO 13 56100;43.7103005711638;10.424951795106495
6560;PISA FAGIANA;SERVIZI & GESTIONI ITALIA srl;FAGIANA SNC 56100;43.68584659103715;10.43211026812287
35823;PISA GAGNO;SIRTAM S.P.A.;VIA SAN JACOPO  56121;43.73239629037346;10.392114892601967
41010;PISA LA CELLA ;NET FUEL S.R.L.;VIA TOSCO ROMAGNOLA 218/A 56121;43.70078834247733;10.421804264187813
23615;PISA OSPEDALETTO;OIL SERVICE S.R.L.;PISA OSPEDALETTO - VIA GRONCHI  56014;43.68585531700856;10.43163925409317
44541;PISA S ERMETE;SIRTAM S.P.A.;VIA EMILIA KM 44+340  56121;43.6899027039609;10.416319803954138
43608;PISA VIA AURELIA LOC. BARBARICINA;PISA VIA AURELIA LOC. BARBARICINA;VIA AURELIA LOC. BARBARICINA  56122;43.71790430856066;10.382042534952916
44469;PISA VIA BONANNO, 41;SERVIZI & GESTIONI ITALIA S.R.L.;VIA BONANNO 41 56126;43.717600184261286;10.388793317790942
10588;PISA VIA LUIGI BIANCHI;SERVIZI & GESTIONI ITALIA S.R.L.;VIA LUIGI BIANCHI  56100;43.72441031212779;10.402547693254064
46855;Pratale;Pratale;via di Pratale 74 56125;43.72146895993185;10.419674047994704
40046;San Pio Pisa;"IP SERVICES S.R.L.";VIA SAN PIO DA PIETRALCINA SNC 56124;43.70463011330188;10.435480852709134
22208;SCARPELLINI ANDREA;SCARPELLINI ANDREA;VIA DELL'AEROPORTO 14 56121;43.70415985759933;10.401026742624827
53522;SHELL San piero a Grado;SHELL San piero a Grado;LIVORNESE 1287 56121;43.67200018777041;10.348348617553711
54788;Stazione di Servizio Eni Baroncini Andrea;BARONCINI ANDREA;BONANNO 107 56126;43.721934561245625;10.391591569921856
10513;torre pendente s.n.c.;TORRE PENDENTE - STAZIONE DI SERVIZIO TAMOIL DI MONI GRAZIANO E B ENNATI ALESSANDRO S.N.C.;VIA PIETRASANTINA 28 56122;43.72881298321297;10.388860702514648
46935;FRAZ. MONTECERBOLI - POMARANCE (PI);SERVIZI E GESTIONI ZENIT S.R.L. IN SIGLA - ZENIT S.R.L.;LOC. AL MADONNINO (FRAZ. MONTECERBOLI)  56045;43.24462413240705;10.877660306180815
50475;STAZ SERV. IP BALLORIANI A.;STAZ SERV. IP  BALLORIANI A.;SS 439 KM 14+440 SNC 56045;43.28917541880208;10.87830558419227
36545;stazione servizio balloriani alessandro;stazione servizio balloriani alessandro;S.S. 439 SARZANESE VALDERA 44 56045;43.300741219667486;10.867204517126083
51656;ESSO - PONSACCO VIA VALDERA P, 150;PAD MULTIENERGY S.P.A;VIA VALDERA P 150 56038;43.62869087645959;10.629396763492528
13839;Kerotris - Ponsacco;BECOJL SRL;VIA CIRCONVALLAZIONE LOTTO 3 56038;43.6177393281434;10.616680160164833
36673;Q8 4164;VALDERA GESTIONI S.R.L.;STRADA S.P. 11 DELLE COLLINE PER LEGOLI KM 4+100 DX SNC 56038, PONSACCO (PI) 1/L 56038;43.63108417609606;10.658575674729946
22297;QUATTROPETROLI - PONSACCO;QUATTROPETROLI - PONSACCO;VIA NUOVA CIRCONVALLAZIONE, S.R. 439 SNC 56038;43.62928634268702;10.603405237197876
26827;RIFORNIMENTO GIANNINI;RIFORNIMENTO GIANNINI DI GIANNINI FRANCO  &  C. S.N.C.;VIA VALDERA C 79 56038;43.615097829384986;10.641200244426727
18441;STAZIONE SERVIZIO MANCINI ANDREA;MANCINI ANDREA;VIA FOSSA NUOVA - SRT 439 SNC 56038;43.62187776011211;10.605623424053192
41594;ADS PONTEDERA;ALA CARBURANTI S.R.L.;VIALE EUROPA SNC 56025, PONTEDERA (PI) SNC 56025;43.64758818813079;10.606263875961304
44917;ADS VALDERA;VALDERA GESTIONI S.R.L.;VIA LOC. SANTA LUCIA - S.G.C. FI.PI.LI. - DIREZ. PISA, KM 54+200 56025, PONTEDERA (PI) SNC 56025;43.64191095316417;10.616748631000519
47288;AREA DI SERVIZIO SANT'ANDREA;AREA DI SERVIZIO SANT'ANDREA;S.P. 11 COLLINE PER LEGOLI KM 7+100  56025;43.61318751348797;10.68309772126808
54086;BEYFIN;BEYFIN;TOSCO ROMAGNOLA 18+018 SNC 56025;43.66751461449978;10.605561733245809
51330;DMG Service snc;DMG ;VIALE EUROPA SNC 56025, PONTEDERA (PI) 27 56025;43.65336010153513;10.649953017287025
8300;ENI;MARIANELLI IURI;VIA TOSCO ROMAGNOLA 124 56025;43.665703132451284;10.635519604368596
43561;ENI CONFORTI PONTEDERA;CONFORTI STEFANO;VIA DI GELLO OVEST 3/A 56025;43.66360033589637;10.580635941716196
43993;ENI PONTEDERA NORD;ACHILLI SNC DI ACHILLI ALESSANDRO & C.;SGC FI-PI-LI KM. 56,875 56025;43.63458428413617;10.588889122009277
49273;EUROPAM - PONTEDERA;EUROPAM S.R.L.;S.S.67 KM.26 + 210 snc 56025;43.664371865643155;10.70022413988113
33622;GOLDENGAS ENI/ PONTEDERA;GOLDENGAS - SOCIETA' PER AZIONI;VIALE AMERICA 15 56025;43.6566593818604;10.602123141288757
55254;IP 45951;IP 45951;SS 67 TOSCO ROMAGNOLA KM21+696 56025;41.819281;12.45769
54244;IP45603;IP45603;S.G.C. FI.PI.LI. DIR. FIRENZE KM54+140 56025;43.66266632080078;10.632832527160645
47422;Pisa - Pontedera La Borra;Pisa - Pontedera La Borra;VIA DELLA FORNACE SNC 56025;43.645807621101994;10.62676727771759
5958;PONTEDERA;"IP SERVICES S.R.L.";Via Roma 326 56025;43.65483064365684;10.631201046626984
31408;PONTEDERA - I FABBRI;"IP SERVICES S.R.L.";VIA PROVINCIALE COLLINE  56026;43.61962330096463;10.673164373016334
28314;PONTEDERA - ROMA;"IP SERVICES S.R.L.";VIA ROMA  56025;43.655831049239325;10.632016851520575
31171;PONTEDERA - SP DI GELLO 35/A;"IP SERVICES S.R.L.";SP DI GELLO 35/A 56030;43.63356212151889;10.6032839067459
43030;PONTEDERA B.FUEL;B.FUEL PONTEDERA;via SRT 439 km 61+815  56025;43.638181728998646;10.62877893447876
55332;PONTEDERA S.G.C.FI-PI-LI KM 56+750-GELLO;PONTEDERA S.G.C.FI-PI-LI KM 56+750-GELLO;S.G.C.FI-PI-LI KM 56+750-GELLO  56025;43.6327395;10.5958170
11767;PONTEDERA-VIA TOSCO ROMAGNOLA 237;SERVIZI & GESTIONI ITALIA S.R.L.;VIA TOSCO ROMAGNOLA 237 56025;43.666920293670934;10.64759807605742
36674;Q8 4163;VALDERA GESTIONI S.R.L.;STRADA STRADA DI PATTO KM 1+200DX SNC 56025, PONTEDERA (PI) SNC 56025;43.65215325526333;10.612567663192749
40367;Stazione di Servizio Esso di Casalini Moreno;CASALINI MORENO;strada provinciale 11 delle colline Legoli  Km 2+808 56025;43.64164304131975;10.650343894958496
31573;5241 San Giuliano Terme Madonna Dell'acqua;05241 San Giuliano Terme Madonna Dell'acqua;VIA AURELIA MADONNA DELL'ACQUA SNC 56017;43.74568084697878;10.369479060173035
32528;ASCIANO;STAR SERVICE S.R.L.;S.P.30 DEL LUNGOMONTE PISANO  56017;43.74848962889347;10.461663901805878
39938;CRIAGO - SAN GIULIANO TERME;Criago - San Giuliano Terme;via Pietrasantina  4 56017;43.736642479918764;10.383489578962326
44037;esso;GESTIONE IMPIANTI IL QUADRIFOGLIO DI CINACCHI SIMONE E C. S.N.C.;VIA CHE GUEVARA 118/a 56017;43.751892697689634;10.387229919433594
48475;ESSO - SAN GIULIANO TERME;PAD MULTIENERGY S.P.A;VIA AURELIA 110-MADONNA DELL'ACQUA  56017;43.748163180746815;10.365339409858832
15288;Nuti Snc di Nuti Daniele & C.;Nuti Snc di Nuti Daniele & C.;VIA DI CISANELLO 23 56017;43.71468248674378;10.443917819049034
41105;SAN GIULIANO TERME LOC. GHEZZANO - VIA F. GIOVANNINI;SERVIZI & GESTIONI ITALIA S.R.L.;LOC. GHEZZANO - VIA F. GIOVANNINI  56017;43.71623825689026;10.4324821382761
11770;SAN GIULIANO TERME-LOC. LA FONTINA-GHEZZANO;SERVIZI & GESTIONI ITALIA S.R.L.;LOC. LA FONTINA-GHEZZANO S/N 56017;43.72841500000002;10.419548542327902
11765;SAN GIULIANO TERME-VIA BARSOTTI 8;SERVIZI & GESTIONI ITALIA S.R.L.;VIA BARSOTTI 8 56017;43.76064188443029;10.44309848346711
47671;STAZ SERV IP SANTERINI DAVIDE;SANTERINI  DAVIDE;via calcesana-ghezzano 30 56017;43.72197647734325;10.424074299405651
43046;Stazione di servizio Boscia Gabriele ;BOSCIA GABRIELE;VIA ERNESTO CHE GUEVARA 54 56017;43.776294778379366;10.40072329447753
55717;Stazione di servizio Q8 Giaconi Stefano;Stazione di Servizio Q8 Giaconi Stefano;AURELIA 51 56017;43.7866815;10.3616649
55924;SUPERGAS;SUPERGAS;VIA ULISSE DINI GELLO 81 56017;43.75078;10.42150
44275;TOTALERG PONTASSERCHIO;DIEFFE S.N.C. DI BANDINI FRANCA NICOLETTA  & C.;G. DI VITTORIO 20/C 56017;43.777770546299514;10.408284664154166
26312;arzilli - 4 petroli;ARZILLI DI ARZILLI PIERO & C. S.A.S.;VIA BALCONEVISI 14/16 56028;43.6433468886608;10.833499830688424
53924;B.FUEL SAN MINIATO;B.FUEL SAN MINIATO;DEI MILLE-S.R.436 FRANCESC SNC 56028;43.69302669224507;10.831704139709473
11158;Eni Lepori snc - San Donato - San Miniato;LEPORI S.N.C. DI LEPORI ROBERTO & C.;LEONARDO DA VINCI 64 56028;43.702546519923615;10.785928219556808
14954;ip;MELAI MAURIZIO;VIA T.ROMAGNOLA EST 411 56028;43.69211230298036;10.836415853372955
24209;SAN MINIATO;SAN MINIATO;VIA CAPITINI KM 0+350 SNC 56028;43.696077056844004;10.843633934855461
13546;San miniato;San miniato;Via Romaiano 34 56028;43.69926418982005;10.788169407409669
21742;SAN MINIATO ;"IP SERVICES S.R.L.";S.S. 67 KM 39+630 FRAZ. S. MINIATO BASSO  56028;43.69292080230581;10.8484947681427
11769;SAN MINIATO-ST. GRANDE COM. FI/PI/LI KM.33+034;SERVIZI & GESTIONI ITALIA S.R.L.;ST. GRANDE COM. FI/PI/LI KM.33+034 S/N 56028;43.70283117427989;10.851077735424042
4233;SUVALGROUP SAS;SUVALGROUP S.A.S. DI VALERIANO VANNI & C.;Statale 67 Tosco Romagnola, Km. 36.060, dir. firenze - 56027;43.68804719254372;10.805627159906635
46570;VIA TOSCO ROMAGNOLA EST - SAN MINIATO;SERVIZI E GESTIONI ZENIT S.R.L. IN SIGLA - ZENIT S.R.L.;VIA TOSCO ROMAGNOLA EST KM 40+600  56028;43.692491878783756;10.860748449073753
5035;Eni - Santa Croce;Eni - Santa Croce;S.P.66 NUOVA FRANCESCA KM. 7:9  56029;43.72643668219894;10.757997035980225
11150;eni Lepori snc - Santa Croce sull'arno;LEPORI S.N.C. DI LEPORI ROBERTO & C.;DEL BOSCO 170 56029;43.717125945740335;10.775405913591385
46663;IP SEA PETROLI ;SEA PETROLI DI ELISA E SERENA BOZZI & C. S.N.C.;VIA PROV.LE NUOVA FRANCESCA BIS SNC 56029;43.73477412395219;10.772690991401646
26461;santacrocese oils;SANTACROCESE OILS S.R.L.;PROV.LE FRANCESCA SUD 134 56029;43.7037749061101;10.766004770994186
19201;AREA SERVICE LA STRANIERA DI NANNETTI SILVIA & C. S.A.S.;AREA SERVICE LA STRANIERA DI NANNETTI SILVIA & C. S.A.S.;VIA FRANCESCA 434 56020;43.68991857009533;10.688364878296852
37775;DECA petrol;DE.CA. PETROL S.R.L.;Via Provinciale Francesca  545 56030;43.68441602706241;10.66079244017601
38151;ENI;BAR CERRI DI VINCENZO PAPA;sp.66 nuova francesca km 1+870  56020;43.690788224409495;10.708199143409729
45979;PV 4146;C.S.A. S.N.C. DI GUERRAZZI ROMEO E FONDELLI MATTEO;S.P. FRANCESCA SUD 160 56020;43.69476822527333;10.705715417861938
6556;SANTA MARIA A MONTE LOC.MONTECALVOLI;SERVIZI & GESTIONI ITALIA srl;LOC.MONTECALVOLI SNC 56020;43.68558659621149;10.670400112867355
55936;EUROPAM - Selvatelle;EUROPAM - Selvatelle;Via volterrana 9 56030;43.56766601891333;10.68901152562978
50460;IP STAZ SERV TERRICCIOLA LOC. LA ROSA. ;SHAMEEM MOHAMMAD;VIA SALAIOLA NORD N. 17 - LOC. LA ROSA 17 56030;43.542404533471185;10.704190012740591
46678;nessuno;CANTINI EDY S.R.L.S.;via volterrana 335 56030;43.54700656549693;10.698264880950887
31110;TERRICCIOLA - SOIANELLA;"IP SERVICES S.R.L.";VIA SOLFERINO 1 56030;43.555047516588104;10.641527580356637
34182;5278;T.D.M. S.R.L.;AURELIA KM 343+310 SN 56019;43.77344977263881;10.334515124559402
49290;Aquila - Vecchiano;Aquila - Vecchiano;VIA AURELIA KM. 344+300 SNC 56019;43.78159449439094;10.329451131286648
52678;CIARDELLI MAURO IMPIANTO ENI;CIARDELLI MAURO IMPIANTO ENI;VIA ARGINE VECCHIO  S.N. 56019, VECCHIANO (PI) 38 56019;43.78344001745231;10.406838940429672
48350;DISTRIBUTORE AVANE;ALA CARBURANTI S.R.L.;VIA VIA PROVINCIALE DI LUNGOMONTE - FRAZ. AVANE - SNC 56019, VECCHIANO (PI) SNC 56019;43.791651084816394;10.403661131858826
40253;geg di morini giovanna;G&G DI MORINI GIOVANNA & C. S.N.C.;Statale 1 Via Aurelia, Km. 345 \\80, dir. viareggio - 56019;43.78727593109879;10.32335378229618
50427;MIGLIARINO NORD;SARNI S.R.L.;A11 FIRENZE-PISA N., Km. 79+000, NORD - 56019;43.79361405520549;10.354822260480669
48297;MIGLIARINO SUD;SARNI S.R.L.;A11 FIRENZE-PISA N., Km. 79.00, FIRENZE - 56019;43.79390747297011;10.35610020160675
3739;MIGLIARINO SUD;S.a.v. sas di Vanni V. & C.;Autostrada A11 FIRENZE-PISA N., Km. 79+000, dir. Est - -;43.7937;10.3559
51720;Q8;AL.PE DI PELLEGRINI ALESSIO E C. S.N.C.;via argine vecchio  311 56019;43.78323406455265;10.379669433135215
5959;VECCHIANO;"IP SERVICES S.R.L.";Via Amedeo SNC 56019;43.78612768180688;10.362364046627022
6888;BEYFIN;ELLESSE DI LENZI SILVIO & C. S.A.S.;VIA FRANCESCA NORD 29/A 56010;43.70381407440523;10.602455735206604
54586;IP 40696;POWER DI DE CRISTOFARO SAVERIO;PROVINCIALE VICARESE KM 6,280 56010;41.819252;12.457696
55274;IP di Frassi Nicola;IP di Frassi Nicola;DEL PONTE 9 56010;43.2582688;10.8225732
34336;San Carlo Vicopisano;SAN CARLO S.R.L.;Via Francesca Nord 23 56010;43.70227252923545;10.597033649682999
11766;VICOPISANO-VIA SARZANESE 28 - LOC. RISAIE;SERVIZI & GESTIONI ITALIA S.R.L.;VIA SARZANESE - LOC. RISAIE 28 56010;43.719927344272186;10.617494881153107
31818;alberto gennai;alberto gennai;68 di Val Cecina, Km. 29+123, volterra  56048;43.399580267772514;10.86864821612835
41015;IP CRISANTE E MONTAGNANI;IP CRISANTE E MONTAGNANI;Statale 439 Sarzanese-Valdera, Km. 6,6, dir. VOLTERRA - 56048;43.45370844644102;10.824115499854088
8841;PALAZZOLO BEATRICE;PALAZZOLO BEATRICE;Statale 68 di Val Cecina, Km. 29,200, dir. VOLTERRA - ;43.362460093331016;10.81280529499054
39751;STAZIONE DI SERVIZIO AGIP DI CAMPANA MASSIMILIANO;CAMPANA MASSIMILIANO;SS 68 KM 37,841  56048;43.39989305556575;10.855405479669571
44006;STAZIONE Q8 di ORAZZINI ANDREA;ORAZZINI ANDREA;68 di Val Cecina, Km. 38+722, cecina-siena - 56048;43.399416409250776;10.860284775463128
10273;eni 34804;eni 34804;PIAZZA BURICCHI E SPINELLI 2 59015;43.814321031020164;11.020081043243408
21605;PV TAMOIL 8095;BETTI STEFANO;via Baccheretana 47 59011;43.83345644531292;11.025055199861526
45073;ADS MONTEMURLO;ALA CARBURANTI S.R.L.;VIA MONTALESE 469 59013, MONTEMURLO (PO) 469 59013;43.92597060520931;11.039652526378631
33381;Aquila ;RICCI E FALTONI S.N.C. DI RICCI MARCO E FALTONI DELIO;Via Enrico Berlinguer  SNC 59013;43.91941146165731;11.036581993103027
49285;ESSO - MONTEMURLO VIA SCARPETTINI 239;PAD MULTIENERGY S.P.A;VIA SCARPETTINI  239 59013;43.91724963409485;11.031172691166006
46820;ESSO MONTEMURLO - LOC. OSTE;PAD MULTIENERGY S.P.A;Loc. Oste - Via Pistoiese 40 ;43.90177929755097;11.031081842088703
28581;MONTEMURLO;G.S.SERVICE S.R.L.;LABRIOLA 175 59013;43.909319293841975;11.05456955730915
55317;VIA PISTOIESE LOC. MAZZONE, 22 - MONTEMURLO;VIA PISTOIESE LOC. MAZZONE, 22 - MONTEMURLO;Via Pistoiese 22  59013;43.901606241361065;11.032052508867585
43281;POGGIO A CAIANO S.S.66 KM 19+050 LOC.POGGETTO;SERVIZI & GESTIONI ITALIA S.R.L.;S.S.66 KM 19+050 LOC.POGGETTO  59016;43.824423901056996;11.044433487770448
55803;;;VIA BOLOGNA 326/Q 59100;43.905823815996506;11.112778186798096
54449;2P CARBURANTI;2P CARBURANTI S.R.L.;VIA VIALE MONTEGRAPPA (ANG. VIA FERRUCCI) 330 59100, PRATO (PO) 330 59100;43.87014449999999;11.1111512
37960;ADS PRATO OVEST;ALA CARBURANTI S.R.L.;VIALE LEONARDO DA VINCI SNC 59100, PRATO (PO) SNC 59100;43.886792267794085;11.029137100044181
22263;Ala;SCARPELLI DARIO;via giulio braga 11 59100;43.846946471827096;11.050799041986465
40983;ALDERIGHI MAURIZIO SNC IMP 14701;ALDERIGHI MAURIZIO S.N.C.;VIA PISTOIESE 833 59100;43.901477289465745;11.030927622753893
6917;BEYFIN;BEYFIN;Viale F.lli Cervi 102/104 59100;43.89912444012438;11.084439396820017
6960;CEM CARBURANTI;2M GAS DI BIAGIOTTI MAURA & C. S.A.S.;FRATELLI CERVI 98/2 59100;43.90165531148317;11.088635623455048
29189;CONAD signo s.r.l.;SIGNO S.R.L.;VIA DI MALISETI 14 59100;43.89782758915325;11.071154990401965
12371;distributore brini s.a.s;distributore brini s.a.s;VIALE MONTEGRAPPA 144 59100;43.87351427470977;11.107710143516556
51756;DISTRIBUTORE PRATO;SERVICE MANAGEMENT S.R.L.;VIA SALVADOR ALLENDE 16 50047;43.87351446848437;11.06132739398792
55117;DISTRIBUTORE STRADALE PRATO TAVOLA;DISTRIBUTORE STRADALE PRATO TAVOLA;Via Giulio Braga 11  59100;43.84695;11.05078
44692;DUE A snc;DUE A snc;VIA ROMA 617/G 59100;43.83097836002373;11.063797734197237
44912;eni;NIHAO CARBURANTI S.N.C. DI PAOLO ZHANG E JAYALATH THEWWAHANDI;VIALE SEDICI APRILE 1992 1200 59100;43.8574780655854;11.05371508804103
42633;ENI;NISHAN SUPERSERVICE DI THEUWA HANDI NISHAN SANJEEWA;VIA MARCO RONCIONI 100 59100;43.87500193348;11.086436209821727
44629;ENI;ALDERIGHI MAURIZIO S.N.C.;VIA CESARE BATTISTI SNC 59100;43.887205000123;11.095216000123
51569;ENI;BERTEI OTTAVIANO;Viale L Da Vinci  17/p 59012;43.88284606510059;11.04373812675476
55226;ENI;ENI;VIALE LEONARDO DA VINCI 17/P 59100;43.8830599;11.0439006
43669;eni di omazi service ;eni di omazi service ;VIA PISTOIESE 486 59100;43.89405135698976;11.068433317791005
52285;Eni Station 14728;Eni Station 14728;NAM DIHN - LATO OVEST 4 59100;43.89496114095974;11.076782345771784
54630;ESSO - PRATO VIALE DELLA REPUBBLICA, 188;PAD MULTIENERGY S.P.A;DELLA REPUBBLICA 188 59100;43.7063077;13.2102724
52623;ESSO - PRATO VIALE MONTEGRAPPA 242;PAD MULTIENERGY S.P.A;MONTEGRAPPA 242 59100;43.6502528;10.6070016
47273;ESSO PRATO - V. BOLOGNA;PAD MULTIENERGY S.P.A;Via Bologna 326/B 59100;43.90556476443277;11.111393568771689
55177;ESSO PRATO VIALE F.LLI CERVI, 12;PAD MULTIENERGY S.P.A;F.LLI CERVI 12 59100;43.901809700000001;11.097614500000001
6814;Flli Galli snc;F.LLI GALLI S.N.C. DI GALLI FRANCESCO E GALLI FILIPPO;V.le xvl Aprile 2575 59100;43.846832342707806;11.04423701763153
16497;Fratelli Magni Prodotti Petroliferi;Fratelli Magni Prodotti Petroliferi;VIA CAVOUR 102 59100;43.88022306793668;11.088535907409664
34290;FUSI MARCO;FUSI MARCO;VIA A MORO 72 59100;43.842038722543336;11.102917045354843
36347;impianto 55857;impianto 55857;VIA MONTEGRAPPA 300 59100;43.866748002475475;11.114343332662429
42938;IMPIANTO ENI 14727;IMPIANTO ENI 14727;VIALE NAM-DINH 3/EST 59100;43.894462468152916;11.076889634132385
41827;ip;QUARANTA MARINA;via filippo strozzi  197/C 59100;43.88940191484057;11.088629562565643
53297;IP DI FOSSI SNC;IP DI FOSSI SNC;VIA VIA FIRENZE LOC. LA MACINE 40 59100, PRATO (PO) 40 59100;43.86847400000001;11.1253605
38453;Italiana Petroli 46016;Italiana Petroli 46016;VIA XVI APRILE SNC 59100;43.84758338625964;11.044126968717137
12130;Niagara Carburanti s.n.c.;NIAGARA CARBURANTI DI CARDINI MARIO E LORENZO E FIASCHI ANTONIO S.N.C.;VIALE BORGO VALSUGANA 190 59100;43.87465392892259;11.115821435287444
8566;OIL E GAS DI NUZZO GIOVANNI;OIL E GAS DI NUZZO GIOVANNI;VIA FRANCESCO FERRUCCI 367/2 59100;43.855899598398295;11.122809852878618
36200;OILFIN s.r.l. PRATO;OILFIN S.R.L.;VIALE LEONARDO DA VINCI 135 59100;43.86169649928905;11.103920862078667
24434;PAOLETTI GABRIELE;PAOLETTI GABRIELE;VIA ROMA 315/F 59100;43.86336521612006;11.083724255819675
21841;PRATO - MORO;ALA CARBURANTI S.R.L.;ALDO MORO 3/5 59100;43.846973166438566;11.091984361410141
47251;PRATO - VIA NAM DIHN LATO NORD;"IP SERVICES S.R.L.";VIA NAM DIHN LATO NORD  59100;43.887411334614406;11.068104822090135
14682;PRATO BARDENA;DRIVE SERVICE S.R.L.;VIALE UNIONE EUROPEA 49 59100;43.894452019834816;11.03051483631134
14687;PRATO CALICINO;DRIVE SERVICE S.R.L.;VIALE UNIONE EUROPEA 50 59100;43.894513870963294;11.029581427574158
41534;PRATO REGGIANA;G.S.SERVICE S.R.L.;VIA SIRIO/ANG.VIA REGGIANA  59100;43.87701710530985;11.06584757566452
32788;PRATO S IPPOLITO;OIL SERVICE S.R.L.;VIA LEONARDO DA VINCI  59100;43.88629962292984;11.028653383255005
6580;PRATO V. LEONARDO DA VINCI 7260;SERVIZI & GESTIONI ITALIA srl;V. LEONARDO DA VINCI 7260 59012;43.88310047697617;11.045444011688232
6590;PRATO V. LILIANA ROSSI ANG V.METAURO;SERVIZI & GESTIONI ITALIA srl;V. LILIANA ROSSI ANG V.METAURO SNC 59100;43.89565879082479;11.087648596958957
6592;PRATO VIA CAVA 245/C TOBBIANA;SERVIZI & GESTIONI ITALIA srl;VIA CAVA - TOBBIANA 245/C 59100;43.869857047683496;11.054153144359589
21659;PRATO VIALE GALILEI, 202;SERVIZI & GESTIONI ITALIA S.R.L.;VIALE GALILEI 202 59100;43.90252354155764;11.109457723942569
6581;PRATO VIALE LEONARDO DA VINCI;SERVIZI & GESTIONI ITALIA srl;VIALE LEONARDO DA VINCI SNC 59100;43.85846888624947;11.109956589688181
11778;PRATO-VIA PISTOIESE 269;SERVIZI & GESTIONI ITALIA S.R.L.;VIA PISTOIESE 269 59100;43.887725132930804;11.08128972351551
49157;PV ENI Via Paronese;ALA CARBURANTI S.R.L.;VIA PARONESE S.N. 59100, PRATO (PO) SNC 59100;43.856570457182414;11.068698167800898
55711;Q8 F.lli PIACQUADIO & C snc;Q8 F.lli PIACQUADIO & C snc;FIRENZE 467 59100;43.8630225;11.1504221
51486;R:M di Mariano Rocco;MARIANO ROCCO;VIALE MONTRGRAPPA 242/1 59100;43.870586601488384;11.110589603044309
13430;RISI CLAUDIO e FIGLI s.n.c.;RISI CLAUDIO e FIGLI s.n.c.;VIA GALCIANESE 93/G 59100, PRATO (PO) 93/G 59100;43.8805624672156;11.071806897483839
20752;saf snc;S.A.F. SNC DI ARESU ADRIANO & C.;VIA PER IOLO 109 59100;43.86528205698194;11.04874849319458
17605;staz di servizio ip vip sas di vitellozzi federico;staz di servizio ip vip sas di vitellozzi federico;via roma 582 c 59100;43.83930514194331;11.068085879087448
19402;stazione di servizio agip 004817;MARANGHI  &  BACARELLI S.N.C. DI S. MARANGHI E S. BACARELLI;viale montegrappa 250 59100;43.86977065218121;11.111278389549284
50187;STAZIONE DI SERVIZIO ALLENDE;MAGIGAS S.P.A.;VIALE S. ALLENDE 7 59100;43.87565429386693;11.06243647238732
48595;stazione di servizio ENI 4737;FALUGIANI SIMONA;VIALE DELLA REPUBBLICA 231 59100;43.86228851966348;11.109187890174054
15669;STAZIONE SERVIZIO ENI - BERTINI GIORGIO & C. SNC;BERTINI GIORGIO & C. S.N.C. DI STEFANO BERTINI;VIALE FRATELLI CERVI 75/77 59100;43.90148987941617;11.096240356564522
32334;Total Erg spa;BIAGIOLI E CECCONI - STAZIONI DI SERVIZIO CARBURANTI DI CECCONI GIANLUCA E C. S.A.S.;VIALE GALILEO GALILEI 204 59100;43.90384009260018;11.109545454382896
21507;TotalErg CGS;C.G.S. S.N.C. DI AMMANNATI CLAUDIO, AMMANNATI GABRIELE E VANNUCCI STEFANO;VIA GUGLIELMO MARCONI 11/1 59100;43.86103712518126;11.120179797067294
29725;VIA FABIO FILZI 196 - PRATO;SERVIZI & GESTIONI ITALIA S.R.L.;VIA FABIO FILZI 196 59100;43.890301889186716;11.077874407409695
7443;ITALIANA PETROLI;CIARDI GIORDANO DI SEGAT GEMMA & C. S.A.S.;325 di Val di Setta e Val di Bisenzio, Km. 67+146, DX - ;43.96392982638841;11.124569177627563
40846;4437;T.D.M. S.R.L.;S.S 325 KM. 55 SNC 59024;44.051583819924105;11.156473383307457
32353;STAZIONE DI SERVIZIO CARBURANTI CALAMAI.;STAZIONE DI SERVIZIO CARBURANTI CALAMAI DI CALAMAI CLAUDIO & C. S.A.S.;VIA BISENZIO 273 59024;44.047429410706954;11.152989193797112
48220;bartolotti;BARTOLOTTI GIUSEPPE;12 dell'Abetone e del Brennero, Km. 12, pistoia - 51021;44.14478572433148;10.663447248655821
45439;AGLIANA SAN MICHELE;DISTRIBUTORE ENI AGLIANA VIA G. GALILEI;VIALE GALILEO GALILEI SNC 51031, AGLIANA (PT) SNC 51031;43.896276601119645;11.00630521774292
48352;DISTRIBUTORE AGLIANA C. MARX;ALA CARBURANTI S.R.L.;VIA VIA CARLO MARX SNC 51031, AGLIANA (PT) NCM 51031;43.88699733967344;11.003391742706293
21843;DISTRIBUTORE ALA AGLIANA VIA LAVAGNINI;DISTRIBUTORE ALA AGLIANA VIA LAVAGNINI;VIA SPARTACO LAVAGNINI SNC 51031, AGLIANA (PT) NCM 51031;43.90484959081523;11.012354781166778
44717;DISTRIBUTORE ESSO AGLIANA SETTOLA;ALA CARBURANTI S.R.L.;NUOVA PRATESE SNC 51031;43.906797777763934;10.993752479553222
54110;1461;T.D.M. S.R.L.;PISTOIESE 142 51011;43.8833545;10.7488697
41603;DSM;DSM;BORGO A BUGGIANO VIA LUCCHESE  102 51011;43.88000949113044;10.719725839913849
7008;LORENZI IVO DI LORENZI DANIELE & C. s.a.s.;LORENZI IVO DI LORENZI DANIELE & C. S.A.S.;VIA LUCCHESE 39 51011;43.87991986322313;10.718124657869339
15843;VALMETANO SRL;VALMETANO S.R.L.;VIA PONTE BUGGIANESE 150/A 51011;43.86068428137385;10.741697922348976
17284;4Quattropetroli;DONATI STEFANO & MARCO SNC;VIA ROMANA 8, 51013 - -;43.84289486376971;10.714007739672866
50384;CHIESINA UZZANESE;SIRTAM S.P.A.;VIA DELLE REGIONI  51013;43.83394402012685;10.720172310709906
18328;GAGLIARDI ROBERTO;GAGLIARDI ROBERTO;VIA LIVORNESE DI SOTTO 78 51013;43.82513514711266;10.724518029430328
32507;MAIONCHI NELLO & FIGLI S.a.s.;MAIONCHI NELLO & FIGLI S.a.s.;Via Prov.le Romana snc 51013;43.85066657469077;10.70916473865509
25053;Puccinelli Roberto;Puccinelli Roberto;VITTORIO VENETO 48 51013;43.83905133706349;10.723994661376992
17634;claudio rosati e simone sichi snc;CLAUDIO ROSATI E SIMONE SICHI S.N.C.;VIA BRENNERO 53/55 51024;44.101512776510646;10.746742887696882
48351;DISTRIBUTORE CUTIGLIANO;DISTRIBUTORE CUTIGLIANO;VIA BRENNERO PRIMO TRATTO 76 51024, CUTIGLIANO (PT) 76/A 51024;44.10076400143843;10.748732089996333
16744;4 quattropetroli;CALUGI CLAUDIA;VIA CERBAIA 428 51035;43.80361994974964;10.852542892098427
46846;ADS LAMPORECCHIO;ALA CARBURANTI S.R.L.;VIA FIRENZE 171 51035, LAMPORECCHIO (PT) 171 51035;43.806531324688194;10.885963290929794
36924;totalerg lamporecchio;G. & G. S.A.S. DI GABRIELE VARIGNANI;via verdi 69 51035;43.81378007093612;10.893055647611618
46207;VIA LEONARDO DA VINCI - LAMPORECCHIO;SERVIZI E GESTIONI ZENIT S.R.L. IN SIGLA - ZENIT S.R.L.;VIA LEONARDO DA VINCI  51035;43.808941000123;10.895069000123
31346;4 PETROLI;G. & G. S.A.S. DI GABRIELE VARIGNANI;VIA GUGLIELMO MARCONI 963 51036;43.818396363672605;10.88615844047547
50382;LARCIANO;SIRTAM S.P.A.;SR FRANCESCA SUD  51036;43.80402755536763;10.847786258421568
51895;montagnana;ARCANGIOLI IVO;VIA GIAMPIERONE-FORRA DELLA DOCCIA  51010;43.95126688060275;10.829168781638145
55934;SUPERGAS;SUPERGAS;VIA MAMMIANESE 403 51010;43.95808;10.76771
11225;4 QUATTROPETROLI;MARCHETTI LUIGI;VIA ANTONIO GRAMSCI 4 51010;43.869921824483164;10.7555719067459
47472;8480;8480;VIA LUCCHESE 27 51016;43.88568293223449;10.76274452392519
43773;MASSA E COZZILE;STAR SERVICE S.R.L.;VIA PINO  51010;43.85971956180349;10.761667066384234
50865;RE-FUEL2 MASSA E COZZILE;RE-FUEL MASSA E COZZILE;VIA ANTONIO GRAMSCI 125 51010;43.871642977250076;10.764106860118886
51864;55416 – MONSUMMANO TERME;PV 55416 – MONSUMMANO TERME;VIA DELLA COSTITUZIONE, 138  51015;43.866773025990554;10.810571299794889
45443;ACI - Monsummano T.me (PT);ACI - Monsummano T.me (PT);Via della Repubblica 167 51015;43.865297527342356;10.815675258636475
40040;Eni;Eni;FRANCESCA VIOLI 463 51015;43.85037043730513;10.82452118396759
48184;MONSUMMANO B.FUEL;B.FUEL MONSUMMANO; S.R. 436 VARIANTE FRANCESCA SNC 51015;43.845692211131464;10.81419944763183
28697;MONSUMMANO CINTOLESE;SIRTAM S.R.L.;VIA FRANCESCA SUD  51015;43.83958837226079;10.827979892492294
23293;MONSUMMANO P.TERZO;SIRTAM S.R.L.;S.P. PORRIONE DEL TERZO  51015;43.85984397656378;10.801725089550018
28669;MONSUMMANO TERME;G.S.SERVICE S.R.L.;S.P. FRANCESCA SUD  52015;43.86252072674141;10.818273648619652
41132;AQUILA 04756;AQUILA 04756;VIA IV NOVEMBRE 74 51037;43.93444415588477;11.007544081020324
32370;MONTALE;STAR SERVICE S.R.L.;VIA GARIBALDI MONTALE  51037;43.91764671173574;11.0124072432518
35207;Stazione di Servizio Giulia;Stazione di Servizio Giulia;VIA BERLINGUER SNC 51037;43.93054939357316;11.009250953793526
55246;ESSO MONTECATINI TERME C.SO MATTEOTTI, 200;PAD MULTIENERGY S.P.A;MATTEOTTI 200 51016;43.880279000000002;10.778724
13313;Garage Del Rosso Nino;GARAGE DEL ROSSO DI DEL ROSSO NINO;CORSO GIACOMO MATTEOTTI 178 51016;43.88050113839845;10.777706451160384
34014;IP;TOTALERG DI ROMANI ALESSANDRA;PISTOIESE 36 51016;43.87898573174195;10.785524093254105
25071;MONTECATINI TERME - MATTEOTTI;"IP SERVICES S.R.L.";CORSO MATTEOTTI  51016;43.880271000372275;10.779962449073764
22330;MONTECATINI TERME E TET VIA DEL SALSERO 184;SERVIZI & GESTIONI ITALIA S.R.L.;VIA DEL SALSERO 184 51016;43.87446373153224;10.772646431282737
47482;QUATTRO PETROLI FULL SERVICE ;QUATTRO PETROLI;VIA CAMPORCIONI 22 51016;43.8624675220994;10.769055841427049
13618;STAZIONE CARBURANTI PELLEGRINI WALTER;STAZIONE CARBURANTI PELLEGRINI WALTER;VIA UGO FOSCOLO 40 51016;43.878047267930896;10.781337906745875
10451;stefanelli e cardelli snc;STEFANELLI & CARDELLI S.N.C.;CORSO C.MATTEOTTI 200 51016;43.880394998410644;10.778718635581981
14534;Cuomo Anna;CUOMO ANNA;LUCCHESE 217 51017;43.88892579908467;10.65945054232789
34617;NEWSTOP di Rossi Simona;NEW STOP DI ROSSI SIMONA;via mammianese 36 51017;43.9110173216354;10.690917670726776
22525;PESCIA;SIRTAM S.P.A.;VECCHIA FRANCESCA NCM 51017;43.87830358528659;10.692182332277298
52647;RIFORNIMENTO PESCIATINO;RIFORNIMENTO PESCIATINO;AMENDOLA 66 51017;44.4071936;8.9423872
29724;S.P. ROMANA 54 A - PESCIA;SERVIZI & GESTIONI ITALIA S.R.L.;S.P. ROMANA 54 A 51017;43.87054478036645;10.695834390490745
29202;Staz. Serv. IP di Rosi Massimo;ROSI MASSIMO;VIA ZEI 15 51017;43.87839542314507;10.688739241802977
12104;STAZIONE DI SERVIZIO 4 PETROLI ;ARESCO ALESSIO;VIA FIORENTINA 36 51017;43.89664774859786;10.693090739286845
34516;05350;05350;VIA MEZZOMIGLIO 1 51018;43.87842406772492;10.787792770500118
5592;BEYFIN;F.LLI RUOTOLO S.N.C. DI RUOTOLO CARMINE E GIUSEPPE;VIA AMENDOLA 60, 51018 - -;43.88883064372923;10.814468264579773
10890;quattropetroli;ORSI SILVIA;VIA GUGLIELMO MARCONI 212/B 51018;43.861436128308206;10.786589288360574
45442;ACI - Pistoia (PT);ACI - Pistoia (PT);Via Bonellina 17/19 51100;43.92326768547303;10.918586254119873
45072;ADS PISTOIA GUICCIARDINI;ALA CARBURANTI S.R.L.;VIA GUICCIARDINI 1 51100, PISTOIA (PT) 1 51100;43.9224107669142;10.921048521995544
30460;ADS PISTOIA LA FORTEZZA;ADS PISTOIA LA FORTEZZA;VIA VARIANTE LUCCHESE snc 51100, PISTOIA (PT) NCM 51100;43.91858237930583;10.886490941047668
49503;Area di Servizio - IP;Area di Servizio - IP;Viale Adua 240  51100;43.943141;10.9010304
50680;athos service bonti;stazione di servizio esso;ADUA 465 51100;43.95300183498901;10.90066868688225
32791;BOTTEGONE;STAR SERVICE S.R.L.;VIA FIORENTINA  51100;43.889238893455804;10.962990894913673
53433;CA.GI.P. SNC;CA.GI.P. SNC;VIA MACALLè 26 51100;40.8748032;14.1524992
13786;CAPECCHI MASSIMILIANO ENI;CAPECCHI MASSIMILIANO;VIA RACCORDO AUTOSTRADALE, 51100 - -;43.92164640187811;10.91565191745758
48349;DISTRIBUTORE PISTOIA CANAPALE;ALA CARBURANTI S.R.L.;STRADA STRADA PROVINCIALE 47 SNC 51100, PISTOIA (PT) SNC 51100;43.91670539797134;10.938181877136225
51070;DISTRIBUTORE PISTOIA GUICC.;ALA CARBURANTI S.R.L.;VIA GUICCIARDINI 2 51100, PISTOIA (PT) 2 51100;43.92203307338393;10.920927226543421
48353;DISTRIBUTORE PISTOIA NESPOLO;ALA CARBURANTI S.R.L.;VIA TOSCANA 110 51100, PISTOIA (PT) 110 51100;43.91852929728274;10.949420332908625
55995;DISTRIBUTORE PISTOIA VIA TOSCANA 69;DISTRIBUTORE PISTOIA VIA TOSCANA 69;Via Toscana 69 51100;43.92233649599976;10.93738317489624
42037;ESSO ;ESSO  ;VIA B. SESTINI 6 51100;43.940297408880014;10.926992882838022
13364;IP PUCCIANTI FABRIZIO;IP PUCCIANTI FABRIZIO;VIALE P. ANTONELLI 506 51100;43.952680358565736;10.940770134329796
37879;IP via bonellina ;IP - via bonellina ;Via Bonellina 38/a 51100;43.9177329;10.9183987
40295;METANO AUTO;4 GAS SOCIETA' A RESPONSABILITA' LIMITATA SEMPLIFICATA;VIA GORA E BARBATOLE 260 51100;43.94460182129231;10.886554072422086
5285;Pistoia - Raccordo Abetone;Pistoia - Raccordo Abetone;STRADA STATALE 64 E 66 CON E74 AL KM0,555   51100;43.94996290335519;10.89699582431058
31059;PISTOIA - RACCORDO AUTOSTRADA;"IP SERVICES S.R.L.";RACC. AUTOST. FI-MARE-PT  51100;43.921282612203136;10.91535900859833
28642;PISTOIA NESPOLO;G.S.SERVICE S.R.L.;S.P. PRATESE  51100;43.921658148860196;10.944004207849503
26055;PISTOIA PALAZZETTO;G.S.SERVICE S.R.L.;Via fermi 91 51100;43.93133944416669;10.939298272132874
40213;PISTOIA SPEDALETTO;SIRTAM S.P.A.;Statale 64 Porrettana, Km. 1+100, dir. BOLOGNA - 51100;44.03899772405693;10.949749499559402
50379;PISTOIA VIA CHIRICI;SIRTAM S.P.A.;VIA G. CHIRICI 291 51100;43.938358295329735;10.936408373295281
8327;PISTOIA VIA E. FERMI 2/B;SERVIZI & GESTIONI ITALIA S.R.L.;VIA E. FERMI 2/B 51100;43.93216372321065;10.92462111971281
14639;PISTOIA VIA FERMI;PISTOIA VIA FERMI;VIA ENRICO FERMI 91 51100;43.93091138867068;10.947200059890747
14651;PISTOIA VIA SALVO D'ACQUISTO;G.S.SERVICE S.R.L.;VIA SALVO D'ACQUISTO 24 51100;43.93373232539221;10.89644193649292
14647;PISTOIA VIA TASSELLI;G.S.SERVICE S.R.L.;VIA MARIA TASSELLI 187 233 51100;43.94385213606133;10.92263638973236
25764;PV 5348;PV 5348;VIA DALMAZIA 242 51100;43.94318546670196;10.907945930957794
29791;PV PISTOIA CAPOSTRADA;PV PISTOIA CAPOSTRADA;VIA VIA MODENESE 289 51100, PISTOIA (PT) 289 51100;43.963945337100746;10.897462478504167
38122;Raccordo Pistoia Ovest;"IP SERVICES S.R.L.";RACCORDO PISTOIA OVEST KM. 0-824 snc 51100;43.94779174464979;10.895642638206482
50936;RE-FUEL1 PISTOIA;RE-FUEL PISTOIA;VIALE ADUA 91 51100;43.93300710836821;10.900343070692319
52132;SIMONE FORASASSI;STAZIONE DI SERVIZIO Q8 DI FORASASSI SIMONE;VIA TOSCANA 20 51100;43.923468217706436;10.930468440055847
11440;SOMMARIVA;SOMMARIVA;VIA MONTALBANO 251 51100, PISTOIA (PT) 251-255 51100;43.90296266666561;10.920669037850985
26281;STAZIONE DI SERVIZIO IP;STAZIONE DI SERVIZIO IP;VIA VIA TOSCANA 69 51100, PISTOIA (PT) 69 51100;43.92226462763505;10.937353670597076
37752;stazione di servizio Le Panche ;STAZIONE DI SERVIZIO LE PANCHE DI NANNINI ANDREA;via modenese 754 51100;44.03210484518651;10.874502798672438
50652;stazione di servizio q8;stazione di servizio q8;DALMAZIA 344 51100;43.948989688601955;10.90459747965732
4962;UGGIOSI ANDREA;UGGIOSI ANDREA;Statale 66 Pistoiese, Km. 2,5, dir. FIRENZE - 51100;43.90922488298615;10.940432846546173
27970;Area di servizio IP Baldasseroni Alessandro;BALDASSERONI ALESSANDRO;VIA LIVORNESE 32 51019;43.851748689193386;10.727610982803299
8454;Area servizio Q8 Garenni;Area servizio Q8 Garenni;Via Buggianese 185 51019;43.84926050000001;10.7462539
21733;PONTE BUGGIANESE;"IP SERVICES S.R.L.";Via Nuova Camporcioni   51019;43.8556757351077;10.756197273731232
54314;2P CARBURANTI;2P CARBURANTI;STATALE FIORENTINA 113 51039;43.88051841621892;10.97409725189209
45440;ACI - Quarrata (PT);ACI - Quarrata (PT);Via Marco Polo 101 51039;43.85358724990407;10.980344116687775
35708;ADS QUARRATA;ALA CARBURANTI S.R.L.;VIA FALCONE E BORSELLINO 120 51039, QUARRATA (PT) 120 51039;43.862750491046015;11.005019564133704
42460;BARZAGLI PATRIK E C. SNC;BARZAGLI  PATRIK E C. S.N.C.;VIALE EUROPA 346/A 51039;43.86267030607757;10.943744635581993
34442;DISTRIBUTORE VALENZATICO;ALA CARBURANTI S.R.L.;VIA VECCHIA FIORENTINA SNC 51039, QUARRATA (PT) SNC 51039;43.86765527388261;10.965132824996317
48814;IP;IP;66 Pistoiese, Km. 22, FIRENZE PISTOIA  51039;43.845318607158426;11.014428271163979
34443;PV QUARRATA ;ALA CARBURANTI S.R.L.;VIA FALCONE E BORSELLINO 125 51039, QUARRATA (PT) 125 51039;43.86578396361353;11.006990759797872
11436;SOMMARIVA;SOMMARIVA;VIA MONTALBANO SNC 51039, QUARRATA (PT) 388 51039;43.86065381768657;10.986513619643347
42648;totalerg;SILITALY DI MARRACCINI SILIANA & C. S.A.S.;strada statale 116 51039;43.87909613690681;10.97533405903323
32597;SAMBUCA PISTOIESE;SIRTAM S.P.A.;Statale 64 Porrettana, Km. 26+640, dir. BOLOGNA - 51020;44.09675594271834;10.99413201212883
29023;ENI San Marcello Pistoiese;ENI San Marcello Pistoiese;DEL GRANDUCA 125 51028;44.0566697109468;10.779395548708521
44577;QUATTROPETROLI GAVINANA;QUATTROPETROLI GAVINANA;VIA RIO PECIANO 1210 51028;44.052187000123;10.825659000123
27068;SAN MARCELLO P.SE;SIRTAM S.R.L.;Statale 633 Mammianese-Marlianese, Km. 0+140, dir. ABETONE - 51028;44.05629543592416;10.771493911743164
6575;SAN MARCELLO PISTOIESE PIANA 185 LOC.PONTEPETRI;SERVIZI & GESTIONI ITALIA srl;VIA PIANA LOC.PONTEPETRI 185 51028;44.0377870617189;10.88036419405671
49271;DISTRIBUTORE SERRAVALLE P. SE;ALA CARBURANTI S.R.L.;VIA S.S.435 LUCCHESE KM.34 + 0,65 SNC 51034, SERRAVALLE PISTOIESE (PT) SNC 51034;43.908143530281826;10.844017565250391
3554;SERRAVALLE NORD;Nuova Sidap SRL;Autostrada A11 FIRENZE-PISA N., Km. 35+500, dir. Ovest - 51030;43.891260827593925;10.824363965606722
50907;SERRAVALLE SUD;CHECCHI S.A.S. DI CHECCHI DANIELE E C.;A11 FIRENZE-PISA N., Km. 35,5, firenze - 51034;43.89149160601557;10.8261527121067
44218;STAZIONE DI SERVIZIO IP -GEAT SERVICE-;STAZIONE DI SERVIZIO IP -GEAT SERVICE-;Via Montalbano 137 51034;43.877179215853566;10.91531953372953
52027;R1 SAS;R1 DI CIERVO GIOVANNI SOCIETA' IN ACCOMANDITA SEMPLICE;VIA PROVINCIALE LUCCHESE 128 51013;43.88558916439158;10.6988103521517
15944;distributore esso di raffi e Mammolotti snc;RAFFI GIORGIO E MAMMOLOTTI SERGIO SNC;PIAZZA DELLA REPUBBLICA 5 53021;42.87801955924549;11.678881568157522
55933;SUPERGAS;SUPERGAS;VIA TRENTO 18 53021;42.88327;11.67202
36937;ASCIANO - MARTIRI DELLA LIBERTA';"IP SERVICES S.R.L.";VIA MARTIRI DELLA LIBERTA'  53041;43.23594576055877;11.574034559524534
12197;ANDREA&ANDREA snc;ANDREA&ANDREA S.N.C. DI BARELLINI E FABBRI;VIA CASSIA SUD KM. 201  53022;43.14074695845414;11.48215726017952
50042;BUONCONVENTO;BUONCONVENTO;SR 2 km 199 dir. Sud   53022;43.12034973468589;11.483103337152956
11832;BUONCONVENTO-VIA CASSIA SS. 2 n. 3/R;SERVIZI & GESTIONI ITALIA S.R.L.;VIA CASSIA S.S. N. 2 3/R 53022;43.13674564235118;11.483537927269936
42440;staz. di servizio di Canocchi stefano;STAZIONE DI SERVIZIO DI CANOCCHI STEFANO;strada provinciale 27 0+200 53031;43.341152203888775;11.049436479762335
13038;stazione di servizio F.lli Funaioli snc;F.LLI FUNAIOLI DI FUNAIOLI MASSIMO E PAOLO S.N.C.;LOCALITA' CAPANNINO DELLA SUVERA  53031;43.307986905821515;11.112855685981003
23367;distributore petri giuseppe;DISTRIBUTORE PETRI GIUSEPPE;strada provinciale 51, fonte al coscio 0  53011;43.46013167659828;11.289621016965839
50522;CASTELNUOVO BERARDENGA IL GRILLO;SIRTAM S.P.A.;326 di Rapolano, Km. 19+108, SIENA - 53019;43.32409361419328;11.563494406354389
50521;CASTELNUOVO BERARDENGA SAN PIETRO;SIRTAM S.P.A.;326 di Rapolano, Km. 19+248, AREZZO - 53019;43.32279378347731;11.565232783232554
41101;Distributore IP A. Casini Srlu;Distributore IP A. Casini Srlu;STRADA S.P. DEL CHIANTINO KM. 1+200 LOCALITA' CASANUOVA SNC 53019, CASTELNUOVO BERARDENGA (SI) SNC 53019;43.329021286652626;11.5071339905262
12393;privato;HOPPERT NORMA ELIZABETH;delle fonti 47 - -;43.35181625362258;11.415641319887413
46313;RACC. SIENA BETOLLE KM 12+600 - CASTELNUOVO BERARDENGA;SERVIZI E GESTIONI ZENIT S.R.L. IN SIGLA - ZENIT S.R.L.;RACC. SIENA BETOLLE KM 12+600  53019;43.320183639903114;11.487563573251578
31439;Beyfin la Bisarca;DISTRIBUTORE LA BISARCA S.N.C. DI MASCELLONI ANDREA E MELONI LUCA;LA BISARCA SNC 53023;42.93969271976479;11.711867438074933
40964;ARTICOLO 80 DI BICARINI MARCO;ARTICOLO 80 DI BICARINI MARCO;VIA R. CACIOLI 48/50/52 53040;42.96690446560812;11.905009283432378
9371;ICM - Le Piazze ;I.C.M. SOCIETA' IN NOME COLLETTIVO DI BRUNO, CRISTIANO E FABRIZIO MAGGI;VIA DEL TAMBURINO 179 53040;42.90536245636635;11.926361918449402
29595;AGIP;AGIP;VIA DANTE 58 53042;43.05827651738734;11.827008450401308
29399;CHIANCIANO TERME - LIBERTA';"IP SERVICES S.R.L.";VIALE DELLA LIBERTA'  25 53042;43.052090200102704;11.821621457672109
11833;CHIANCIANO TERME-VIA G.BACCELLI SS. 146;SERVIZI & GESTIONI ITALIA S.R.L.;VIA G.BACCELLI SS. 146 S/N 53042;43.036867803523855;11.824472174048424
46745;Esso - R.C.R.;R.C.R. DI RONCELLA LUCA & C. SNC;Loc. Maglianella 33 53042;43.03534711561941;11.840355137512688
11835;CHIUSDINO-SS 73 KM 48+135 VIA MADONNINO;SERVIZI & GESTIONI ITALIA S.R.L.;VIA MADONNINO S/N 53012;43.16927741514732;11.157403439283371
6576;CHIUSI LOC. QUERCE AL PINO;SERVIZI & GESTIONI ITALIA srl;LOC. QUERCE AL PINO SNC 53043;43.01630891051154;11.907448971827762
32098;ENERPETROLI - PV CHIUSI - SI;ENERPETROLI S.R.L.;LOC. MACCIANO S.S. 146 KM. 8,350  53043;43.024242083967124;11.889925450086594
38493;ENI;ENI;STRADA STATALE 146 DI CHIANCIANO 118 53043;43.01013200786764;11.948649063706398
9363;ICM - Chiusi;I.C.M. SOCIETA' IN NOME COLLETTIVO DI BRUNO, CRISTIANO E FABRIZIO MAGGI;VIA DI FONDOVALLE  53043;42.98694698894054;11.955227851867676
14183;IP;EREDI FILIPPESCHI SIRIA S.N.C. DI POSSIERI VINICIO & C.;Statale 326 di Rapolano, Km. 51, dir. CHIUSI - 53043;43.05541512515824;11.917730569839478
13545;L'OASI DI NAPPO;L'OASI DI NAPPO S.R.L.;VIA MAZZINI 168 53043;42.9917560898685;11.952850727508576
37962;ADS COLLE LELLERE;ALA CARBURANTI S.R.L.;DELLE LELLERE SNC 53034;43.41200921372071;11.11218685550648
52300;Autosoccorso Valdelsa;Autosoccorso Valdelsa;Via fratelli bandiera 129/d 53034;43.397897683075264;11.13256699260777
48903;CM servizi per automobili;C. M. DI CALO' JOSE' EDUARDO E C. S.A.S.;LOCALITA' CAPPUCCINI SNC 53034;43.41888924108806;11.140579839881148
25345;COLLE DI VAL D'ELSA;"IP SERVICES S.R.L.";VIA GRAMSCI 57/A 53034;43.42638344220368;11.126247696924224
4377;COLLE VAL D'ELSA;COLLE VAL D'ELSA;LOC. PONTE DELL'ARMI 13/D 53034;43.43488741265494;11.142456829547882
32613;Distributore carburanti Canestrelli Petroli - Colle Val D'Elsa;Distributore carburanti Canestrelli Petroli - Colle Val D'Elsa;VIA S.P. 5 COLLIGIANA - LOC. BELVEDERE - KM. 5+040 - 53034, COLLE DI VAL D'ELSA (SI) KM 5+040 53034;43.408165137218404;11.16579346665958
44164;Distributore ENI;DE BONIS BENITO;via volterrana 13 c 53034;43.42184147423536;11.109052002429962
54230;ENI VIA VOLTERRANA;ENI VIA VOLTERRANA;Via Volterrana 13  53034;43.42173822485942;11.109494953683473
33825;LE GRAZIE;ALA CARBURANTI S.R.L.;VIA VOLTERRANA 46 53034, COLLE DI VAL D'ELSA (SI) 46 53034;43.419691205505686;11.09975944155849
7477;S.A.M. Colle;S.A.M. Colle;STRADA COMUNALE DI SELVAMAGGIO SNC 53034;43.40647596134538;11.141216307878494
55167;SHELL COLLE VAL D'ELSA LOC. CAPPUCCINI;ESSO COLLE VAL D'ELSA LOC. CAPPUCCINI;CAPPUCCINI 00 53034;43.418789599999997;11.140615199999999
10762;IP;totalerg;s.p 408 km 25  53013;43.463425441844436;11.431016325950623
41923;BEYFIN di Ceccarini Leonardo;BEYFIN  di Ceccarini Leonardo;via traversa dei monti 11 53024;43.05232491495808;11.504214406013489
36229;ENI;GENERALI MARCO E C. S.A.S.;CASSIA SNC 53024;43.07681316290833;11.546536583369516
27366;IES/ ITALIANA ENERGIA E SERVIZI;DUE EMME S.A.S. DI MEGALLI LUCIA E C.;LOCALITA' IL PINO  53024;43.05237371829216;11.504190266132355
38364;3511;T.D.M. S.R.L.;PER PIENZA 1/B 53045;43.08697855849505;11.774841248989105
49739;3817;T.D.M. S.R.L.;CASERTA 17 53045;43.131036906363185;11.85645903680534
9365;ICM - Tre Berte;I.C.M. SOCIETA' IN NOME COLLETTIVO DI BRUNO, CRISTIANO E FABRIZIO MAGGI; SS 326 EST LOCALITA' TRE BERTE   53045;43.099709892293916;11.888601779937744
10781;la poliziana petroli snc;la poliziana petroli snc;viale calamandrei 44/a 53045;43.10937998980208;11.788759231567383
3489;MONTEPULCIANO EST;giove petroli sas;Autostrada A1 MILANO-NAPOLI, Km. 395+000, dir. Nord - 53045;43.136753376473095;11.865132186508163
44896;MONTEPULCIANO OVEST;Gestioni Toscane srl;A1 MILANO-NAPOLI, Km. 395+000, Sud - 53045;43.13498916117313;11.864437758922577
21667;NI010436;CORO S.R.L.;Strada Statale 146 sud  53045;43.066219738887206;11.810511946678162
48348;PETROL TRANS;PETROL TRANS;VIA S. P. 326 EST - FRAZIONE ACQUAVIVA 0 53045, MONTEPULCIANO (SI) SNC 53045;43.111838976285796;11.87056986760417
35549;Piccini Paolo s.p.a.;Piccini Paolo s.p.a.;via Provinciale, loc. Nottola 3 53045;43.120511402881775;11.821959849070708
24112;BADESSE;DRIVE SERVICE SRL;BADESSE S.P. DI BASCIANO  53035;43.379494352555994;11.281494498252869
4077;MONTERIGGIONI;DRIVE SERVICE S.R.L.;Statale 674 Tangenziale Ovest di Siena, Km. 1+047, dir. FIRENZE - 53035;43.3492627904654;11.302136778831482
31159;Petrolzeta;petrolzeta;LOCALITA' ABBADIA A ISOLA null, 53035  53035;43.38764034637785;11.190427315625015
22959;riccardo.bartoli;TAMOIL 8096;VIA ROMA 547 53016;43.22755328602454;11.423853355819688
51828;SERVIZI PETROLIFERI DI MOHAMMED HAMDI E C. S.A.S.;SERVIZI PETROLIFERI DI MOHAMMED HAMDI E C. S.A.S.;SIENA 194 53014;43.23363689597476;11.420503236507843
49962;Distributore ALA Casciano di Murlo;ALA CARBURANTI S.R.L.;VIA LOC. CASCIANO - STRADA DI FONTAZZI 2 53016, MURLO (SI) 2 53016;43.16897263370243;11.322194337844849
53023;IL DOCCIO;IL DOCCIO;223 (E78) KM 49+703 10 53016;43.15272;11.28913
18991;FERRAZZANI SRL;FERRAZZANI SRL;VIA GIARDINI DEL MARCHESE 40 53025;42.846195792413646;11.690775454044342
7727;Eni Station Pienza;Eni Station Pienza;VIA SAN GREGORIO SNC 53026;43.079504878616156;11.677262485027313
43697;54368;GESTIONI INNOVATIVE ITALIA S.R.L.;SP 1 S.Gimignano Le Lame 53036 53036;43.47676791953129;11.130452588954995
37114;C.R. SERVICE S.R.L. SOCIETA' SEMPLIFICATA CON UNICO SOCIO \t;C.R. SERVICE S.R.L. SOCIETA' SEMPLIFICATA CON UNICO SOCIO;LOCALITA' MOCARELLO SNC 53036;43.47353543714671;11.154947835581993
19503;DISTRIBUTORE ESSO DI BARLETTA DOMENICO;DISTRIBUTORE ESSO DI BARLETTA DOMENICO;LOC. CASTIGLIONI BASSO 53036  ;43.43165658359398;11.13612949848175
50525;DROVE EST;SIRTAM S.P.A.;RA03 RACCORDO AUTOSTRADALE SIENA-FIRENZE, Km. 26+490, FIRENZE - 53036;43.48887007790509;11.169916734697901
3645;DROVE OVEST;DRIVE SERVICE S.R.L.;Autostrada RA03 RACCORDO AUTOSTRADALE SIENA-FIRENZE, Km. 106, dir. Ovest - ;43.48826829480792;11.164984703063965
54426;Eni Poggibonsi;Eni Poggibonsi;Viale Guglielmo Marconi 40 53036;43.473493140837796;11.147035389232629
51745;ESSO - POGGIBONSI VIA DI SALCETO;PAD MULTIENERGY S.P.A;VIA DI SALCETO  53036;43.46869481120377;11.153367929689812
48897;IP ;BULUVALA S.N.C. DI BULUSHI J. & C.;via Campania 19 53036;43.47248330692245;11.121982246228148
49491;IP;FG DI FEDERICO GALLINA;VIA GALVANI 1 53036;43.47594889041758;11.14267250872528
44409;Officina 01;OFFICINA 01 SRLS;VIALE MARCONI 58 53036;43.473295000123;11.147036000123
53588;POGGIBONSI;POGGIBONSI;S.P. 1 PER S. GIMIGNANO LOC. LE LAME SNC 53036;43.4763434;11.1276665
13144;SD DI SALVINI FIORENZO & DRAGONI MASSIMO SNC;SD DI SALVINI FIORENZO & DRAGONI MASSIMO S.N.C.;VIA SAN GIMIGNANO 73 53036;43.46877758724944;11.135771931687486
32429;STAGGIA SENESE;DRIVE SERVICE SRL;SR 2 CASSIA  53036;43.42527023223125;11.179748252034187
47467;STAZIONE DI SERVIZIO ENI ROSSI FILIPPO;ROSSI FILIPPO;SENESE 62 53036;43.46457768048169;11.151920271163943
38818;stazione esso consorzio agrario siena;CONSORZIO AGRARIO DI SIENA SOCIETA'  COOPERATIVA;VIA BORGACCIO  53036;43.47501819573875;11.148417368531227
12486;Agip;IOZZELLI GIOVANNI;Loc. Villa di Sotto  53017;43.48958843569855;11.388164609670639
8283;BP BACHIORRINI PETROLI;BP BACHIORRINI PETROLI;VAL DI PAGLIA KM 149+160 149+220 53040;42.84223197612773;11.753672947515838
49138;G.MASCI;MASCI GIANNI;DELL'ORCIA 24 53040;42.97942831565532;11.743280820163463
4079;RADICOFANI;DRIVE SERVICE S.R.L.;STRADA PROV. DI SARTEANO KM 25 NCM 53040;42.895198027668556;11.764644831418991
34699;AUTOGRILL B.D.S;AUTOGRILL B.D.S;LOCALITA' CROCEVIE SNC 53040;43.26328965686391;11.63033589720726
34700;AUTOGRILL B.D.S;AUTOGRILL B.D.S;LOCALITA' CROCEVIE SNC 53040;43.26328965686391;11.63033589720726
26144;NANNOTTI SANDRO;NANNOTTI SANDRO;VIA DELLE CAVE 60 53040;43.25546805222173;11.616337427425378
43898;Piccinifuels Rapolano - Siena-Bettolle;Piccinifuels Rapolano - Siena-Bettolle; SS715 AL KM 29+448 LATO DX SNC 53040;43.25435593025525;11.63500204662705
13267;stazione servizio q8;GRISOSTOMI SANDRA;via provinciale nord 133 53040;43.29406404974868;11.602077101852387
29945;IP;GORACCI ROBERTO;LOC PALOMBAIO 0 53040;42.86571540482378;11.833343580365181
40600;PV SAN GIMIGNANO;ALA CARBURANTI S.R.L.;VIALE GARIBALDI 3 53037, SAN GIMIGNANO (SI) 3 53037;43.47074929050057;11.040826890584867
38158;Staz. Servizio IP di Bani Luciano;BANI LUCIANO;VIA DEI FOSSI 4A 53037;43.46878030761496;11.04027051471519
19443;AQUILA;NISI FRANCO E C. S.N.C.;VIA S.S. CASSIA KM 184  53027;43.05941540360895;11.608676204994367
52122;Distributore Q8;MONACI V. & MEIATTINI C. S.N.C. DI MONACI VIVIANO E MEIATTINI CINZIA;VIA CASSIA NORD KM 183,500  53027;43.05470387915286;11.608897209134733
24996;Distributore Carburanti Canestrelli Petroli - Sarteano;CANESTRELLI PETROLI S.R.L.;S.P. 19 Via Di Chianciano Km 5,568 53047;42.99816066937814;11.858708776104777
43022;ITALIANA PETROLI;CROCIANI ANDREA;VIALE UMBRIA 30 53047;42.990189733698216;11.878088682208954
5439;34001 SIENA;SIENA;Tangeziale ovest SNC 53100;43.31600432798486;11.305133703041065
52427;3508;T.D.M. S.R.L.;S.S. 73 LEVANTE SS 73 - 53100;43.31204566486944;11.359339853372958
34744;3517;T.D.M. S.R.L.;MASSETANA 61 53100;43.29533980230249;11.341116651892662
7018;Agip;Agip;VIA TANGENZIALE OVEST - LOC. COLONNA S. MARCO SNC 53100, SIENA (SI)  53100;43.31011278487374;11.312067767584267
10974;AQUILA;AQUILA;VIA MASSETANA ROMANA 51 53100;43.302596340038;11.324320088577224
6163;Beyfin ;Beyfin ;Statale 73 Ponente Senese Aretina, Km. 35, dir. siena 35 53100;43.29874056668045;11.309016644954681
52745;Bossini Natale snc;Bossini Natale snc;VIALE MAZZINI 24/A 53100;43.326598326073935;11.331000668122897
5328;cinquino snc;cinquino snc;VIA FIORENTINA 120 53100;43.342068211958434;11.30623251600798
44824;Eni;IOZZELLI GIOVANNI;VIALE PIETRO TOSELLI 1 53100;43.322330182527764;11.348468025084799
44134;ENI;STEFFANELLI GABRIELE;STRADA DI PESCAIA 52 53100;43.31318523144675;11.317316763159965
35803;ENI 5470 - CORONCINA PETROLI DI MARIO CONIGLIO;CORONCINA PETROLI DI MARIO CONIGLIO;Statale 2 Via Cassia, Km. 223+700, dir. Sud - 53100;43.29297287549348;11.34318396449089
51456;ENI station;GENTILI SIMONE;Via Principale 10-12, 10/12 53100;43.29438727449186;11.396341323852578
47262;Eni V.le Bracci 6;FRANCARDI ILARIA & GHIRIBELLI STEFANO S.N.C.;VIALE BRACCI 6 53100;43.33500247691116;11.325976730840178
11272;Gentili & Parenti snc Taverne;GENTILI E PARENTI S.N.C. DI GENTILI SIMONE E PARENTI VINICIO;VIA PRINCIPALE 10-12, 53100 - -;43.29433779261461;11.396353315313717
9369;ICM - Siena;I.C.M. SOCIETA' IN NOME COLLETTIVO DI BRUNO, CRISTIANO E FABRIZIO MAGGI;VIA MASSETANA ROMANA  53100;43.30462482433076;11.321378946304321
23573;Ip Viale Toselli;LO.SI.MA. DI LOPEZ VINCENZO ALESSANDRO - S.N.C.;VIALE TOSELLI 120 53100;43.317757869512086;11.353144347667694
41021;Italiana Petroli ;Italiana Petroli ;STRADA DI PESCAIA 12 53100;43.32152272089393;11.316918432712555
34685;Metano Siena;Metano Siena;via massetana romana 74 53100;43.29436501920483;11.334354132413864
54488;Piccini Franco;PICCINI FRANCO;PETRICCIO E BELRIGUARDO 31 53100;43.33484686258577;11.304433852623546
55671;SABIA ANGELO VITO;SABIA ANGELO VITO;DI PESCAIA 12/A 53100;43.32152272;11.31691843
45068;SHELL - SIENA  V. DI PESCAIA;PAD MULTIENERGY S.P.A;Via Di Pescaia 8 53100;43.324354481328164;11.320682847779644
4687;Siena;NUOVA SIDAP  S.R.L.;Statale 223 di Paganico, Km. 70+200, dir. _ - 53100;43.300407228937125;11.354272216558456
29612;SIENA - RUFFOLO;"IP SERVICES S.R.L.";SS 73 SENESE ARETINA - RUFFOLO  53100;43.30267657657195;11.369236034393339
11836;SIENA VIA GIOVANNI PAOLO II, 1;SERVIZI & GESTIONI ITALIA S.R.L.;VIA GIOVANNI PAOLO II 1 53100;43.33997765933894;11.30894457672116
6577;SIENA VIA GIOVANNI PAOLO II, 2;SERVIZI & GESTIONI ITALIA srl;VIA GIOVANNI PAOLO II 2 53100;43.33508794974619;11.315828785300255
11834;SIENA-VIA CELSO CITTADINI 70;SERVIZI & GESTIONI ITALIA S.R.L.;VIA CELSO CITTADINI 70 53100;43.3370258299239;11.304126822090211
4389;Stazione di servizio ENI Milanesi & Skiftas;Stazione di servizio ENI Milanesi & Skiftas;VIALE CAVOUR 222 53100;43.3322667777001;11.314356923103333
50606;Aquila Energie - Sinalunga;Aquila Energie - Sinalunga;Via GUIDO ROSSA 23 53048;43.22684734838878;11.735794592506524
55293;AQUILA ENERGIE SPA;AQUILA ENERGIE SPA;Raccordo Siena-Bettolle KM 39-800 KM 39 53048;43.3014853;11.3815867
47665;Eni;NIVA.STATION DI SICA VALERIA;Strada Statale, Km. 44,300, Siena- Bettolle - 53048;43.218181000123;11.789539000123
29210;Eni;GAROSI LEONARDO E TORELLI ALESSANDRO & C. S.N.C.;via casalpiano  42 53048;43.21877043854735;11.755744932162315
43031;ESSO SINALUNGA - PIEVE;PAD MULTIENERGY S.P.A;Via Trento 167 53048;43.214598629047764;11.75362093505713
31737;GRAZIANI CATULLO S.R.L.;GRAZIANI CATULLO- SRL;PIAZZA DELLA REPUBBLICA 2 53048;43.21638128706936;11.743878791818247
9370;ICM - Bettolle;I.C.M. SOCIETA' IN NOME COLLETTIVO DI BRUNO, CRISTIANO E FABRIZIO MAGGI;VIA CASSIA 173 53048;43.21075536137446;11.805756390094757
9367;ICM - Sinalunga;I.C.M. SOCIETA' IN NOME COLLETTIVO DI BRUNO, CRISTIANO E FABRIZIO MAGGI;LOCALITA' PIVE DI SINALUNGA S.P. 63/A  53048;43.21173182686881;11.761339008808136
46936;ESSO SOVICILLE;PAD MULTIENERGY S.P.A;223 di Paganico, Km. 59, Sud - 53018;43.231372284610146;11.275755573763417
55931;SUPERGAS;SUPERGAS;STRADA PROVINCIALE 73 53018;43.24458;11.22087
54450;TAMOIL ROSIA;TAMOIL ROSIA;MASSETANA 20 53018;43.248368;11.222835
25922;ENERPETROLI - PV TORRITA DI SIENA - SI;ENERPETROLI S.R.L.;VIA MAZZINI  53049;43.172492982194896;11.784164607524872
10816;eni;GEST AREA SERVICES SNC DI LAURA ROSIGNOLI E GIANFRANCO DELFINO;via mazzini  53049;43.16934862191312;11.778011620044708
15383;Stazione di servizio FELIX Q8 -Zgas;FELIX S.N.C. DI PINSUTI LEONARDO & C.;località Guardavalle SNC 53049;43.17874483683644;11.772057116031647
5738;VANNOZZI DANIELE;VANNOZZI DANIELE;TRAVERSA VALDICHIANA EST-SS327 KM26,920  53049;43.18343536134152;11.796408891677856
11182;carburanti passe partout;carburanti passe partout;VIA DELLA RIMEMBRANZA 19 53020;43.18734847278796;11.668811035606268
