ref:mise;name;operator;address;latitude;longitude
46476;arezzo;CORO S.R.L.;VIALE SANTA MARGHERITA  52100;*****************;11.879178311045052
5268;Arezzo - Setteponti;BEYFIN S.P.A. SOCIETA' BENEFIT;VIA SETTEPONTI 41 52100;*****************;11.868378938622982
57277;RIGUTINO;OLYMPIA SERVICE S.R.L.;S.R. 71 KM 135+462 RIGUTINO S.C. 52100;*****************;11.879168825157178
45701;SHELL AREZZO - V. ANCONETANA;PAD MULTIENERGY S.P.A;Via Anconetana 102 52100;*****************;11.901006514993828
46342;STAZIONE DI SERVIZIO IP INDICATORE;MANCINI SASCIA;VIA CASSIA LOC. INDICATORE  SNC 52100;*****************;11.814084649085999
3537;BADIA AL PINO EST;TICABI S.N.C. DI CANNONI VASCO & C.;Autostrada A1 MILANO-NAPOLI,  Km. 362, dir. nord 52041;*****************;11.763893933868417
31713;Esso Ricci-Miniati;RICCI - MINIATI DI RICCI BRUNO E C. S.N.C.;VIALE GIACOMO MATTEOTTI 138 52044;*****************;11.975146398811376
54817;PE.BA. SNC DI BAZZECHI NICO & C:;PE.BA. SNC DI BAZZECHI NICO & C.;viale europa 27 52024;*****************;11.697657473550521
44853;eni;CENTRO AUTO S.N.C. DI GARINI ARMANDO E C.;VIA ARETINA 45 52048;*****************;11.727797985076904
60944;MJ PETROLI MONTEVARCHI;MJ PETROLI S.R.L.;Viale Cadorna 38  52025;*****************;11.56080899579928
46560;IP;D.A. DI DANIELE MANETTI & C. S.A.S.;VIA DELL'ANTELLA 72 50012;*****************;11.314776688814163
48080; ip mugello fuel station sas;MUGELLO FUEL STATION DI BUCCINO PASQUALE & C. SAS;via del lago  6 50031;*****************;11.230857790542625
7259;BARBERINO VAL D'ELSA-SS429 KM42 739;SERVIZI & GESTIONI ITALIA S.R.L.;LOC. TRE PIE' S.S.429 KM. 42+739  50021;*****************;11.120559275150299
11585;CALENZANO-VIA PUCCINI;SERVIZI & GESTIONI ITALIA S.R.L.;VIA PUCCINI S/N 50041;*****************;11.163649796295203
55672;Stazione Di Servizio Esso;OR RASHID HARUN;Via di Prato 24 50041;*****************;11.149255813598081
5284;Firenze - Campi Bisenzio;BEYFIN S.P.A. SOCIETA' BENEFIT;VIA VINGONE (S.S. 66)   50013;*****************;11.102226376533508
46845;ADS EMPOLI;ALA CARBURANTI S.R.L.;VIA CHERUBINI 58 50053, EMPOLI (FI) 58 50053;*****************;10.96534252166748
51470;Area di Servizio Eni;MLAIKI ISMAIL;VIA LIVORNESE 232 50053;*****************;10.907800932069247
39113;EMPOLI VIA PROVINCIALE LUCCHESE;SERVIZI & GESTIONI ITALIA S.R.L.;VIA PROVINCIALE LUCCHESE  50053;*****************;10.916437804698944
55489;Firenze - Empoli;BEYFIN S.P.A. SOCIETA' BENEFIT;PROV.LE LUCCHESE SNC 50053;*****************;10.91646002061693
20729;Marcignana;"IP SERVICES S.R.L.";Marcignana via prov. Lucchese  50053;*****************;10.893845558166504
11581;FIGLINE VALDARNO-VIA TOTI 4;SERVIZI & GESTIONI ITALIA S.R.L.;VIA TOTI 4 50063;*****************;11.483554020524025
13527;metano toscana srl(figline v.a);METANO TOSCANA S.R.L.;TRAVERSA SS 69 snc 50063;*****************;11.496106088161469
11591; FIRENZE - VIA DELLA NAVE DI BROZZI - ANGOLO VIA SAN DONNINO;SERVIZI & GESTIONI ITALIA S.R.L.;VIA DELLA NAVE DI BROZZI - ANGOLO VIA SAN DONNINO S/N 50145;*****************;11.164327561855316
15532;Fibbi&Valacchi snc;FIBBI E VALACCHI S.N.C. DI FIBBI PAOLO & C.;VIA SENESE 150 50124;*****************;11.235971376299858
5527;FIRENZE;"IP SERVICES S.R.L.";Viale Pietro Nenni 16/1 50143;*****************;11.206875233135179
40878;Firenze - Viale XI Agosto;BEYFIN S.P.A. SOCIETA' BENEFIT;Viale XI Agosto 100 50127;*****************;11.215470822721272
60654;GISA GROUP ;GISA GROUP S.R.L.;Viale Etruria snc 50142;*****************;11.211002994422934
50787;IP;CALTABIANO FRANCESCO;Piazza Ferrucci  50126;*****************;11.270572543144226
43543;MANNI ANDREA;MANNI ANDREA;ARETINA 224/A 50136;*****************;11.301922317790968
13728;ENI;GIUSTI S.A.S. DI GIUSTI ALESSANDRO E C.;VIALE BUOZZI 122/124 50054;*****************;10.802912685319484
35444;MAC;NERI LUCA;VIA VIA  CESARE   BATTISTI 176 50054, FUCECCHIO (FI) 176 50054;*****************;10.821073204278946
19977;Quattropetroli;BANTI PAOLO;via Delle Cerbaie Massarella 53 50050;*****************;10.773982272578223
40162;BARONI DIMITRI;BARONI DIMITRI;VIA IMPRUNETANA PER TAVARNUZZE 8B 50023;*****************;11.249727085232735
5658;PA.PETROL SNC;PA.PETROL S.N.C. DI MONICA PARRI & C.;LEONARDO DA VINCI 71 50050;*****************;10.927308797836304
49397;Firenze - Palazzuolo sul Senio;BEYFIN S.P.A. SOCIETA' BENEFIT;PIAZZA RAGAZZINI SNC 50035;*****************;11.548999994993205
7673;STAZIONE DI RIFORNIMENTO SHELL;LAPI SAMUELE & GIUSEPPE S.N.C.;VIA VIA MARTIRI DI CAMPO DI MARTE 10 50039, VICCHIO (FI) 10 50039;*****************;11.458285568122847
27862;TOTAL EXPO;TOTALEXPO DI ANTONIO BENINCASA;MARCONI 88 58043;*****************;10.871012705804446
10222;Distributore di Follonica;TIRRENO GAS DI TAVOLIERI ARNALDO E C. S.N.C.;DIACCIO  58022;*****************;10.781149574471556
11131;ENERPETROLI - PV FOLLONICA U.BASSI - GR;ENERPETROLI S.R.L.;VIA UGO BASSI SNC 58022;*****************;10.753251694527762
51870;53628 â€“ Grosseto;ENIMOOV S.P.A.;Via Aurelia Sud  58100;*****************;11.112872188121745
22531;Distributore Carburati TOTALERG di Fuligni Fabio;FULIGNI FABIO;VIA SCANSANESE, STIACCIOLE 444  58100;*****************;11.172751846319898
21656;GROSSETO ROSELLANA, 135;SERVIZI & GESTIONI ITALIA S.R.L.;ROSELLANA 135 58100;*****************;11.132650673389435
45508;IP Orbetello Scalo;BENICCHI CESARE;1 Via Aurelia, Km. 144,400, nord - 58015;*****************;11.247215867042542
51386;6101;T.D.M. S.R.L.;DELLA REPUBBLICA S.N.C. 58010;42.66917357403328;****************
6563; CECINA V.AURELIA KM.278+025- LOC. CEDRINO;SERVIZI & GESTIONI ITALIA S.R.L.;V.AURELIA KM.278+025- LOC. CEDRINO SNC 57023;*****************;10.526449978351593
46335;IP DI ATTANASIO ANDREA;ATTANASIO ANDREA;VIA DELLE SORGENTI 470 57121;*****************;10.37855364382267
6842;eni di murzi mauro;MURZI MAURO;viale cerboni n.36, 57033 - -;*****************;10.199421644210815
58577;Noctua S.R.L.S;NOCTUA S.R.L.S.;DELL'UNITA' D'ITALIA SNC 57025;*****************;10.526118588293878
60130;BECOJL ROSIGNANO;BECOJL SRL; S.S.206 AL KM 18 +650 CAFAGGIOLO  ;*****************;10.467379190213109
5027;Torregas Srl - Marginone;Torregas Srl - Marginone;LOCALITA' PONTE ALLA CILIEGIA 14 55011;*****************;10.708504915237427
39686;CAPANNORI;SOCIETA' PETROLIFERA TIRRENA - SO.PE.TI. - S.R.L.;PROVINCIALE MADONNINA 67 55012;*****************;10.556238966656565
31709;Q8;SEGHIERI DAVIDE & MADRIGALI RICCARDO S.N.C.;viale europa  346 55014;43.89266294812934;****************
25949;4QUATTROPETROLI DI CERBINO GIUSEPPE S. MARIA A COLLE;CERBINO GIUSEPPE;VIA DI POGGIO 94 55100;*****************;10.445221960544586
48244;CHECCHI CARBURANTI GUAMO;CHECCHI CARBURANTI S.R.L.;VIA NUOVA PER PISA SNC 55100;*****************;10.49166218650817
48371;CONAD SUPERMERCATI LUCCA;ZAGARA S.R.L.;Via Di Tiglio 345 55100;*****************;10.518859008598334
38605;DISTRIBUTORE PIETRASANTA;ALA CARBURANTI S.R.L.;VIA AURELIA SUD 91 55045, PIETRASANTA (LU) 91 55045;*****************;10.226255804300308
31219;PIETRASANTA - MARCONI;"IP SERVICES S.R.L.";VIA GUGLIELMO MARCONI  55045;*****************;10.222750961971315
22167;VERSILIA OVEST;TI.CAR. S.N.C. DI MARIO SUPPADRI E YURI TONAZZINI;Autostrada A12 SESTRI L.-LIVORNO,  Km. 131,00, dir. SUD 55045;*****************;10.224430561065674
55265;IMPIANTO IP SERAVEZZA;GRANAIOLA VERONICA;ALCIDE DE GASPERI 77 55047;*****************;10.220120222237412
30052;BEYFIN;TESSITORE SALVATORE;VIA AURELIA ANG. VIA GUIDICCIONA EST 1 55049;*****************;10.28782457113266
38659;MATTEUCCI PETROLI SRL;MATTEUCCI PETROLI SRL;via della Gronda  335 55049;*****************;10.253622410589628
46420;STAZIONE IP;DI NARDO SALVATORE;VIA CIABATTINI 57 55049;*****************;10.255950303075792
8343;tamoil;CARMASSI & LOTTI S.N.C.;via marco polo 107 55049;*****************;10.248756173610673
41321;aliah srl s.;ALIAH SOCIETA' A RESPONSABILITA' LIMITATA SEMPLIFICATA;VIA G. DA VERRAZZANO 1 54033;*****************;10.048762452709184
49982;Futura Carburanti;FUTURA CARBURANTI S.A.S. DI CALEO TIZIANA E C.;VIA COVETTA 19 54033;*****************;10.052870634469386
19961;CUMA di Mainardi Luciano s.a.s. ;CUMA DI MAINARDI LUCIANO S.A.S.;BOZZONE 143 54037;*****************;10.078521072864532
60614;La piramide di Manuel Tognoli;LA PIRAMIDE DI MANUEL TOGNOLI;DEL CACCIATORE 2 54100;*****************;10.078180072586019
4920;Tongiani Carburanti ;TONGIANI CARBURANTI S.A.S. DI TONGIANI FRANCESCO & C.;VIA OLIVETI 106 54100;*****************;10.110791884655782
26489;IP di braconi massimo;BRACONI MASSIMO;VIA 8 APRILE SNC 54038;*****************;10.166631639003754
47002;ESSO PONTREMOLI - SANTA GIUSTINA;PAD MULTIENERGY S.P.A;Via Nazionale della Cisa - Loc. Santa Giustina  54027;*****************;9.899957340254936
12004;Donati & Giari;DONATI ANDREA & C. S.A.S.;VIA PROV.LE ARNACCIO-MONTE SERRA SNC 56011;*****************;10.513803362846375
44719;DISTRIBUTORE ALA CALCINAIA;ALA CARBURANTI S.R.L.;DEL TIGLIO 149 56012;*****************;10.62046080827713
7294;CASCINA - SDA GRANDE COM FI-PI;SERVIZI & GESTIONI ITALIA S.R.L.;SDA GRANDE COM FI-PI-LI SN 56021;*****************;10.448975712060928
46399;eni;LA BUONA SOSTA S.A.S. DI JAWAD HUSSAIN;via provinciale francesca sud  197 56022;*****************;10.768339547980872
23420;AQUILA ENERGIE spa PIO LUCA & MARCO;PIO LUCA, MARCO & C. SNC;STRADA PROV.LE TRE COMUNI KM, 1,16  56040;*****************;10.547355115413666
33024;PALAIA - MONTANELLI;"IP SERVICES S.R.L.";VIA PROVINCIALE PER LEGOLI  56030;*****************;10.718965131282857
47313;B.I.P ;PROM. SELF S.R.L.;Via San Pio da Pietrelcina  56124;*****************;10.436182916164398
19159;ESSO;M. & M. S.A.S. DI MALACARNE MAURIZIO E C;VIA MARSALA 11,  11 56121;*****************;10.444285629222122
24462;IMPIANTO IP;ALESSANDRINI ANTHONY;VIA VIALE ROSSINI - VILLAGGIO CEP SNC 56126, PISA (PI)  56125;43.712616604432704;****************
38907;LA NUOVA OASI DEL CARBURANTE;LA NUOVA OASI DEL CARBURANTE DI BERNARDINI VERONICA;VIA DEL BRENNERO 1 56123;*****************;10.403105364418025
41404;PISA CARBURANTI S.ERMETE;PISA CARBURANTI S.R.L.;VIA EMILIA 183 56121;*****************;10.413814634084702
54244;IP45603;POWER DI DE CRISTOFARO SAVERIO;S.G.C. FI.PI.LI. DIR. FIRENZE KM54+140 56025;*****************;10.617576122283928
31171;PONTEDERA - SP DI GELLO 35/A;"IP SERVICES S.R.L.";SP DI GELLO 35/A 56030;*****************;10.6032839067459
15288;Nuti Snc di Nuti Daniele & C.;NUTI S.N.C. DI NUTI DANIELE & C.;VIA DI CISANELLO 23 56017;*****************;10.443917819049034
14954;ip;MELAI MAURIZIO;VIA T.ROMAGNOLA EST 411 56028;*****************;10.836415853372955
56704;ip 45626;KAJMAKU KLODJAN;PROV NUOVA FRANCESCA BIS SNC 56029;*****************;10.772519856468278
6917;BEYFIN;PE-CO DI PESCIONI ALESSIO & C. S.N.C.;Viale F.lli Cervi 102/104 59100;*****************;11.084439396820017
44692;DUE A snc;DUE A DI ARACHI ALESSANDRO E FINOTELLO RICCARDO S.N.C.;VIA ROMA 617/G 59100;*****************;11.063797734197237
51569;ENI;BERTEI OTTAVIANO;Viale L Da Vinci  17/p 59012;*****************;11.04373812675476
24434;PAOLETTI GABRIELE;STAZIONE DI SERVIZIO PAOLETTI GABRIELE;VIA ROMA 315/F 59100;*****************;11.083724255819675
6580;PRATO V. LEONARDO DA VINCI 7260;SERVIZI & GESTIONI ITALIA S.R.L.;V. LEONARDO DA VINCI 7260 59012;*****************;11.045444011688232
40040;Eni;MAGE DI MADDALONI FILOMENA;FRANCESCA VIOLI 463 51015;*****************;10.82452118396759
29724;S.P. ROMANA 54 A - PESCIA;SERVIZI & GESTIONI ITALIA S.R.L.;S.P. ROMANA 54 A 51017;*****************;10.695834390490745
40295;METANO AUTO;4 GAS SOCIETA' A RESPONSABILITA' LIMITATA SEMPLIFICATA;VIA GORA E BARBATOLE 260 51100;*****************;10.886554072422086
38122;Raccordo Pistoia Ovest;"IP SERVICES S.R.L.";RACCORDO PISTOIA OVEST KM. 0-824 snc 51100;*****************;10.895642638206482
42648;totalerg;SILITALY DI MARRACCINI SILIANA & C. S.A.S.;strada statale 116 51039;*****************;10.97533405903323
23367;distributore petri giuseppe;DISTRIBUTORE PETRI GIUSEPPE;strada provinciale 51, fonte al coscio 0  53011;*****************;11.289621016965839
29595;AGIP;AGGRAVI MAURIZIO;VIA DANTE 58 53042;*****************;11.827008450401308
38364;3511;T.D.M. S.R.L.;PER PIENZA 1/B 53045;*****************;11.774841248989105
43697;54368;GESTIONI INNOVATIVE ITALIA S.R.L.;SP 1 S.Gimignano Le Lame 53036 53036;*****************;11.130452588954995
49491;IP;FG DI FEDERICO GALLINA;VIA GALVANI 1 53036;*****************;11.14267250872528
38818;stazione esso consorzio agrario siena;CONSORZIO AGRARIO DI SIENA SOCIETA' COOPERATIVA;VIA BORGACCIO  53036;*****************;11.148417368531227
34700;AUTOGRILL B.D.S;AUTOGRILL B.D.S. DI BAGNERINI SANDRA & C. S.A.S.;LOCALITA' CROCEVIE SNC 53040;*****************;11.63033589720726
34699;AUTOGRILL B.D.S;AUTOGRILL B.D.S. DI BAGNERINI SANDRA & C. S.A.S.;LOCALITA' CROCEVIE SNC 53040;*****************;11.63033589720726
26144;NANNOTTI SANDRO;NANNOTTI SANDRO;VIA DELLE CAVE 60 53040;*****************;11.616337427425378
11182;carburanti passe partout;PASSEPARTOUT DI BIANCHI LETIZIA;VIA DELLA RIMEMBRANZA 19 53020;*****************;11.668811035606268
