ref:mise;name;operator;address;latitude;longitude
44753;AIELLI;NORDENERGY S.P.A.;5 Via Tiburtina Valeria, Km. 127+571, PESCINA - 67041;42.057726000123;13.561858000123
51791;ARCHE' ALFEDENA;ARCHE' S.R.L.;83 Marsicana, Km. 76+240, CASTEL DI SANGRO - 67030;41.73731775157919;14.040434479263377
41098;ARCHE' ATELETA;ARCHE' S.R.L.;S.S. 652 KM 27+255 SNC 67030;41.84374745231902;14.192911684513092
5442;6560 AVEZZANO;ENI FUEL S.P.A.;S.S. 5  Km 113  67051;42.038960094352184;13.41420749206543
41096;ARCHE' AVEZZANO VIA NUOVA;ARCHE' S.R.L.;VIA NUOVA  SNC 67051;42.019248134004;13.44465583562851
45030;area bianca v.buonarroti;C.M.M. CENTRALE METANO MARSICA DI MALANDRA GABRIELE S.R.L.;VIA MICHELANGELO BUONARROTI 118-120 67051;42.03876111761665;13.452698439359665
45031;AREA BIANCA v.pertini;C.M.M. CENTRALE METANO MARSICA DI MALANDRA GABRIELE S.R.L.;VIA SANDRO PERTINI SNC 67051;42.00650714180942;13.428441882133484
44750;AVEZZANO;NORDENERGY S.P.A.;VIA SANDRO PERTINI  snc 67051;42.015466000123;13.428646000123
32156;conad self h 24;PINGUE SUPERMERCATI SRL;via xx settembre  413 67051;42.04624442969331;13.451959490776062
38639;Easy Service Avezzano;EASY SERVICE S.R.L.;Statale 690 Avezzano-Sora, Km. 4+700, dir. Avezzano - 67051;42.014111031039164;13.417734503746033
53619;ESSO - AVEZZANO VIA XX SETTEMBRE 69/A;ESSO - AVEZZANO VIA XX SETTEMBRE 69/A;XX SETTEMBRE 69 67051;42.0407358;13.4421626
52354;Impianto Q8 Gisa Carburanti;GISA CARBURANTI DI DI FELICE PAOLO;S.S. 5 Km 113.060  67051;42.040648797014995;13.412202587781325
54008;MED OIL 41386 - Avezzano;MED OIL - SOCIETA' A RESPONSABILITA' LIMITATA;XX SETTEMBRE 328 67051;42.03759;13.43516
30059;MED OIL 47928 Avezzano;MED OIL - SOCIETA' A RESPONSABILITA' LIMITATA;VIA PIAZZA TOMMASO DA CELANO SNC 67051, AVEZZANO (AQ) SNC 67051;42.03727522633524;13.434143587946892
45611;SO.GE.CA - XFUEL AVEZZANO VIA DON MINZONI;SO.GE.CA. S.ORFETO S.R.L.;VIA DON MINZONI 37 67051;42.04324502021381;13.419815892030783
56019;STAR OIL;RAFFAELE SOCIETA' A RESPONSABILITA' LIMITATA SEMPLIFICATA;SS690 Km. 4+984 67051;41.5865176;12.816987
54145;STAR OIL;RAFFAELE SOCIETA' A RESPONSABILITA' LIMITATA SEMPLIFICATA;Via XX Settembre 386  67051;41.5865176;12.816987
32054;STAR OIL;CARBUNUCLEO S.N.C. DI LEONIO ARMIDA & C.;VIA CAVOUR - NUCLEO INDUSTRIAL S.N.C. 67051;42.00094066389907;13.431802690029144
49836;Star Oil;VERRENGIA FABIO;Via Enrico De Nicola  Snc 67051;42.051402745877574;13.4276925509262
32775;stazione servizio esso di morgante daniele;MORGANTE DANIELE;VIA XX SETTEMBRE 299 67051;42.038480131744755;13.437019032540888
54805;TAMOIL - AVEZZANO SS5 VIA TIBURTINA VALERIA KM 117+500;PAD MULTIENERGY S.P.A;S.S. 5 TIBURTINA VALERIA KM 117+500 67051;42.041846700000001;13.4107229
10659;Total Erg;"PINARDI LUIGI & C. S.N.C.";VIA SS 5 KM 118+100 SNC 67051, AVEZZANO (AQ) 490 67051;42.047201531359676;13.454479900000024
42570;Xfuel;LOLLI ANGELO;VIA P. MATTEOTTI 1 67051;42.0392404;13.4261593
37884;esso;EMMETRE DI MANCINI CLAUDIA & C. S.A.S.; S.S.V AVEZZANO-SORA KM38+600DX SNC 67052;41.77540396967159;13.596558496328726
54137;FERRI;FERRI ROSALIA;VIA NAZIONALE 46/A 67052;41.80860061658041;13.559065461158752
46628;Stazione di Servizio ENI;FANTAUZZI GESTIONI DI FANTAUZZI CRISTIAN;SS 690 KM 39,310 SNC 67052;41.769784277290945;13.60117031341656
46138;L'Aquila - Barisciano;BEYFIN S.P.A. SOCIETA' BENEFIT;Località Collerendola  67021;42.32401112037127;13.515157991741944
55375;SANTILLI FUEL - IL CAMINETTO;SANTILLI GENERATION - S.A.S. DI SANTILLI DEBRA E F.LLI;SULMONA 49/51/53 67030;42.010954409448466;14.035938338761866
54749;CAPESTRANO;PETROLIFERA ITALIANA S.R.L.;SS153 KM  11+183 67022;42.0675584;13.0449408
47040;De Felice sas;DE FELICE S.A.S. DI LUIGI & ANTONIO;ROMA 114 67053;41.969354321236864;13.394423425197601
46577;SHELL;DI LORETO EMANUELE;STRADALE 690 KM 8,515 SNC 67053;41.98303824994042;13.408906899528688
52907;CAPPADOCIA;PETROLIFERA ITALIANA S.R.L.;SP 23 ALTO LIRI TAGLIACOZZO KM 13+442 SNC 67060;42.0675584;13.0482176
48155;CARSOLI TIBURTINA;PETROLIFERA ITALIANA S.R.L.;Via Tiburtina Valeria km 69+158  67061;42.08599646465191;13.063973131282802
48156;CARSOLI TURANENSE;PETROLIFERA ITALIANA S.R.L.;S.P.  Turanense km 41+675   67061;42.096166034109245;13.058918647238732
42001;ENI;VALENTINI SECONDO;5 Via Tiburtina Valeria, Km. 69,003, Roma - 67061;42.08504541683699;13.062637234602335
25636;X FUEL CASTEL DEL MONTE;X FUEL S.P.A.;DEL LAGO SNC 60723;42.366428239322644;13.72332028661151
42302;ENI;CARUSO WALTER;VIA PORTA NAPOLI 37 67031;41.780557499130744;14.106535014715178
55470;IP ITALIANA PETROLI;CAMAS S.A.S. DI FERRITTO LORENA E C.;17   67031;41.772452137846436;14.102098822873304
53891;Q8 - CASTEL DI SANGRO SS17 KM 147+958;PAD MULTIENERGY S.P.A;SS 17 KM 147+958 SNC 67031;41.777119900000002;14.104449000000001
41856;toil castel di sangro;TOIL S.P.A.; S.STATALE 17 KM 149+200  67031;41.76685219451033;14.098870754241943
7719;VERLINGAS;"VERLINGAS DUE - S.A.S. DI VERLINGIERI ORESTE";STARDA STATALE 17 KM. 148,140 - Via del Lavoro  9 67031;41.77451597793361;14.100015390213002
51234;Easy Service Celano;EASY SERVICE S.R.L.;Via SS 5 KM 123+100  SNC 67043;42.06310990519823;13.507998229451237
42267;stazione di servizio ip di renzo;DI RENZO ROSSANA;VIA DELLA TORRE 20/22 67043;42.08211907975565;13.541409318944943
39377;TD srl ;TD S.R.L.;via Tiburtina Valeria km 126  67043;42.05980528802059;13.543382585048676
45382;IP Gisa Carburanti;GISA CARBURANTI DI DI FELICE PAOLO;690 Avezzano-Sora, Km. 20+819, Sora - 67050;41.88435803492386;13.451529456314006
46955;Tocci Eni Station;TOCCI MASSIMILIANO;S.R. 82 KM. 21,882 SNC 67054;41.91199886409738;13.42862587848299
43517;ARCHE' COLLARMELE;ARCHE' S.R.L.;S.R.NUM.83 KM 2+400  67040;42.04329791508895;13.626129693865778
56748;TAMOIL GIOIA DEI MARSI VIA SAVOIA;TAMOIL GIOIA DEI MARSI VIA SAVOIA;VIA SAVOIA  ;41.954573;13.693647
42078;arianna giuliani;GIULIANI ARIANNA;VIA ALCIDE DE GASPERI SNC 67100;42.356684974471015;13.406979680141376
22166;Cardelli Patrizio;CARDELLI PATRIZIO;Statale 17 ter dell'Appennino Abruzzese, Km. 2+350, dir. popoli-pescara - -;42.347699024505204;13.43132526194529
28249;CENTROGAS SRL;CENTROGAS - SOCIETA' A RESPONSABILITA' LIMITATA IN LIQUIDAZIONE;Strada Statale 5 Bis , Km. 1,500,   67100;42.328235008002004;13.420596420764923
34161;Del Re Anselmo;DEL RE ANSELMO;VIALE GRAN SASSO  67100;42.35573083857729;13.405227193592964
16747;Del Re Anselmo;DEL RE ANSELMO;VIALE GRAN SASSO  67100;42.35573083857729;13.405227193592964
49967;DISTRIBUTORE CARBURANTE CONAD;AQUILA DISTRIBUZIONE SRL;Località Campo di Pile SNC 67100;42.34840814487015;13.350797295570374
34380;Energas;VANZINI CARBURANTI SAS DI VANZINI RICCARDO & C.;RAFFAELE CAPPELLI 4 67100;42.337871432854065;13.475415408611298
51064;ENI 06502 gestione PQ sas di Paolo Priante;PQ S.A.S. DI PAOLO PRIANTE;S.S. 17 Ovest bivio S. Antonio snc 67100;42.360524894942465;13.377555683255196
52515;G.T. SAS DI GILMONDO CECALA E C.\t;G.T. SAS DI GILMONDO CECALA E C.\t;ss 17 localita' mammarella 37+074 snc 67100;42.33950275709596;13.404547948624414
49194;G.V. SERVICE s.n.c. di Giovanni e Valerio Vecchioni;G.V. SERVICE DI GIOVANNI E VALERIO VECCHIONI S.N.C.;17 ter dell'Appennino Abruzzese, Km. 1,878, A - 67100;42.35148804574151;13.466840999505365
8159;IP;BASILE MARCELLO;Statale 17 dell'Appennino Abruzzese e Appulo Sannitica, Km. 32,462, dir. ovest - 67100;42.36009778602675;13.374014496803284
55504;IP;CAPPELLI BRUNO;STR.PROV. AMITERNINA KM 7,242 SNC 67100;42.331542;13.283169
14492;IP DI ALIUCCI ROBERTO E VINCENZO SNC;ALIUCCI ROBERTO & VINCENZO - SOCIETA' IN NOME COLLETTIVO;17 dell'Appennino Abruzzese e Appulo Sannitica, Km. 37+227, l'aquila centro - 67100;42.33933302663716;13.406525552272797
5263;L'Aquila - Casermette;BEYFIN S.P.A. SOCIETA' BENEFIT;VIA SUPEREQUM 4 67100;42.3631637917983;13.374787398147646
22175;martini adriana e c.sas;MARTINI ADRIANA & C. S.A.S.;LOCALITA' MAMMARELLA S.S. 17 K S.N.C. 67100;42.339330647486314;13.409492075443268
46802;MED OIL 48078 L'Aquila;MED OIL - SOCIETA' A RESPONSABILITA' LIMITATA;VIA S.S. 17 BIS LOC. VASCAPENTA SNC 67100, L'AQUILA (AQ)  67100;42.354419040809574;13.424482205566733
22010;STAZIONE DI SERVIZIO ESSO;EFTOSKI S.N.C. DI EFTOSKI STANISA & BOSKO;VIALE CORRADO IV  67100;42.358771054260984;13.38190957903862
22075;STAZIONE DI SERVIZIO SODIFA ;SODIFA - SOCIETA' A RESPONSABILITA' LIMITATA;STRADA STATALE 80 CONTRADA ROMANI -PETTINO  67100;42.36373178567668;13.369308561086655
17938;STAZIONE DI SERVIZIO SODIFA - VETOIO;SODIFA - SOCIETA' A RESPONSABILITA' LIMITATA;LOCALITA' VETOIO - S.S. 17 OVEST - COMPLESSO PANORAMA  67100;42.35888085653784;13.362703621387482
42785;Stazione Eni PV06556 - Ciclo Otto S.n.c.;CICLO OTTO DI AMOROSI DANTE & CICOLANI PIERLUIGI SOCIETA' IN NOME COLLETTIVO;Viale della Croce Rossa 306 67100;42.35640227964585;13.393601810514951
38377;Stazione Eni PV53935 - Ciclo Otto S.n.c.;CICLO OTTO DI AMOROSI DANTE & CICOLANI PIERLUIGI SOCIETA' IN NOME COLLETTIVO;VIA DELLA CROCE ROSSA S.N. 67100, L'AQUILA (AQ) S.N.C. 67100;42.35648062196618;13.393569141626358
35060;T.D.P. Carburanti S.R.L.;T.D.P. CARBURANTI S.R.L.;Statale 17 dell'Appennino Abruzzese e Appulo Sannitica, Km. 25+668, dir. Antrodoco - 67100;42.36232856381369;13.302268698820285
16535;TOTALERG;ROTILIO PIETRO E IANNI CLAUDIO S.N.C.;VIALE GRAN SASSO S.N.C. 67100;42.35554666609215;13.405124098062515
51657;Valente Elisa;VALENTE ELISA;584 di Lucoli, Km. 1+130, Nord - 67100;42.35412706630146;13.324526154080559
38941;VALLE ATERNO NORD;NUOVA SIDAP S.R.L.;Autostrada A24 ROMA-L'AQUILA-TERAMO, Km. 99,050, dir. Roma - 67100;42.347347408059164;13.353376984596252
3836;VALLE ATERNO SUD;VIFRAN - S.R.L.;Autostrada A24 ROMA-L'AQUILA-TERAMO,  Km. 99.1, dir. Est 67100;42.346688855701515;13.355182707309723
46467;IP Pasqualino;RAFFAELE PASQUALINO;PIAZZA RISORGIMENTO SNC 67050, LECCE NEI MARSI (AQ) SNC 67050;41.93727486257299;13.68597760796547
44779;Stornelli Ugo;STORNELLI UGO;VIA DUCA DEGLI ABRUZZI 13 67056;41.96622691245674;13.465231713681192
38632;ENI PV 06553 - Pietrosanti Michael;PIETROSANTI MICHAEL;S.P. Cicolana snc 67062;42.08910529222079;13.36673028767109
39805;MONTE VELINO NORD;SARNI S.R.L.;Autostrada A25 ROMA-PESCARA, Km. 81.600, dir. NORD - 67062;42.094664846641166;13.346431329846382
3516;MONTE VELINO SUD;SARNI S.R.L.;Autostrada A25 ROMA-PESCARA, Km. 81.6, dir. Est - -;42.09372123762279;13.34663450717926
33794;CONTI & C. PRODOTTI PETROLIFERI SRL MASSA D'ALBE;CONTI & C. PRODOTTI PETROLIFERI SRL MASSA D'ALBE;S.P.24 PER FORME SNC 67050;42.093342078324405;13.426634073257446
45723;IP;PAVONE FEDERICO;Strada Statale, Km. 261 km 35+660, L'AQUILA - 67020;42.142775635949924;13.741661958628697
48252;ESSO - MONTEREALE;PAD MULTIENERGY S.P.A;LOC. MARANA - S.S. 260 KM 13+730  67015;42.49457959382996;13.225808896548482
15977;Guarnieri Giuseppe;GUARNIERI GIUSEPPE;Strada Provinciale Molinella per Collecalvo  67015;42.523062860043964;13.251582182725315
16199;Distributore carburanti;SALVATI MARCO;STRADA STATALE 17 KM. 68+200  67020;42.23489001864224;13.725677579641342
54310;navelli;SYNERGY S.R.L.;s.s 17 km 65.125 snc 67020;42.24934568018492;13.695498704610278
48120;Vulcangas 1020;SOCIETA' ITALIANA GAS LIQUIDI S.P.A.;153 della Valle del Tirino, Km. 15+350, OVEST - 67025;42.286268699526836;13.745843213537512
30054;CIPOLLONI ALESSANDRO;CIPOLLONI ALESSANDRO;Statale 5 Via Tiburtina Valeria, Km. 66,050, dir. l aquila - 67063;42.06335266051887;13.042206466197968
36852;CIVITA NORD;SIFE S.R.L.;Autostrada A24 ROMA-L'AQUILA-TERAMO, Km. 47+700, dir. NORD - 67063;42.06702846447761;13.037338256835938
44198;CIVITA SUD;SERAFINI GIANCARLO & C. S.A.S. DI SERAFINI DAVIDE;Autostrada A24 ROMA-L'AQUILA-TERAMO,  Km. 48, dir. L'Aquila 67060;42.06627;13.03715
50350;Eni Gnl Metano distributore Oricola;ESSEGI IMMOBILIARE - S.A.S. DI DE SIMONE STEFANO & C.; Via Tiburtina Valeria, Km. 68,300 SNC 67063;42.07994530953432;13.056703238190002
50146;IANI SERVICE SRL;IANI SERVICE S.R.L.;Via Largo Sorgente 2 67050;41.9555434514393;13.643126080619886
55418;Pegasus Petroli OVINDOLI;PEGASUS PETROLI S.R.L.;TRATTURELLO SNC 67046;42.1416887;13.5163905
22358;LA PAGLIARA;"FRATELLI D'ADDARIO DI ANNINO E GIUSEPPE D'ADDARIO - SOCIETA' IN NOME COLLETTIVO";83 - KM. 38+900  67032;41.836506129956696;13.786727263476564
20918;TOTALERG;SO.GE.P. SRL;STRADA MARSICANA  KM 44,700 , 67032 - -;41.79564614807622;13.79406578734131
56183;ARCHE' PESCINA;ARCHE' S.R.L.;LOC. VENERE  SNC 67057;41.6284672;13.7854976
33804;IP;BERTONE TONY;PIAZZA MAZZARINO S.N.C. 67057;42.02610851536124;13.660203516483307
50818;Ottavi carburanti sas;OTTAVI CARBURANTI S.A.S.;83 Marsicana, Km. 4+911, Pescina - 67057;42.02805170108349;13.647235059311251
32327;PESCOCOSTANZO - DEL RE;"IP SERVICES S.R.L.";VIA DEL RE  67033;41.88712595842577;14.068726822090184
46423;7536;T.D.M. S.R.L.;17 KM 103,494 SNC 67034;42.01777565627819;13.942468413491838
5264;L'Aquila - Pizzoli;BEYFIN S.P.A. SOCIETA' BENEFIT;STRADA STATALE 260  67017;42.429482407102924;13.298362791538239
27070;PIZZOLI FRAZ P.TE CERMONE;SERVIZI & GESTIONI ITALIA S.R.L.;FRAZ P.TE CERMONE  67017;42.40692376201824;13.305988868122881
18948;areaself17 di Giuseppe Parisse;PARISSE GIUSEPPE;VIA SS 17  KM. 93+534 SNC 67035, PRATOLA PELIGNA (AQ) snc 67035;42.09640653577664;13.891023695468903
48801;Di Giulio;DI GIULIO ALESSANDRO;via trieste  40 67035;42.099181004920005;13.878234682209015
49326;Di Giulio 1;DI GIULIO ALESSANDRO;strada provinciale del sagittario km 1+250 snc 67035;42.087725405923265;13.882851119563616
34709;ENI 16555 - 2D di De Stephanis Giuseppina & c.;2D - S.N.C. DI PUCCI LUIGI & C.;STRADA STATALE 5 DIR KM. 5+491 SN  67035;42.10768586610924;13.875597715377808
47244;Eni Station;MAIORANO MATTEO;VIA CARSO SNC 67035;42.092404630991076;13.875503167510027
35413;CARBURANTI ITALIANI;CARBURANTI ITALIANI S.R.L.S.;S. R. N. 5 DIR KM 2+391 SNC 67027;42.1019228626349;13.84396567940712
32326;RAIANO - S.S. 5 KM 170,590;"IP SERVICES S.R.L.";S.S. 5 KM. 170,590  67027;42.10281194027733;13.815220116567616
27204;LA VECCHIA PESA;LA VECCHIA PESA DI GABRIELE DI NATALE E C. - S.N.C.;Statale 17 dell'Appennino Abruzzese e Appulo Sannitica, Km. 133.50, dir. sulmona - 67036;41.86539890245248;14.032859913932953
51836;ARCHE' ROCCA DI CAMBIO;ARCHE' S.R.L.;PIAZZA MAGGIORE LOLLI  SNC 67047;42.23698570788632;13.488742823260674
40403;X FUEL CAMPO FELICE;X FUEL S.P.A.;Loc. Campo felice  SNC 67047;42.21259162611846;13.44975471496582
41042;ARCHE' ROCCA DI MEZZO;ARCHE' S.R.L.;SS 696  SNC 67048;42.19954032398696;13.51973757147789
6301;Più;PETROLBITUMI - SOCIETA A RESPONSABILITA LIMITATA;Statale 17 dell'Appennino Abruzzese e Appulo Sannitica, Km. 90+94, dir. N.D. - ;42.11700715928106;13.87726705653074
47395;ESSO ROCCARASO Via Roma;PAD MULTIENERGY S.P.A;Via Roma  67037;41.85095706516586;14.076629526693655
27684;STAZIONE DI SERVIZIO ENI;ODDIS LAURENTINO - S.A.S.;Statale 17 dell'Appennino Abruzzese e Appulo Sannitica, Km. 136+934, dir. L'AQUILA  67037;41.8553061449447;14.068569839000702
41097;ARCHE' SAN BENEDETTO DEI MARSI;ARCHE' S.R.L.;S.P.20 MARRUVIANA KM 16+685  67058;42.001285692853834;13.607877641916275
45052;IANI PETROLI;IANI PETROLI S.R.L.;STRADA PROVINCIALE 20 KM. 16+600  67058;42.001235566668804;13.606472740655363
33815;Iani srl;IANI S.R.L.;Strada Provinciale 20 Km. 16,600, dir. Avezzano  67058;42.00125001403318;13.606159687042238
39782;S BENEDETTO MARSI TOIL SPA;TOIL S.P.A.;S.P. N.20 KM 15+890  SNC 67058;42.001556173528016;13.603614270687103
18783;IP;MIRCO FABRIZIO;S.S. 261 KM 4+912 SNC 67028;42.29493237672296;13.537421375513077
47045;MIRCO FABRIZIO 2;MIRCO FABRIZIO;SS 261 KM6+094  67028;42.27254159068116;13.561917937646967
53931;6022;T.D.M. S.R.L.;SS 17 KM 58+285 SNC 67020;42.293463;13.6372344
7135;Tamoil di Fratini Ezio Antonio;FRATINI EZIO ANTONIO;strada statale 479 km 30+912  67038;41.903188858493394;13.878114110932529
34381;IP di IANNINI ANDREA;IANNINI ANDREA;17 dell'Appennino Abruzzese e Appulo Sannitica, Km. 24,697, Scoppito  67019;42.36016913620997;13.290639370679855
56690;ARCHE' SCURCOLA MARSICANA;ARCHE' S.R.L.;Strada Statale 5, km 109+596 Fraz. Cappelle  67068;42.063152;13.385774
49312;CAPPELLE N;NORDENERGY S.P.A.;via Tiburina Valeria k 108+495  67068;42.067504028387624;13.37268794498689
40429;rubeo luca;RUBEO LUCA;VIA TIBURTINA KM.105,216 SNC 67068;42.06229508075158;13.336934298276901
25640;X FUEL CAPPELLE DEI MARSI;X FUEL S.P.A.;REATINA SNC 67068;42.07071560382101;13.378391861915588
43283;CMM;C.M.M. CENTRALE METANO MARSICA DI MALANDRA GABRIELE S.R.L.;VIALE DELLA REPUBBLICA SNC 67039;42.075476431389696;13.906733393669128
19735;DI.PA.snc;DI.PA. DI DI BENEDETTO VENANZIO & PAOLUCCI GUGLIELMO SNC;viale della repubblica snc, 67039 - -;42.067717803387254;13.913983404636383
35683;eni station;LEOMBRUNI DOTT. FRANCO S.A.S.;viale della repubblica 8 67039;42.06011535555555;13.919937328311107
44382;IMPIANTO N. 16556 ;LEOMBRUNI DOTT. FRANCO S.A.S.;S.S. 17 VARIANTE LOCALITA' NOCETO SNC 67039;42.081024000123;13.913895000123
29935;MED OIL 47929 Sulmona;MED OIL - SOCIETA' A RESPONSABILITA' LIMITATA;VIA SS 17 KM 97+630 SNC 67039, SULMONA (AQ)  67039;42.06450600179333;13.916067481040955
30025;Stazione IP M.F.;MARINUCCI FRANCESCO;viale mazzini  143 67039;42.03593748699027;13.932827869311495
38076;Sulmona;"IP SERVICES S.R.L.";VIALE MAZZINI snc 67039;42.04274829010013;13.928372114896774
25068;SULMONA - CIRC.NE ORIENTALE;"IP SERVICES S.R.L.";VIA CIRCONVALLAZIONE ORIENTALE  67039;42.05016614115034;13.926799241733534
20653;Total Erg;DI BIASE ANNA MARIA;circonvallazione occidentale 16, 67039 - -;42.05227657095521;13.919885605573654
48648;Vulcangas Esso 1063 Sulmona;SOCIETA' ITALIANA GAS LIQUIDI S.P.A.;17 dell'Appennino Abruzzese e Appulo Sannitica, Km. 98+300, Sud - 67039;42.06276801183399;13.927631098070554
44700;Beyfin - FRATELLI TITTONE;FRATELLI TITTONE S.A.S. DI TITTONE GIOVANNI E C.;Via Tib Valeria 102 67069;42.052909000123;13.302416000123
44147;CLS CARBURANTI;DI BERNARDO GIULIA;5 Via Tiburtina Valeria, Km. 97,500, TAGLIACOZZO - 67069;42.07403495496915;13.251008743347484
48710;ENI PV 06506 - Pietrosanti Michael;PIETROSANTI MICHAEL;Via Variante Tiburtina Valeria SS5 snc 67069;42.074033968321984;13.251009976686476
34352;RUBEO LUCA;RUBEO LUCA;Statale 5 Via Tiburtina Valeria, Km. 98,700, dir. tagliacozzo - 67069;42.06829284405488;13.270351141691208
34353;RUBEO LUCA;RUBEO LUCA;VIA DUCA DEGLI ABRUZZI S.N. 67069;42.06871144379576;13.253487243526365
44447;ENI;RETICO ALESSANDRO CLAUDIO;VIA ROMA SNC 67059;41.960021321154336;13.530954058860743
47730;Perinetti Auto Fuel;PERINETTI AUTO S.R.L.;VIA ROMA KM. 12.450 SN 67059;41.96003293745031;13.51137084140213
45395;Gatta Mario;AREA SERVICE "VIGNARONICA" S.A.S. DI GATTA MARIO & C.;ROMA 15 67030;41.932821611185716;13.851436580426025
53563;SAVATONIO EMANUELE;SAVATONIO EMANUELE;VIA ROMA snc 67030;41.775255981421864;13.94197627902031
43869;CARBURANTI FRATELLI FERRARA SRLS;CARBURANTI FRATELLI FERRARA SRLS;84 Frentana, Km. 55+250 , CASOLI - 66040;42.114519974196504;14.342537364418035
55354;Consgas Petroli;CONSGAS PETROLI S.R.L.;84 Frentana, Km. 55+637 , SN - 66044;42.114035296824476;14.347111284732819
44904;Retitalia;FERRARA CESARE;84 Frentana, Km. 56+832, Altino - 66040;42.11453743463153;14.342580230683097
56487;TAMOIL ALTINO S.S. 84 KM 56+832;TAMOIL ALTINO S.S. 84 KM 56+832;S.S. 84 KM 56+832  66040;42.084081500000003;14.2534562
5935;ATESSA;"IP SERVICES S.R.L.";Via Colle Pietre 87 66040;42.12904487067406;14.432293860118875
5936;ATESSA;"IP SERVICES S.R.L.";Via Antonio Gramsci / SP MONTEMARCONE 84 66041;42.075042999999994;14.446454116567566
48441;ATESSA X FUEL;CARBURANTI FRATELLI FERRARA SRLS;Via SP localita' Montecalvo 10 66041;42.121473330113965;14.478608529447756
14509;BOSCHETTI ANTONIO;" BOSCHETTI ANTONIO ";P. GOBETTI 21 66040;42.066325976273376;14.452757388353348
21831;D&Dsas;D. & D. S.A.S. DI D'ONOFRIO ANGELO & C.;S.p ex S.s 154 km5+874  66041;42.12769206649996;14.41176451742649
27045;DISTRIBUTORE IP di BERARDI DANIELE;BERARDI DANIELE;VIA MADONNA A MARE 06 66041;42.070061712403486;14.461528327824908
55353;ENI;L.C. ENERGY SERVICE DI CONSALVI LUIGI S.A.S.;SP MARRUCINA LOC. CARRIERA SN 66041;42.088127363728056;14.446141719818115
9084;RES PIAZZANO DI ATESSA;"TRADE INVEST S.R.L.";Statale 652 di Fondo Valle Sangro, Km. 67+537, dir. villa santa maria  66041;42.13302724931936;14.409601986408234
4302; DONATUCCI GIANNI; DONATUCCI GIANNI;DONATUCCI GIANNI via S.S. 81 Piceno aprutina dir. mare km 153+700  66011;42.29572438653073;14.158996492624283
44714;DISTRIBUTORE IP MASCIULLI;MASCIULLI VIAGGI S.R.L.;C.DA COLLE S. ANTONIO  66011;42.31968083882765;14.136305588954883
50109;Lanny Bonaventura;BONAVENTURA LANNY;Santa Chiara 28 66011;42.301289667663156;14.180997716799988
22116;area di servizio Primante Massimo;PRIMANTE MASSIMO;STRADA PROVINCIALE PER CRECCHIO - VIA VALLI  66010;42.29273508341408;14.306675150517322
22554;Di Sario srl;Di Sario srl;VIA VERSO TOLLO 67 66010;42.302288318099365;14.305671877909845
44145;Ip;PETROLBITUMI - SOCIETA A RESPONSABILITA LIMITATA; SP 42 MADONNA DELL'ASILO SNC 66030;42.013147303550596;14.506807327270508
54038;GOIL CARUNCHIO;LC HOLDING S.P.A.;Via Provinciale  66050;40.8485888;14.4867328
44667;26584;LIBERATOSCIOLI & C. S.N.C. DI LIBERATOSCIOLI A.  & DEL ROMANO U.;STRADA VAL DI FORO 97 66010;42.26838534821819;14.198622215938599
52507;Eni Station;DEL ROMANO UGO;STRADA VAL DI FORO 99 66010;42.26839071802066;14.198636149394774
21600;IP di D'Amario Giovanni ;D'AMARIO GIOVANNI;VIA DEI TIGLI 196 66021;42.155756165887745;14.608234316110611
41671;pasquini nicola;PASQUINI TOMMASO;DEI TIGLI 96 66020;42.153961799456425;14.599998873085724
4565;PORTOBELLO;ADRIATICA S.R.L.;Statale 16 Adriatica, Km. 503+195, dir. SUD - 66021;42.170705373043226;14.639080067855843
31139;CASALINCONTRA - VIA CAPPELLE;"IP SERVICES S.R.L.";VIA CAPPELLE - (S.P. 44)  66012;42.29621785568167;14.128199999999993
23069;DS CARBURANTI;DE SIMONE GIUSEPPE;Statale 84 Frentana, Km. 48,700, dir. SUD - 66043;42.117344866570704;14.29057008465577
27305;Eni Casoli;PETROLBITUMI - SOCIETA A RESPONSABILITA LIMITATA;CONTRADA CIPOLLARO SNC 66043;42.11525234000667;14.257894390216052
9673;RES;DI SANTO SABINA;VIA SELVA PIANA 70 66043;42.12129136738137;14.302988293959288
14770;RES CASOLI;"TRADE INVEST S.R.L.";VIA SELVA PIANA 96 66043;42.12453065833825;14.303759525834494
9435;eni di franceschini;"FRANCESCHINI S.A.S. DI FRANCESCHINI DAVIDE & C.";Statale 84 Frentana, Km. 72+320, dir. castel frentano  66032;42.19269988013503;14.369336664676666
52688;TAMOIL - CASTIGLIONE MESSER MARINO - L.GO SAN ROCCO;PAD MULTIENERGY S.P.A;S. ROCCO SNC 66033;41.867555000000003;14.448485
26113;26585 CHIETI ;ENI FUEL S.P.A.;EX SS TIBURTINA SNC 66100;42.331392190315356;14.115218818187714
42313;26611 ENI di COSTANTINI CARBURANTI sas;COSTANTINI CARBURANTI DI GIUSEPPE COSTANTINI S.A.S.;649 di Fondo Valle Alento, Km. 3+800, sud - 66100;42.35976828586567;14.216516464948654
37292;BRECCIAROLA NORD;SARNI S.R.L.;Autostrada A25 ROMA-PESCARA, Km. 174+800, dir. nord - 66010;42.32567773675645;14.085972011089325
37345;BRECCIAROLA SUD;SARNI S.R.L.;Autostrada A25 ROMA-PESCARA, Km. 174+800, dir. SUD - 66010;42.32550719543026;14.087647050619125
6667;CHIETI S.P. 656 VALPESCARA-CHIETI KM 0+295;SERVIZI & GESTIONI ITALIA S.R.L.;S.P. 656 VALPESCARA-CHIETI KM 0+295 SNC 66100;42.388735458858186;14.15877079325412
24495;CHIETI SCALO;"IP SERVICES S.R.L.";Statale 5 Via Tiburtina Valeria, Km. KM 216,366, dir. PESCARA - 66100;42.33311982801698;14.12173562698365
10503;CHIETI VIA ERASMO PIAGGIO;SERVIZI & GESTIONI ITALIA S.R.L.;VIA ERASMO PIAGGIO  66100;42.36272959706732;14.13637817116387
44644;D'ARCANGELO LORIS;D'ARCANGELO LORIS;STRADA DELLA PACE 81 66100;42.33249523585465;14.159815992984818
51391;ENI;ROMANO IGLIF;VIA A. HERIO 6 66100;42.349025000123;14.164405000123
55277;Eni;D.C.B. S.A.S. DI DI CECCO LUIS FERNANDO E DI CECCO CRISTHIAN ISRAEL & C.;VIA SS  81 66011 località petozzo BUCCHIANICO (CH) km 153,700 66011;42.29589447682004;14.15910011444197
44774;ENI SPA;DIESSE SERVICE SAS DI INNAMORATI DANIELA & C.;VIALE ABRUZZO 302 66100;42.351196000123;14.136873000123
48037;ESSO - CHIETI Loc. BRECCIAROLA SS 5 KM 214+425 ;PAD MULTIENERGY S.P.A;Loc. BRECCIAROLA SS 5 KM 214+425   ;42.3256227056268;14.099712149406567
46272;GIUSEPPE STOPPANI;GIUSEPPE STOPPANI;VIALE ABRUZZO 463 66100;42.34728930075857;14.136219134271869
47971;IGOR FINOCCHIO;FINOCCHIO IGOR;Strada Statale, Km. 218+800, Viale Abruzzo 375 - 66100;42.34962796456187;14.136747224536887
55304;IP ;CONSGAS PETROLI S.R.L.;Via Lucio Camarra  66100;42.351396420237215;14.175742864608765
44947;Italfuel StarOil;SM CARBURANTI SOCIETA' A RESPONSABILITA' LIMITATA SEMPLIFICATA;5 Via Tiburtina Valeria, Km. 0000, Pescara  66100;42.380758000123;14.149764000123
6292;Più;PETROLBITUMI - SOCIETA A RESPONSABILITA LIMITATA;VIA MASCI SNC 66100;42.36178460180254;14.199815779373239
37187;PORTOBELLO;BRECCIAROLA ENERGY S.R.L.;via Aterno km 215 . 66021;42.328544149973666;14.107225835323334
9569;q8;AMBROSINI NICOLA E FIGLIO - S.N.C.;VIALE UNITA' D'ITALIA, 66100 SNC 66100;42.39005496060944;14.159298241138458
53408;Q8;D.C.B. S.A.S. DI DI CECCO LUIS FERNANDO E DI CECCO CRISTHIAN ISRAEL & C.;FILIPPO MASCI SNC 66100;42.36008;14.20603
55077;Q8 Chieti gransasso;PETROLBITUMI - SOCIETA A RESPONSABILITA LIMITATA;Via Gran Sasso  66100;42.35674017516243;14.16683185516359
9570;q8 gelber;AMBROSINI NICOLA E FIGLIO - S.N.C.;VIA MARVIN GELBER SNC, 66100  66100;42.362964414115524;14.137620627880096
53919;retitalia;FUTURO PULITO - S.N.C. DI FRANCESCO CAPONE E D.C.B. S.A.S. DI DI CECCO LUIS FERNANDO E DI CECCO CRISTHIAN ISRAEL & C.;COLLE DELL'ARA SNC 66013;42.3632888794;14.1525402069
40039;SOZIO CARBURANTI s.martino;DITTA SOZIO DI PASQUALE & INNOCENZO SOZIO S.N.C.;s.s.5 KM 223+900   66100;42.39110191328736;14.159743576690744
56018;star oil;RAFFAELE SOCIETA' A RESPONSABILITA' LIMITATA SEMPLIFICATA;ABBRUZZO 463 66100;42.347143;14.136388
16074;stazione di servizio eni PV 54396;IMPIANTI CARBURANTI S.A.S. DI SANTOLERI MARCO & C.;VIALE BENEDETTO CROCE 270/B 66100;42.364167400000014;14.141329685319533
23455;STAZIONE SERVIZIO ENI;P.D.G. SERVICES S.A.S. DI PACE GIULIO & C; S.S. 656 KM. 1-896   66100;42.375511507222924;14.154309332370758
49493;TAMOIL - CHIETI BRIGATA MAJELLA;PAD MULTIENERGY S.P.A;BRIGATA MAJELLA  66100;42.341266344901065;14.169800425474936
22969;TAMOIL - CHIETI VIA M. DA CARAMANICO;PAD MULTIENERGY S.P.A;VIA M. DA CARAMANICO SNC 66100;42.358603242104444;14.140600949243147
53731;TAMOIL - CHIETI VIA MADONNA DEGLI ANGELI;PAD MULTIENERGY S.P.A;MADONNA DEGLI ANGELI 206 66100;42.348290599999999;14.162752299999999
7472;TAMOIL Brecciarola;DI PASQUALE ROBERTO;Statale 5 Via Tiburtina Valeria, Km. 213+320, dir. PESCARA - -;42.32094127526514;14.088833928108215
27304;Più carburanti;PETROLBITUMI - SOCIETA A RESPONSABILITA LIMITATA;Località Villa Selciaroli  66014;42.27571066944312;14.340350080148255
54116;54117;BM FUEL PETROLI SOCIETA' A RESPONSABILITA' LIMITATA;ENRICO MATTEI 35 66051;42.066377532751105;14.682781843038931
49100;Smart Oil - Dogliola;LAURETI PETROLI S.R.L.;650 di Fondo Valle Trigno, Km. 61+915, San Salvo  66050;41.94740529675128;14.666210115370978
38318;RES FARA FILORUM PETRI;"TRADE INVEST S.R.L.";Statale 81 Piceno Aprutina, Km. 160+600, dir. GUARDIAGRELE  66010;42.243993103093025;14.180884659290314
15862;MED OIL 48081 Fara San Martino;MED OIL - SOCIETA' A RESPONSABILITA' LIMITATA;VIA LOCALITA' MEZZE MACCHIE 22 66015, FARA SAN MARTINO (CH)  66015;42.101124039604464;14.230554682209004
25323;Eni Fossacesia;PETROLBITUMI - SOCIETA A RESPONSABILITA LIMITATA;SP EX SS 524 KM 8+710  SN 66022;42.23322707125807;14.462730183731082
6666;FOSSACESIA SS 16 ADRIATICA KM 487+95;SERVIZI & GESTIONI ITALIA S.R.L.;SS 16 ADRIATICA KM 487+95 SNC 66022;42.25143494357952;14.507437568122896
33693;marina del sole;"DARSENA SRL";LOCALITA' GROTTE  66022;42.23626702338333;14.539597928524017
34002;SELF AREA THOMAS;SELF AREA THOMAS DI BASCIANO TOMMASO;Statale 652 di Fondo Valle Sangro, Km. 78+344, dir. Nord  66022;42.20906452393309;14.489663243293762
50992;FUEL FELICE CORRADO;FELICE CORRADO;VIA S.M. MATER DOMINI  66050;41.90459978193121;14.486717004776928
31022;6606 Francavilla al Mare;ENI FUEL S.P.A.;Statale 16 Adriatica, Km. 454+653, dir. Nord - 66023;42.42695301384383;14.27447497844696
27745;8143;T.D.M. S.R.L.;ALCYONE 255 66023;42.44257992682259;14.25558552145958
50186;eni;PORZIO GESTIONI COMMERCIALI DI PORZIO ANDREA & C. SAS;16 Adriatica, Km. 435+545, nord - 66023;42.43339614374133;14.264130237521728
37984;Eni 26582;AZZURRA DI GALASSO DAVIDE & C. S.A.S.;Statale 263 di Val di Foro e di Bocca di Valle, Km. 0+400, dir. Est - 66023;42.399593569278274;14.319377839565277
48391;ESSO FRANCAVILLA AL MARE;PAD MULTIENERGY S.P.A;16 Adriatica, Km. 455+500, Nord - 66023;42.422637802867236;14.28291454911232
17659;FRANCAVILLA A MARE;"IP SERVICES S.R.L.";Statale 16 Adriatica, Km. 456+950, dir. FRANCAVILLA - 66023;42.41541188123115;14.29680134110447
31187;GASOLIN SELF;PETROL SERVICE S.R.L.;Viale Alcione 50 66023;42.42930507583069;14.27599946494297
56801;GASOLINE SELF;GASOLINE SERVICE SRL;VIALE ALCIONE 50 66023;42.430215953616134;14.274900779128075
15231;gasoline station;PETROL SERVICE S.R.L.;SAN LEONARDO . 66023;42.4216542911159;14.27310465597725
56800;GASOLINE STATION;GASOLINE SERVICE SRL;COMUNALE SAN LEONARDO SNC 66023;42.4216745367432;14.273096323013306
37966;IP;DI IULIO GIUSEPPE;via alcione 16 66023;42.427390177642444;14.27881555257045
46911;IP;DI IULIO GIUSEPPE;Strada Statale, Km. 454 350, Francavilla AL MARE - 66023;42.42853203455841;14.27160006803922
50893;OK FRANCAVILLA;FEA S.R.L.;16 Adriatica, Km. 452+520, SUD  66023;42.43960221166939;14.254556966934189
9538;PV FRESAGRANDINARIA;PETROL ABRUZZO SRL SOCIETA' UNIPERSONALE;VIALE ABRUZZO SNC 66050;41.97539415691512;14.672203660011292
17355;marcovecchio falco carburanti;MARCOVECCHIO FALCO;VIA BEATO ANGELO 56 66050;42.007712947132866;14.58593161942781
54126;PETROLSERVICE SRL;PETROLSERVICE S.R.L.;SAN SEBASTIANO 10 66010;42.062524280947464;14.275864362716714
49632;ESSO GISSI - LOC. LAMA DEI TERZI;PAD MULTIENERGY S.P.A;LOC. LAMA DEI TERZI  67052;42.062731688189;14.590668118665615
20372;MINCARINI MARIO;" MINCARINI MARIO ";VIA G. MARIANI 19 66052;42.01906819597037;14.541924744844437
48435;GIULIANO TEATINO X FUEL;CARBURANTI FRATELLI FERRARA SRLS;via  nevi 241 66010;42.31126127393379;14.28060708910841
8917;Marroncelli & C. sas di Marroncelli Camillo & Roberto ;MARRONCELLI & C. SOCIETA' IN ACCOMANDITA SEMPLICE DI MARRONCELLI CAMILLO E ROBERTO;Via Andrea Bafile 1/3 66016;42.2016213;14.2185672
29999;MARRONCELLI & C. SOCIETÀ IN ACCOMANDITA SEMPLICE DI MARRONCELLI CAMILLO E ROBERTO;MARRONCELLI & C. SOCIETA' IN ACCOMANDITA SEMPLICE DI MARRONCELLI CAMILLO E ROBERTO;VIA OCCIDENTALE snc 66016;42.193185754121394;14.220181033015251
53630;Verna Mattia;Verna Mattia;PIANO FONTI 52 66016;42.1910579;14.2585172
50072;Cm srls ;CM - SOCIETA' A RESPONSABILITA' LIMITATA SEMPLIFICATA;CONTRADA VILLA ELCE SNC 66034;42.18183074354865;14.393708630199487
33960;DI NUNZIO SRL;DI NUNZIO S.R.L.;VIA ICONICELLA 326/B 66034;42.21744469574228;14.419393390417099
9111;Eni Lanciano di Salomone Nicola & c.s.n.c;DISTRIBUZIONE CARBURANTI E LUBRIFICANTI-DI- SALOMONE NICOLA E C. S.N.C.;VIA PER FOSSACESIA 96 66034;42.2258473063603;14.399688747325627
45244;ESSO LANCIANO - SS 84 KM 75+170;PAD MULTIENERGY S.P.A;84 Frentana, Km. 75+170, Lanciano - 66034;42.20991419724995;14.386967037549871
28404;IP;FRAIOLI MARIO;CAPPUCCINI 29 66034;42.22646862267286;14.3876913699753
27829;IP G.L. Carburanti e gomme;G.L. CARBURANTI S.N.C. DI DELL'ELCE WILLIAM & PRIMOMO GABRIELE;Via Iconicella snc 66034;42.225104961792454;14.405091488793946
5526;LANCIANO;"IP SERVICES S.R.L.";Via del Mare 13/15 66034;42.23199091592006;14.397363976686506
32194;LANCIANO - S.P. SAN VITO;"IP SERVICES S.R.L.";S.P. SAN VITO - LANCIANO KM. 7,754  66034;42.229790069722114;14.404611487102557
6675;LANCIANO VIA GUIDO ROSATO S.N.C.;SERVIZI & GESTIONI ITALIA S.R.L.;VIA GUIDO ROSATO S.N.C. 66030;42.22086426669915;14.389418363571167
44178;PACE SERVICE S.R.L.;PACE SERVICE S.R.L.;CONTRADA VILLA MARTELLI ZONA ARTIGIANALE  66034;42.238140985793024;14.407386871775657
33919;SOC. ITALIANA GAS LIQUIDI SPA di DELL'ELCE AGOSTINO;DELL'ELCE AGOSTINO;CONTRADA VILLA MARTELLI 342 66034;42.24560916938116;14.418964236974716
23483;stazione eni;RANELLONE GIUSEPPE;VIA DEL MARE SNC 66034;42.23514222680647;14.396986216306686
36293;ALENTO EST;NUOVA SIDAP S.R.L.;Autostrada A14 BOLOGNA-BARI-TARANTO, Km. 393, dir. Est - 66010;42.388474890565625;14.289200976490974
3730;ALENTO OVEST;FERRO VITO- AREA DI SERVIZIO "ALENTO OVEST";Autostrada A14 BOLOGNA-BARI-TARANTO, Km. 393+900, dir. Sud - 66010;42.38654047428998;14.288167055225358
8897;De Marco Patrizio;De Marco Patrizio;VIA ROMA 134 66010;42.35575839400206;14.287958095037084
30067;MED OIL 48112 Miglianico;MED OIL - SOCIETA' A RESPONSABILITA' LIMITATA;VIA S.P. CERRETO SUPERIORE SNC 66010, MIGLIANICO (CH) snc 66010;42.39155456359505;14.296723902225494
50894;OK MIGLIANICO;FEA S.R.L.;VIA VAL DI FORO SNC 66010;42.36003144397989;14.278480262565608
52321;OK MIGLIANICO 2;FEA S.R.L.;CONTRADA CERRETO 2 66010;42.359497000123;14.276871000123
48440;MONTAZZOLI X FUEL;CARBURANTI FRATELLI FERRARA SRLS;Via Aldo Moro 17 66030;41.941873351840634;14.427484170774063
25802;stazione di servizio d.b.a. amedeo;DI BERARDINO AMEDEO;via verlinghiera 8 66010;41.998772718876715;14.252272993326187
6293;Eni Mozzagrogna;PETROLBITUMI - SOCIETA A RESPONSABILITA LIMITATA;SPADARIA PEDEMONTANA KM 4+140 SNC 66030;42.200907084879;14.468751919383635
21985;TAMOIL SANGRO CARBURANTI;SANGRO CARBURANTI DI MAIOCCO GENNARO S.N.C.;Statale 652 di Fondo Valle Sangro, Km. 74+300, dir. atessa - 66030;42.17956798460181;14.460786581039428
49357;ESSO;LIBERMAN S.R.L.;ORTONESE SS 538 KM 18+149 SNC 66036;42.21908548851843;14.278519153594965
41335;MASCITTI CARBURANTI;OROIL SRLS;Via Achille Rosica 1 66036;42.22002313558617;14.285705258452595
55661;AREA DI SERVIZIO ENI di Seccia Gianluca;SECCIA GIANLUCA;16 LOC. S. LIBERATA KM 468+204 - 66026;42.3522441;14.4028113
46123;distributore "pompa bianca" di sarchese roberto;distributore retitalia di sarchese roberto;monte maiella 14 66026;42.356766000123;14.402704000123
38575;Distributore IP ;KEEPCALM S.R.L.S.;SS 16 ADRIATICA KM 462+428 SNC 66026;42.38793901280947;14.351822510361671
13834;Ditta Ranalli Giuseppe Srl;DITTA RANALLI GIUSEPPE - S.R.L.;VIA PORTO 68 66026;42.356897543793664;14.412005363993103
9424;eni;TUCCI ALESSANDRO;S.S.538 MARRUCINA  66026;42.33015051367128;14.390920400619507
50892;OK ORTONA;FEA S.R.L.; C.DA SANTA LIBERATA SNC 66026;42.3431573093235;14.37651472387314
20095;spadera italia srl;"SPADERA ITALIA S.R.L.";CONTRADA CALDARI STAZIONE 48 66026;42.2997057115289;14.360691905021667
55200;TAMOIL ORTONA VIA MONTE MAIELLA, 14;PAD MULTIENERGY S.P.A;MONTE MAIELLA 14 66026;42.356692000000002;14.4027338
14772;TRE ESSE di Seccia Franceco e C SAS;TRE ESSE DI SECCIA FRANCESCO E C. S.A.S.;VIA DELLA LIBERTA' 160 66026;42.346622248023714;14.401949644088745
50449;Eni Paglieta;PETROLBITUMI - SOCIETA A RESPONSABILITA LIMITATA;VIALE ADRIATICO 15 66020;42.17120323550269;14.502043724060053
50077;STAZIONE SERVIZIO IP;CIMINI S.R.L.;C.DA SINAGLIA SNC 66020;42.175135959455254;14.48649287223816
53847;AVENTINO SNC;"AVENTINO S.N.C. DI PARENTE PASQUALE E CASCIATO SALVATORE";COLLESALARDO . 66017;41.978454;14.1334633
48019;Rapa Federico;RAPA FEDERICO;Via Frentana s.n.c SNC 66017;41.986329499967745;14.1355716698411
48438;PALOMBARO FC;CARBURANTI FRATELLI FERRARA SRLS;frazione Limiti Di Sopra 1 66010;42.13530190991244;14.234667932097116
44783;PERANO;ARCHE' S.R.L.;SS 154 KM 1+780  197 66040;42.10913050073304;14.375859126448631
30344;ROSSCARBURANTISASDIROSSETTIGABRIELEEC.;ROSS CARBURANTI S.A.S. DI ROSSETTI ANNA ANGELA E C.;VIA QUADRONI 22 66040;42.109121546417754;14.375867173075676
55644;PIZZOIL;PIZZOIL DI D'ORAZIO ENDI;FUNGITOIO SNC 66040;41.92041709182824;14.236736297607381
28591;IP-ITALA-POGGIOFIORITO;ITALA PETROLI S.R.L.;strada statale 528 km 12+492  66030;42.256776348508275;14.318916499614716
28944;fantacuzzi carburanti;FANTACUZZI ROBERTO;VIA A. MUZIO 18 66020;42.138521839366554;14.596661434986345
34040;Più carburanti;PETROLBITUMI - SOCIETA A RESPONSABILITA LIMITATA;VIA M. CARUSI 67 66020;42.13775317346714;14.588527842397298
39610;ENI 27259;C & C EVENTI DI LEGNINI LIBERATA & C. SAS;STRADA STATALE 539 KM 20 66010;42.21899887051227;14.138380363583565
32457;QUADRI - P.ZZA DEL POPOLO;"IP SERVICES S.R.L.";P.ZZA DEL POPOLO  66040;41.92560199559857;14.288694635582033
43220;mangifesta srl;MANGIFESTA S.R.L.;VIA ARENARO SANTA CECILIA 83 66010;42.38136196255973;14.265587364418025
50108;ENI DI FRANCESCHINI ROCCA SAN GIOVANNI;"FRANCESCHINI S.A.S. DI FRANCESCHINI DAVIDE & C.";S.P SAN VITO-LANCIANO  66020;42.26350091862507;14.43171115826645
18971;PORTOBELLO ROCCA S.GIOVANNI;ANXA ENERGY S.R.L.;CONTRADA SANTA  CALCAGNA SNC 66020;42.259808479959815;14.430517852306366
33908;ROCCACARBURANTI;"ROCCACARBURANTI DI DI DONATO ANNA E C. - S.A.S.";C.da Collegrande  66040;42.070420142018314;14.315395504236221
42320;26700Costantini Carburanti Sas di Giuseppe Costantini;COSTANTINI CARBURANTI DI GIUSEPPE COSTANTINI S.A.S.;via aterno snc 66020;42.421978665129956;14.165290296077728
23499;Eni PV 26622 Florio Raffaele;FLORIO RAFFAELE;MAZZINI 60 66020;42.41960091672077;14.183899084655764
9724;eni station dragonara;DRAGONARA SERVICE S.N.C. DI SANTOLERI CARLO & C.;VIA PIETRO NENNI SNC 66020;42.40156394269239;14.167411923408508
55957;ESSO SAN GIOVANNI TEATINO VIA CAVOUR;PAD MULTIENERGY S.P.A;LOC. SAMBUCETO VIA CAVOUR 22 66020;42.425956;14.193117
30065;MED OIL 48031 Ipercoop;MED OIL - SOCIETA' A RESPONSABILITA' LIMITATA;VIA VIA PO 1 66020, SAN GIOVANNI TEATINO (CH) 1 66020;42.41612195459429;14.170339554548264
49580;P.V. SAMBUCETO;LAURETI OIL SRL;VIA CAVOUR 110 66020;42.42887530772557;14.197054203735192
50436;PAD ;F.C. TRASPORTI S.R.L.;VIA CAVOUR 24 66020;42.42560297474558;14.192844088400685
10692;Sozio Carburanti;DITTA SOZIO DI PASQUALE & INNOCENZO SOZIO S.N.C.;VIA BOLZANO S.N.C. 66020;42.42990119836992;14.193034513630664
34584;SOZIO CARBURANTI METANO;DITTA SOZIO DI PASQUALE & INNOCENZO SOZIO S.N.C.;Via Bolzano  snc 66020;42.42877747610566;14.192067935057139
11980;colella tonino;COLELLA TONINO;VIA MONTENERO SNC 66050;42.039129852285804;14.736612203492314
51715;ENI SAN SALVO;CANNONE VINCENZO;via sandro pertini snc 66042;42.05123300569853;14.740150204678963
52897;GG OIL;GRANATA GIANFRANCO S.R.L.;16 Adriatica, Km. 523-568, SUD  66050;42.070722782779505;14.764133095741272
43826;GGOIL METANO;GRANATA GIANFRANCO S.R.L.;STRADA VECCHIO MULINO  66050;42.055925570817784;14.757030928743006
15894;MED OIL 48043 San Salvo;MED OIL - SOCIETA' A RESPONSABILITA' LIMITATA;VIA LOCALITA' SANT'ANGELO S.N. 66050, SAN SALVO (CH)  66050;42.058175119756115;14.762739830688474
8621;SAN SALVO;"IP SERVICES S.R.L.";via Grasceta snc 66050;42.058194781888545;14.738045247850437
30677;SAN SALVO - S.S. 650;"IP SERVICES S.R.L.";S.S. 650 VALLE TRIGNO KM. 74,150  66020;42.033831875362324;14.74850804662708
8093;Sandro Tranchetti;DI.T.S. S.A.S. DI TRANCHETTI SANDRO & C.;S.S.16 C/da MARINELLE 66050, SAN SALVO (CH) 34 66050;42.06756806892084;14.773296117782593
16623;stazione di servizio opera fuel;VICOLI ANTONIO;PIAZZALE SIV SP TRIGNINA SNC  66050;42.05664725477979;14.753017276525497
42677;DISTRIBUTORE IP di DI PAOLO PAOLO;DI PAOLO PAOLO;VIA MATTEOTTI 114 66038;42.297285961506915;14.443797969180423
43007;DISTRIBUTORE IP STANISCIA ADRIANA;STANISCIA ADRIANA;VIA LANCIANO 27 66038;42.295375831907634;14.411020317790985
49353;ESSO;DI SIPIO ROCCO TRASPORTI S.R.L.;16 Adriatica, Km. 19, sud - 66038;42.30974125366344;14.441498175113002
54907;ESSO - SAN VITO CHIETINO - VIA ADRIATICA NORD, 19;PAD MULTIENERGY S.P.A;S.S. 16 KM. 478+687 19 66038;42.309750999999999;14.441496000000001
52339;Stazione IP Brecciaio - Di Toro Srl;DI TORO - SOCIETA' A RESPONSABILITA' LIMITATA SEMPLIFICATA;CONTRADA CASTELLATA 222 66037;42.14004321411292;14.392067790031428
26114;16575 SANTA MARIA IMBARO CHIETI ;ENI FUEL S.P.A.; S.S.524 KM.5,500  66030;42.214672750799494;14.434782564640045
47715;SANTA MARIA IMBARO;MENNILLI PETROLI S.R.L.;VIA NAZIONALE PER LANCIANO 26 66030;42.21754700000002;14.442990326389301
39756;GIACOMUCCI SNC;" GIACOMUCCI S.N.C. DI GIACOMUCCI GIOVANNI & C. ";CONTRADA RAGNA, 47 66020;42.09743409200307;14.598743990063667
22050;Marrone Carburanti;MARRONE GIANPIERO;ABRAMO RANALLI 1/2 66020;42.10962318512206;14.565018564462662
33746;CARBURANTI TUCCI;TUCCI ADELE;STRADA PROVINCIALE 77  66045;41.81432625117751;14.485692197493677
37987;Eni 26610;AZZURRA DI GALASSO DAVIDE & C. S.A.S.;C.da Colle della Signora SNC 66010;42.349659207196076;14.318630039724667
38476;PETROL GAMMA TORINO DI SANGRO;PETROL GAMMA S.R.L.;contrada schiavonesco 18 66020;42.207475932466814;14.571889042854309
47702;SANGRO EST;SARNI S.R.L.;A14 BOLOGNA-BARI-TARANTO, Km. 428.8, BO - 66020;42.20078538718963;14.562347186326482
36284;SANGRO OVEST;SARNI S.R.L.;Autostrada A14 BOLOGNA-BARI-TARANTO, Km. 428+800, dir. SUD - 66020;42.199835592582275;14.56280305981636
32369;TORINO DI SANGRO - CROCE DI MARE;"IP SERVICES S.R.L.";VIA CROCE DI MARE   66020;42.19418509618471;14.544673760747855
44503;Area n. 2 San Giovanni Tornareccio;CARBURANTI FRATELLI FERRARA SRLS;S.S.364 n.16   66030;42.017864000123;14.419063000123
50905;IP TORNARECCIO;DITTA DI BATTISTA ALBERINDO S.R.L.;via Roma 56  64014;42.037770545637635;14.411496650341217
20924;Area Torrevecchia Teatina;GOLDENGAS - SOCIETA' PER AZIONI;Statale 649 di Fondo Valle Alento, Km. 4+609, dir. NORD - 66010;42.392024841344494;14.25085611641407
24792;IP -CH- TUFILLO;ITALA PETROLI S.R.L.;SS 650 KM 58,600 - TRIGNINA SNC 66050;41.918149468203445;14.66151773929596
35651;AGIP F.LLI CIPOLLA SRLS;F.LLI CIPOLLA SOCIETA' A RESPONSABILITA' LIMITATA SEMPLIFICATA;LOCALITA' BUONANOTTE SNC 66054;42.07668569482614;14.749616906046867
6092;AREA DI SERVIZIO IP;MEETING S.R.L.;Statale 16 Adriatica, Km. 504, dir. SUD/NORD - 66054;42.16389250555079;14.64579463005066
9753;ENI;ENI;CORSO MAZZINI 369 66054;42.12485702599276;14.703525519049094
56438;ENI;CF POWER S.A.S. DI CANNONE LEONARDO E C.;STATALE 16 NORD KM.511 . 66054;42.158910451468294;14.70979845550583
32460;eni d'annunzio;D'ANNUNZIO ROBERTO - STAZIONE DI SERVIZIO I.P.;via ciccarone  113 66054;42.12526772321596;14.7107011687865
27580;PORTOBELLO VASTO;VASTO ENERGY S.R.L.;CIRCONVALLAZIONE HISTONIENSE SNC 66054;42.120048551131184;14.700513035058975
9774;SHELL GOLDENGAS;BEB S.R.L.;VIA CARDONE SNC 66054;42.09783591510486;14.701091051101685
19174;Stazione Esso ;F.LLI COSTANTINI - S.N.C. DI COSTANTINI ANGELO & CO.;CIRCONVALLAZIONE HISTONIENSE 54 66054;42.09822241118974;14.69696044921875
26665;TOTALERG;BORDONI PIETRO & C. S.N.C.;CORSO MAZZINI 242 66054;42.12209159141322;14.70568030555728
32276;VASTO - MAZZINI;"IP SERVICES S.R.L.";CORSO MAZZINI  66054;42.11811932521587;14.708333979720237
23379;Vasto Via del Porto;T.D.P. CARBURANTI S.R.L.;VIA DEL PORTO SN 66054;42.14668987996914;14.71304565668106
55473;DI CRISCIO VINCENZO;DI CRISCIO VINCENZO;558 KM 42+487 STAZ. FF.SS - SNC 66047;44.7821698;7.9091788
52788;LA SOSTA;LA VILLA NOVA SRL;S.S.652 F.V. SANGRO KM. 41 S.N.C. 66047;42.466;14.2138
33760;STANZIANI MASSIMO;STANZIANI MASSIMO;VIA PER PENNADOMO SN 66047;41.94485209792204;14.348364472389221
25893;Tommaso De Luca carburanti;TOMMASO DE LUCA CARBURANTI S.R.L.;via val di foro 136 136 66010;42.312308274268474;14.239075183868408
20368;Stazione di Servizio IP;ROTOLA FABIO;VIA VIA G. MATTEOTTI 2 65020, ALANNO (PE) 2 65020;42.289041548245685;14.006262160713163
26095;6866 BOLOGNANO PESCARA ;ENI FUEL S.P.A.;Statale 5 Via Tiburtina Valeria, Km. 197, dir. PIANO D'ORTA - 65020;42.25214350067128;13.952057361602783
46427;8144;T.D.M. S.R.L.;153 KM 3+940 SNC 65022;42.21501254079113;13.820407210450753
22691;dist. totalerg-goldengas;ORLANDO ZOPITO;STRADA PROVINCIALE VARIANTE SOTTO CAPPELLE  65010;42.46660789680314;14.094767255744253
52524;Distributore Eni Claudio Di Piero;DI PIERO CLAUDIO;S.S 487 km17+555  65023;42.16438580624492;14.003527603736709
34510;Distributore Eni Tocco;TOCCO NICOLINO;Strada Statale 487, Km. 17.555, dir. Pescara  65023;42.164401066571344;14.00350883603096
51040;IP Catignano AL-GEDI SRL;IP Catignano AL-GEDI SRL;602 di Forca di Penne, Km. 37+092, cepagatti  065010;42.349543949455736;13.96608825016858
44622;BPS PETROLI S.R.L.;BPS PETROLI S.R.L.;602 di Forca di Penne, Km. 50+200, PESCARA - 65012;42.365494;14.087686
48602;DAM CARBURANTI ;COMPRESSIONE METANO ABRUZZO DI BOCCANERA GIOVANNI & C. S.A.S.;VIA VIA PONTE DELLE FASCINE S.N. 65012, CEPAGATTI (PE)  65012;42.33959240486815;14.11664276838917
49885;DANILO DI GIOACCHINO;DI GIOACCHINO DANILO SRL;81 Piceno Aprutina, Km. 128+0.75, sud - 65012;42.36531431464556;14.087373330625041
41203;Energia;ENERGIA S.N.C. DI AMBROSINI ALESSANDRO & C.;via Nazionale snc 65012;42.39013063478537;14.13216233253479
49582;P.V. CEPAGATTI;LAURETI OIL SRL;VIA MATILDE SERAO 18 65012;42.345453890357575;14.112605464729866
10899;SOPEA CARBURANTI S.R.L. - CEPAGATTI (PE);SOPEA CARBURANTI S.R.L.;DANTE ALIGHIERI SNC 65012;42.36556000281429;14.091375321149826
10898;SOPEA CARBURANTI S.R.L. - VILLANOVA (PE);SOPEA CARBURANTI S.R.L.;FRAZ. VILLANOVA LOC. GIANSANTE SP 602 KM 6,000  65012;42.41293734429773;14.151050448417664
14589;TOTALERG;CIMINI ATTILIO;Località Bucceri  65012;42.34604101278591;14.129356741905212
27382;8145;T.D.M. S.R.L.;S.S. 16 KM 438+860 SNC 65013;42.5241915850161;14.140353798866272
46112;Angolana Carburanti ;ANGOLANA CARBURANTI SNC DI DI PRONIO GIUSEPPE E CELLINESE FILIPPO;16 Adriatica, Km. 438+538, Sud   65013;42.526123000123;14.137977000123
50763;ENI - CITTA' S. ANGELO Viale Petruzzi 108;PAD MULTIENERGY S.P.A;VIALE PETRUZZI 108 65013;42.52076102121929;14.118219326991385
34060;ENI AREA SERVIZI SAS;AREA SERVIZI S.A.S. DI BRUNA GIOVANNETTI;VIA XXII MAGGIO 1944 1 65013;42.521784732985296;14.139023456344603
55076;Eni CSA;PETROLBITUMI - SOCIETA A RESPONSABILITA LIMITATA;S.MARTINO BASSA LUNGOFINO 20 65013;42.509347173048674;14.124045256958023
8824;Francesco Di Maurizio;DI MAURIZIO FRANCESCO;VIA G.D'ANNUNZIO  65013;42.51922728605931;14.062221302997614
34061;Laureti Petroli Srl - Città Sant'Angelo;LAURETI PETROLI S.R.L.; LOC. MADONNA DELLA PACE SNC 65013;42.52008531041145;14.097542390227318
52051;Martina REfuel - San Martino Bassa;Martina REfuel - San Martino Bassa;Strada Lungofino 6 65013;42.51864038295636;14.134222049316174
22041;OCCHIOCUPO O. & SAGAZIO E. SNC;OCCHIOCUPO OSVALDO & SAGAZIO ERNESTO S.N.C.;STRADA PROVINCIALE LUNGOFINO 20 65013;42.51494951745635;14.129155576229095
50889;Q8;DILA.OLI S.A.S. DI ANDREOLI PAOLO E DI LAURO GIOVANNI;srada statale Lungofino km 4+442 65013;42.491147835066094;14.00025014219591
54245;GRANCHELLI ANTONIO;GRANCHELLI ANTONIO;Contrada Fontebruna 2 65010;42.37912263412054;13.904054142189013
49828;Stazione di Servizio Granchelli Claudio;GRANCHELLI CLAUDIO;VIA ABATE CASARI SN 65010;42.365012644447255;13.886597454547882
52046;Martina REfuel - Collecorvino;Martina REfuel - Collecorvino;Viale Italia 131 65010;42.44442990960114;14.048592650788477
49578;P.V. CONGIUNTI;LAURETI OIL SRL;VIA D'ANNUNZIO-LOC.CONGIUNTI 49 65010;42.47327195266131;14.082596368867897
49065;Petrol Gamma collecorvino;PETROL GAMMA S.R.L.;Strada statale 151 della Valle del Tavo, Km. 12+450 sn 65010;42.43639892443602;14.036095738410944
19569;SCIARRA ALBERTO ;SCIARRA ALBERTO;CONTRADA SANT'ANATOLIA  65020;42.30661271710979;13.933699652552605
50964;ENI;DILA.OLI S.A.S. DI ANDREOLI PAOLO E DI LAURO GIOVANNI;VIA TEVERE 110 65010;42.49107655405831;14.000310151169536
28966;Cega Carburanti di Pompili Gabriele;DI TULLIO AMELIA S.N.C. DI POMPILI GABRIELE;SAN ROCCO 19 65010;42.44246733957611;13.82150300779574
28590;IP-ITALA-LETTOMANOPPELLO;ITALA PETROLI S.R.L.;Strada Provinciale Scafa Manoppello, km3  65020;42.25207758694771;14.02350202202797
44876;OK CARBURANTI;OK CARBURANTI; C.DA SCRIZZETTO 45 65014;42.38409023495007;13.964299388885479
54627;OK LORETO APRUTINO;FEA S.R.L.;SCRIZZETTO 45 65014;42.38405433811068;13.964336575815704
49066;Petrol Gamma Loreto Aprutino;PETROL GAMMA S.R.L.;81 Piceno Aprutina, Km. snc, 00 - 65014;42.4036289378637;13.952609300613398
49826;Stazione di Servizio ENI;GRANCHELLI CARBURANTI DI GRANCHELLI ALESSIO;Strada Provinciale 151 km7+424 SNC 65014;42.431656030462065;13.983418588954919
28585;IP-ITALA-MANOPPELLO;ITALA PETROLI S.R.L.;Statale 5 Via Tiburtina Valeria, Km. 206+360, dir. PESCARA  65024;42.28491711771201;14.029709994792938
5535;MANOPPELLO;"IP SERVICES S.R.L.";Via Tiburtina 2 65025;42.31568075027321;14.077930813491776
43536;SELF AREA 06892 ;CARLOTTA SAS DI DI NIZO MIHALEFF ADRIANA & C.;STRADA STR-ST-5 TIBURTINA S.N. 65025, MANOPPELLO (PE) . 65024;42.31112737052609;14.059747806854261
43535;SELF AREA ENI 54447;CARLOTTA SAS DI DI NIZO MIHALEFF ADRIANA & C.;VIA ALDO MORO 25 65024;42.31317818227437;14.072006549360708
41318;SHELL/GOLDENGAS;ESSO/GOLDENGAS;via tiburtina valeria km 208+685 SN 65024;42.299047861940686;14.046567678451538
26098;26874 PESCARA MONTESILVANO;ENI FUEL S.P.A.;VIA TOGLIATTI/VIA FORESTE 13 65015;42.50167907701153;14.13714051246643
33984;AREA DI SERVIZIO D. STARINIERI E A. Bellante S.N.C;AREA DI SERVIZIO STARINIERI DAVIDE & F. S.N.C.;VIA GIUSEPPE VERROTTI 21 65015;42.504493504668616;14.162255121965018
40831;Carbur - Montesilvano;Carbur - Montesilvano;Corso Umberto 2 65015;42.519530986197594;14.14515495300293
4825;DAM CARBURANTI;D.A.M. DI BOCCANERA GIOVANNI & C. S.A.S.;VIA VIA CERVINO 1 65015, MONTESILVANO (PE) 1 65015;42.491865835349095;14.173233500552328
9627;ENI;STAZIONE DI SERVIZIO DI FERRI ANTONIO;via Aldo Moro 78 65016;42.51923820446039;14.159004539251328
9669;Eni Corso Umberto Montesilvano;PETROLBITUMI - SOCIETA A RESPONSABILITA LIMITATA; CORSO UMBERTO I 243 65015;42.512039700730234;14.155743541139259
56664;ESSO MONTESILVANO VIA VERROTTI;ESSO MONTESILVANO VIA VERROTTI;Via G. Verrotti  65015;42.502824;14.163999
54678;IP;ALEX CARBURANTI DI CERRITELLI ALESSANDRO;GIUSEPPE VERROTTI 168 65015;42.498392524379085;14.16838431909028
37941;IP - AG CARBURANTI;TOTALERG;Via Verrotti 168 65015;42.498376732014776;14.168175190643524
51038;IP Montesilvano;IP Montesilvano;via verrotti 58 65015;42.50716714202031;14.157444238662714
54427;LOTOGAS;KIMERA S.R.L.;VESTINA 276 65015;42.5068588257;14.1392774582
45661;LOTOGAS;PERSEFONE S.R.L.;VIA VESTINA 276 65015;42.506859000123;14.139225000123
52042;Martina REfuel - Montesilvano Via Cavallotti;Martina REfuel - Montesilvano Via Cavallotti;Via Felice Cavallotti 12 65015;42.51452905822219;14.14197716471931
52045;Martina REfuel - Montesilvano Via Verrotti;Martina REfuel - Montesilvano Via Verrotti;Via Verrotti  65015;42.494978843183056;14.17290153208902
52043;Martina REfuel - Montesilvano Via Vestina;Martina REfuel - Montesilvano Via Vestina;Via Vestina 408 65015;42.501276490346356;14.133134149707084
44784;MONTESILVANO;ARCHE' S.R.L.;VIA ALBERTO D'ANDREA nell'ambito PORTO ALLEGRO 1 65015;42.521296978110655;14.14929864237547
32291;MONTESILVANO - MAZZOCCA;"IP SERVICES S.R.L.";S.S. 16 KM. 442,620 - GEST COMUNE  65015;42.49906044877983;14.17089463558193
34232;MONTESILVANO - SS 16 BIS;"IP SERVICES S.R.L.";VIA VESTINA - S.S. 16 BIS KM. 18,071  65015;42.5098583280203;14.143002682209044
51168;Montesilvano Tiber;TIBER S.R.L.;VIALE RIVIERA 256 65015;42.49433228794628;14.18448894961099
48911;OK MONTESILVANO;FEA S.R.L.;16 Adriatica, Km. 14+150, nord  65015;42.481663897471755;14.115263898147598
32464;SELF AREA IP;EVANGELISTA F. & STARINIERI F. S.N.C.;VIA CHIARINI sn 65015;42.50497623824829;14.142814055085182
38433;TIBER MONTESILVANO;DI FELICE GIANCARLO & C. S.N.C.;VIA ALDO MORO SNC 65015;42.494325785186675;14.184498265385628
38895;VESTINA CARBURANTI;PETROL VESTINA SOCIETA' A RESPONSABILITA' LIMITATA;VIA VESTINA 431 65015;42.4880696700691;14.120869573872028
45361;MARCO GIAMMARINO;GIAMMARINO MARCO;SS 151 KM 17.750 65010;42.456021032669255;14.08078670501709
52050;Martina REfuel - Moscufo;Martina REfuel - Moscufo;Via Cristoforo Colombo  65010;42.4518732619711;14.069379881455728
18903;eni;CERASA PASQUALE;SR 602  42+530 CONTRADA CASALI  169/A 65010;42.354852731490794;14.022008031606674
23216;ENI;DIAR S.N.C. DI D'ADDAZIO VINCENZO & C;S.S. 81 KM 107+849 snc 65017;42.42331752523229;13.929872810840607
35506;IP;FRANCESCO DI MARCOBERARDINO;CIRCONVALLAZIONE ALDO MORO 45 65017;42.45572912974955;13.924823552370071
49579;P.V. PENNE;LAURETI OIL SRL;C.DA PONTE S.ANTONIO SNC 65017;42.42593450518861;13.927634561513104
7988;STAZIONE DI SERVIZIO ENI;DI SIMONE LUCIANO & C. S.N.C.;Statale 81 Piceno Aprutina, Km. 103+300, dir. SUD - -;42.45096387939324;13.934193849563599
27778;3862;T.D.M. S.R.L.;RIGOPIANO 61 65124;42.46511008072824;14.201256993254106
46087;54443;GESTIONI INNOVATIVE ITALIA S.R.L.;viale G. Bovio  414 65123;42.479842000123;14.194619000123
42057;API;SAMBENEDETTO MARIO;VIA ENZO FERRARI S. 65124;42.4690573969664;14.202182932540836
19303;API-IP;PETRUCCI PAOLO;VIA D'AVALOS ANG. VIA SPAVENTA  65126;42.460272440988774;14.224861218994874
55205;ARCHE' PESCARA;ARCHE' S.R.L.;SS16 Adriatica 385  65100;41.6284672;13.7854976
14991;DAMBROSIO CARBURANTI ;D'AMBROSIO CARBURANTI DI D'AMBROSIO MARCO;VIA DEL SANTUARIO 188 65125;42.46917516983961;14.192322655155976
46265;DI CECCO ROBERTO;DI CECCO ROBERTO;VIA RAIALE  65128;42.45343253767108;14.19291839003563
51362;ENI - COSTANTINI CARBURANTI SAS PV26864;COSTANTINI CARBURANTI DI GIUSEPPE COSTANTINI S.A.S.;STRADA PRATI 80 65125;42.46422821157537;14.17802886549603
30131;ENI D'ALESSANDRO;D'ALESSANDRO ANTONIO;VIA TIBURTINA 2 65128;42.458752274378696;14.210392252045494
52322;Eni Pellegrini;LORENZO PELLEGRINI;VIA DELLA BONIFICA 40 65129;42.450678890930604;14.23429012298584
9670;Eni Pescara via Rio Sparto;PETROLBITUMI - SOCIETA A RESPONSABILITA LIMITATA;RIO SPARTO 12 65129;42.4463872619189;14.211847041317014
51518;ESSO - PESCARA VIA PAPA GIOVANNI XXIII - PORTO;PAD MULTIENERGY S.P.A;VIA PAPA GIOVANNI XXIII - PORTO  65100;42.46533622155198;14.226201137653485
16572;ESSO 5622;CORRADETTI BRUNO EREDI S.A.S. DI MAURIZIO CORRADETTI & C.;Statale 5 Via Tiburtina Valeria, Km. civico 152, dir. mare/monti - 65128;42.45252139759592;14.205658882856369
32382;IP;CIALINI GIACOMO; PAOLUCCI MOLO NORD SNC 65121;42.46662121062956;14.222286567091942
54293;IP;ROYAL CAR DI T&S SRLS;Viale G.Bovio 240 65124;42.4476672;14.2245888
49242;Ip;DI IULIO GIUSEPPE;Piazza Ovidio 1.2  65100;42.45306172115843;14.220435181971752
45482;IP - Italiana Petroli;FABIO CAR WASH - DI DI GIAMBATTISTA FABIO;VIA BARDET 88 65126;42.46166429131082;14.222893964633727
41661;IP API anonima petroli italiana;BRATTELLI SERGIO;VIA TIBURTINA 134 65100;42.45382536875599;14.206780046224594
52044;Martina REfuel - Pescara Piazza Duca;Martina REfuel - Pescara Piazza Duca;Piazza Duca degli Abruzzi 74 65124;42.48090253770293;14.193574732651948
52047;Martina REfuel - Pescara Strada Cavone;Martina REfuel - Pescara Strada Cavone;Strada Fosso Cavone  65129;42.44070105244694;14.19740590350823
52048;Martina REfuel - Pescara Via Fonte;Martina REfuel - Pescara Via Fonte;Via Fonte Romana 101 65124;42.46365458352955;14.186889626290634
52068;MED OIL 47930 - VIA BARDET;MED OIL - SOCIETA' A RESPONSABILITA' LIMITATA;VIA VIA BARDET ANGOLO VIA VESPUCCI SNC 65127, PESCARA (PE) snc 65126;42.46170220433804;14.222972903344688
5536;PESCARA;"IP SERVICES S.R.L.";Via Tiburtina Valeria 386 65128;42.42911187863528;14.185954084655805
47416;PESCARA ;SYNERGY S.R.L.;PIAZZA DUCA DEGLI ABRUZZI  34/36 65124;42.481597103414316;14.192089578022328
31028;PESCARA - BOVIO 334;"IP SERVICES S.R.L.";VIALE BOVIO 334 65100;42.47814842301728;14.19662904218842
31491;PESCARA - PINETA;"IP SERVICES S.R.L.";VIA DELLA PINETA 24 65100;42.45159901046903;14.229982565641421
6674;PESCARA VIA TIRINO;SERVIZI & GESTIONI ITALIA S.R.L.;VIA  TIRINO SNC 65100;42.44459174860404;14.215495662565672
29329;PV 6861;GESTIONI INNOVATIVE ITALIA S.R.L.;VIA DEL CIRCUITO KM.1+637 136 65121;42.4631099112261;14.201862215995789
25393;PV 6896;GESTIONI INNOVATIVE ITALIA S.R.L.;VIA MARCONI ANGOLO VIA PINDARO 356, 65126  ;42.452310432328886;14.2270427942276
9541;PV ROCCAMORICE;PETROL ABRUZZO SRL SOCIETA' UNIPERSONALE;VICINALE MENE' 6 65129;42.21063122221067;14.025327265262604
50390;PV. G.Marconi 196;PETROL FUEL S.P.A.;VIA GUGLIELMO MARCONI 200 65126;42.457713998418726;14.220650401039498
53396;Q8;ALL'S SERVICE SOCIETA' A RESPONSABILITA' LIMITATA SEMPLIFICATA;Via Enzo Ferrari 43 65124;42.3420964;14.1582363
48021;Q8;FLORINDI S.A.S. DI FLORINDI GABRIELE & C.;VIA DEL CIRCUITO 107 65124;42.463396964758466;14.2030946032928
46037;Q8 PESCARA - TIBURTINA ANG. FONTANELLE;PAD MULTIENERGY S.P.A;Via Tiburtina KM229+ 840 Angolo Fontanelle 386 65129;42.43762996136446;14.195016440484096
42718;SMART OIL;D'ORAZIO GABRIELE;GIOACCHINO DA FIORE SNC 65127;42.45181531301959;14.218355418297506
41722;SMARTOIL;MI.CA. S.R.L.;LUNGOMARE PAPA GIOVANNI XXIII SNC 65126;42.464964121942074;14.233048930764198
40712;SOZIO CARBURANTI;DITTA SOZIO DI PASQUALE & INNOCENZO SOZIO S.N.C.;TIBURTINA 125 65129;42.45348893932121;14.206822961568832
45048;STAZIONE DI SERVIZIO IP;DESIDERIO LORELLA;VIA DI SOTTO 124/8 65125;42.477172138298776;14.170490503311157
46263;STAZIONE ENI DI CECCO ROBERTO;DI CECCO ROBERTO;VIA TIBURTINA VALERIA 362 66020;42.43971492681314;14.196078944680153
18374;TIBER PESCARA;DI FELICE GIANCARLO & C. S.N.C.;VIA E. FERRARI  65124;42.469592186742396;14.201663732528687
36610;Eni;DI MATTEO ALESSIO;VIA ALDO MORO 68 65019;42.401838459475954;14.053228944540024
9672;Eni Pianella;PETROLBITUMI - SOCIETA A RESPONSABILITA LIMITATA; COLLE FLORIDO SNC 65019;42.42603770480892;14.106577218981897
26800;Stazione servizio ENI Di Federico Vincenzo;DI FEDERICO VINCENZO;VIA Dei platani 42 65019;42.390369312164154;14.106832198804113
24163;Napoletano carburanti;NAPOLETANO CARBURANTI S.R.L.;MARCONI 39 65010;42.47239916428712;13.991827381823555
9045;Eni ;DEL FATTORE RINO;SAFFI,  65026;42.174519746406645;13.830993175506592
47694;ESSO - POPOLI SS 5 KM 180+705;PAD MULTIENERGY S.P.A;SS 5 KM 180+705  65026;42.1660361932007;13.834263501120354
16845;STAZIONE DI SERVIZIO TAMOIL DI CASCIANO E DEL CONTE;CASCIANO JEAN CHARLES E DEL CONTE GABRIELE - S.N.C;5 Via Tiburtina Valeria, Km. 182, PESCARA - 65026;42.175657151790546;13.836903423070908
43356;Eni Rosciano;PETROLBITUMI - SOCIETA A RESPONSABILITA LIMITATA;VIA SETTENTRIONALE 6 65020;42.33676273558266;14.020678400993347
6296;Più;PETROLBITUMI - SOCIETA A RESPONSABILITA LIMITATA;LOCALITA' S.ANTONIO S.N. 65020;42.324913744897636;14.047126151065072
47591;MED OIL 48243 San Valentino;MED OIL - SOCIETA' A RESPONSABILITA' LIMITATA;VIA LARGO S.NICOLA SNC 65020, SAN VALENTINO IN ABRUZZO CIT. (PE)  65020;42.23342632197092;13.987956006182962
51768;SELF AREA ENI 06871;L.M. S.A.S. DI LANCIERI LORENZO & C.;5 Via Tiburtina Valeria, Km. snc, POPOLi - 65027;42.264397085444635;13.999384387145115
48091;16876;GESTIONI INNOVATIVE ITALIA S.R.L.;via maiella  16 65010;42.42062887098436;14.156715859465118
42357;26875 ENI DI COSTANTINI CARBURANTI SAS;COSTANTINI CARBURANTI DI GIUSEPPE COSTANTINI S.A.S.;LOCALITA' VILLA SANTA MARIA SNC 65010;42.458843890432476;14.116366133093834
54282;ELLE FOOD AND FUEL;ELLE FOOD AND FUEL;VAR.SS16 ADRIATICA KM 438 584 65010;42.4536257;14.1756621
49208;ESSO - SPOLTORE VIA MARE ADRIATICO;PAD MULTIENERGY S.P.A;VIA MARE ADRIATICO 117 65010;42.44260302039058;14.173516761678856
33985;IP STAZ.SERVIZIO SBORGIA;SBORGIA LUCIO;Statale 602 di Forca di Penne, Km. 4+325, dir. pescara - 65010;42.42611949543363;14.159451127052307
52049;Martina REfuel - Spoltore;Martina REfuel - Spoltore;Via Fonte Vecchia  65010;42.46251603913594;14.173654078115778
49581;P.V. SPOLTORE;LAURETI OIL SRL;VIALE EUROPA 74 65010;42.45412431357234;14.188851498041284
6297;Q8;PETROLBITUMI - SOCIETA A RESPONSABILITA LIMITATA;Statale 16 bis Adriatica, Km. 448 + 4, dir. Nord - 65010;42.45435216632234;14.176399612716637
47216;SHELL SPOLTORE - V.LE EUROPA;PAD SPOLTORE - V.LE EUROPA;V.le Europa  65010;42.447744123766036;14.180162656297664
31830;Sozio Carburanti;DITTA SOZIO DI PASQUALE & INNOCENZO SOZIO S.N.C.;Viale Europa 97 65010;42.4518995351078;14.186382694442727
50295;Spoltore;IPERSTAROIL S.R.L.;VIA S.P. 602 VIA MAIELLA SNC ;42.417290856031876;14.154336020488087
11760;SPOLTORE- VIA F.FELLINI 8;SERVIZI & GESTIONI ITALIA S.R.L.; VIA F.FELLINI 8 65010;42.45335145419278;14.181535626983646
25598;TOTALERG di Ciabotti Mario;CIABOTTI MARIO;Statale 5 Via Tiburtina Valeria, Km. 192, dir. Tocco Casauria - -;42.2262460162643;13.924731016159058
44625;F.LLI DI BERARDINO & C.snc;SOC.F.LLI DI BERARDINO & C. SNC;VIA SAN CLEMENTE 45 65029;42.239368450725756;13.92740249633789
43592;TORRE DE' PASSERI;ARCHE' S.R.L.;Via Roma 154 65029;42.24645694212551;13.939978376074805
33961;esso;GIELLE DI DI PASQUALE GABRIELLA & C. S.A.S.;Statale 16 Adriatica, Km. 401,77, dir. sud - 64011;42.820508335080014;13.925978243350983
42524;IP BASCIANI;DITTA DI BATTISTA ALBERINDO S.R.L.;VIA ASCOLANA 28 64011;42.825927063901375;13.915956140080993
26958;Sax;SOC. SAX DEL RAG. MILKO SACCUTI & C. SAS;VIA ROMA SNC 64011;42.82784755735968;13.922070164495835
16082;AUTOSERVICE ;AUTOSERVICE F.LLI ANASTASI DI ANASTASI FABRIZIO & C. S.N.C.;VIA PAPA GIOVANNI XXIII  64010;42.83410408242008;13.736491575837135
49360;LA SOSTA;LA SOSTA RE S.R.L.;CONTRADA PIANE DI TRONTO 2 64010;42.852521655163805;13.726314416582003
38084;DISTRIBUTORE IP di SILVIO DI DANTE ;DI DANTE SILVIO;CONTRADA CARBONESCA 7 64031;42.508834795381816;13.792094485743633
22681;Alonzo Gina;ALONZO GINA;C.da Colle Sciarra  64032;42.5835154901221;13.999622401018424
44179;ESSO - TRAINI STEFANO;TRAINI STEFANO;Viale Gran Sasso  3/5 64032;42.5789585868589;13.978493213653566
52416;FORCELLA CARBURANTI;FORCELLA ANDREA;via circonvallazione sud 2 2 64032;42.57950961858221;13.980199098587036
52425;Fuel Solution;FUEL SOLUTION SOCIETA' A RESPONSABILITA' LIMITATA;553 di Atri, Km. 15 + 600, Atri - 64032;42.613676412325894;13.926436230540276
44124;Pa.Co carburanti;PA.CO. DI PAVONE CESARE E CORRADI SILVIO & C. S.N.C.;viale gran sasso  60 64032;42.57996979546983;13.971025943756104
34217;PETTANICE ANTONIO;PETTANICE ANTONIO;VIA RISORGIMENTO 76 64032;42.577693367963214;13.986026868224144
54438;Stazione di Servizio IP - Atri;COLETTI GABRIELLA;Viale del Risorgimento 76 64032;42.5595161;13.9221984
55709;STAZIONE IP;PETTANICE RAFFAELE;VIA VIALE ALDO MORO SS 553 KM. 28+515 SNC 64032, ATRI (TE) 64 64032;42.5754624;13.975552
55370;DI STEFANO GLOBAL ENERGY S..R.L.;DI STEFANO GLOBAL ENERGY S..R.L.;VIA SALARA SNC 64030;42.61094571247862;13.724898397922516
55973;Pegasoil Carburanti;PEGASOIL CARBURANTI SOCIETA' A RESPONSABILITA' LIMITATA SEMPLIFICATA;Contrada salara  snc 64030;42.61093455635143;13.724882921673593
51390;areafuel di Zancocchia e C;areafuel di Zancocchia e C;VIA NAZIONALE PER TERAMO 79 64020;42.706548794166366;13.834320455789566
49613;P.P. CARBURANTI;DEMOL-SCAVI DI PEDICONE PASQUALINO & C. S.A.S.;Borgo Martini Alfonso  64020;42.74114791168694;13.811459896300953
53399;Sandro Pomponio;POMPONIO SANDRO;Via Roma  73 64033;42.5066496;13.7986048
42333;DI CIPRIANO;DI CIPRIANO S.N.C. DI DI CIPRIANO KATIA E LAURA;VIA PIANE A CANFORA SNC 64012;42.72359765479365;13.727846816182137
52459;Distributore carburanti Attili Marisa;ATTILI MARISA;FRAZIONE SANT'ONOFRIO 91 64012;42.75981833776507;13.736443906745901
6300;Eni Campli Ovest;PETROLBITUMI - SOCIETA A RESPONSABILITA LIMITATA;Strada Provinciale 3 km 4 dir. Ovest  64012;42.7188444228237;13.7385738524506
34120;PETROL PICENA - Floriano di Campli;PETROL PICENA SRL;Via Fonte a Collina - Loc. Floriano 318 64012;42.76965526876132;13.748803585767746
6299;Più Matic;PETROLBITUMI - SOCIETA A RESPONSABILITA LIMITATA;Strada Provinciale 3 km 4 dir. Est   64012;42.71909916229077;13.739175796508789
38711;TOTALERG;CIVITELLA ARISTIDE;STRADA PROVINCIALE 262 SNC 64012;42.714451947509225;13.664590269327164
42772;SCUPPA ROBERTO;SCUPPA ROBERTO;LOCALITA' PIANE DI CORTE 5 64020;42.62633977893356;13.810173869132996
37885;di donato giovanni e saimon snc;di donato giovanni e saimon snc;via nazionale 288 64020;42.628340134653996;13.855987116667166
53684;MENNILLI PETROLI ;MENNILLI PETROLI S.R.L.;NAZIONALE CASTELNUOVO 203 64020;42.629202;13.8492962
56132;Stazione di Servizio Comunale - Comune di Castelli;COMUNE DI CASTELLI;VIA F.A. GRUE - S.P. 37  64041;42.48866122204884;13.710821812907996
52276;ENI Castiglione;PETROLBITUMI - SOCIETA A RESPONSABILITA LIMITATA;STRADA STATALE KM 86+10 SNC  64034;42.51943511692679;13.903924524784083
6298;Più;PETROLBITUMI - SOCIETA A RESPONSABILITA LIMITATA;CORSO UMBERTO PRIMO 10 64034;42.532768676181554;13.878120688152308
52106;P.V. CASTILENTI;LAURETI OIL SRL;PIAZZA MARCONI  64035;42.53370256791807;13.917708164073947
49585;P.V. CASTILENTI;ENNIO LAURETI S.R.L.;PIAZZA MARCONI 1 64035;42.533677571946185;13.917542748044074
39876;Q8 Castilenti 1;PETROLBITUMI - SOCIETA A RESPONSABILITA LIMITATA;Contrada Cancelli   64035;42.51477930362622;13.930988013744354
18387;IP;DI GIOSIA MARCELLO;VIA CUPELLO  64036;42.584386135875626;13.856527134776115
52362;DEMI PETROLI;AUTOFFICINA HOXHA DI HOXHA RAFFAELE;81 Piceno Aprutina, Km. 13750, NORD - 64010;42.79351396050513;13.644885074343991
26323;PETROL PICENA - Villa Lempa;PETROL PICENA SRL;Via 2 Giugno, Loc. Villa Lempa  64010;42.786563756946755;13.646905794739723
41761;STAZIONE DI SERVIZIO GRAMA SRLS;GRAMA SRL SEMPLIFICATA;VIA FRAZ.ORNANO GRANDE SS 491 SNC 64042, COLLEDARA (TE) snc 64042;42.52910840087328;13.656424283981323
56850;DISTRIBUTORE IP;NEW SIXTYNINE SRLS;CIRCONVALLAZIONE SUD SN 64010;42.85519;13.81855
42523;IP BONIFICA DEL TRONTO;DITTA DI BATTISTA ALBERINDO S.R.L.;SP 1 PIANE TRONTO KM 9 +110 64010;42.864525474648865;13.795470063262883
35572;stazione total-erg;VALORI ANDREA;via circonvallazione sud snc 64010;42.85452159572305;13.821696639060974
26699;camaioni&cocciasnc;CAMAIONI & COCCIA DI CAMAIONI VALENTINO E C. S.N.C.;viale adriatico 168 64013;42.83309916880977;13.897984027862549
22682;CARBURANTI IP;TONELLI GIOVANNI;VIA DELLA VITTORIA 15 64013;42.825843233233144;13.836161110708531
33236;Eni Corropoli;PETROLBITUMI - SOCIETA A RESPONSABILITA LIMITATA;VIA GRAN SASSO 168 64013;42.813531697774664;13.8330936504791
32182;Stazione di Servizio IP - Corropoli;SIMONETTI MARIO S.R.L.;S.S. 259 Vibrata Km 5 + 136  64013;42.81822224586316;13.866492517132542
50056;CortinOil;COMUNE DI CORTINO;Strada Provinciale 47 - Frazione Cunetta 13 64040;42.62503256396056;13.58334559755327
53568;Carburanti Ceci Francesca;CECI FRANCESCA;EX S.S. 80 G. SASSO KM.42+580 44 64043;42.552762;13.4778421
55204;17373 GIULIANOVA;ENI FUEL S.P.A.;SS80  ;42.72129;13.936366
17457;CIPRIETTI;CIPRIETTI S.R.L.;Statale 16 Adriatica, Km. 406+664, dir. PESCARA  64022;42.77386323364265;13.95200103521347
4535;ECOFUEL - GIULIANOVA;METANAUTO GIULIANOVA SRL;VIA CUPA SNC 64021;42.72993573868717;13.950801212977126
52806;ENI 07375;PAPA ANDREA;GALILEO GALILEI 344 64021;42.7483321;13.9577366
34771;Esso D.E.MA. S.n.c.;D.E.MA. DI REGNICOLI MARLISE & MAZZAGUFO ARDUINO S.N.C.;Statale 16 Adriatica, Km. 481, dir. Tortoreto  64021;42.778200926333135;13.949544131755829
25225;impianto eni 7372;SE.FRA. SERVICE DI IGNAZII SETTIMIO & C. S.A.S.;via filippo turati 138   ;42.74650495658218;13.967650208459418
51696;IP;ANGELONE NADYA TERESA;16 Adriatica, Km. 410+115, nord - 64021;42.745449876129086;13.968653551314562
54075;IP ;ANGELONE NADYA TERESA;VIA GALILEO GALILEI  261 263 64021;42.7500663;13.9724254
46696;ip Pedro's Cafe';DI CARLO GIANCARLO;CUPA/ANG. VIA CERULLI SNC 64021;42.7465188999533;13.956964627106913
13419;MARCO SANTUCCI;SANTUCCI MARCO;VIA GALILEI 183 64021;42.75654945214124;13.961881561238101
54396;SHELL GIULIANOVA LOC. TORRE SAVINI;PAD MULTIENERGY S.P.A;80 KM99+292 SNC 64021;42.731944400000003;13.959031100000001
45941;Esso Bonfini;BONFINI MARIO;via Roma SNC 64045;42.50297610310092;13.658946305513382
38828;Gran Sasso Carburanti e Servizi s.r.l.;GRAN SASSO CARBURANTI E SERVIZI S.R.L.;VIA SAN GABRIELE SNC 64045;42.51006183865435;13.656669035553932
26102;7382 MARTINSICURO TERAMO ;ENI FUEL S.P.A.;Statale 16 Adriatica, Km. 396 +315 , dir. VILLA ROSA  - 64014;42.855225515586774;13.912958800792694
27552;esso;RE RICCARDO;VIA ROMA 289 64014;42.882165255437;13.915455937385559
43883;GARSOLINE;GARSOLINE SOCIETA' A RESPONSABILITA' LIMITATA;VIA RISORGIMENTO STRADA PROV. 259 64014;42.83596496687254;13.913563046627019
35277;Ip;DITTA DI BATTISTA ALBERINDO S.R.L.;VIA ROMA 751 64010;42.83640220276256;13.91900785267353
47683;IP;ILLUMINATI FABRIZIO;16 Adriatica, Km. 393,600, sud  64014;42.87857389269861;13.904569521546364
53678;IP B.N ITALIANKING S.R.L.;B. N ITALIAN KING GROUP S.R.L.S.;G. DI VITTORIO 19 64014;42.76085;13.95989
53620;self area agip gaetani f.&l.snc;GAETANI FRANCESCO E LUIGI S.N.C.;ROMA 725 64014;42.868079;13.9085989
18678;Total Erg;CARBONE PIERO;CONTRADA GIARDINO VIA ROMA SNC 64014;42.86505728189829;13.92070726745078
52441;TRUCK ONE VIA ROMA ;TRUCK ONE SRL;VIA ROMA 16 64010;42.88897437520469;13.905158172764837
41634;IP MONTEFINO;COLETTI GABRIELLA;MONTEFINO STRADA PROVINCIALE 31 64030;42.55950862238393;13.922130310327248
34957;8146;T.D.M. S.R.L.;SETTEMBRINI 97 64046;42.580348954935026;13.6285400390625
33925;FAIAZZA LUIGI;FAIAZZA LUIGI;VILLA SCARICAMAZZA 21 64046;42.590507449190966;13.692162937699322
9329;Ip (ex Api);CARBURANTI MARTEGIANI DI MARTEGIANI ERCOLE E MARTEGIANI MASSIMO E C. S.N.C.;L. SETTEMBRINI 52 64046;42.579311201828126;13.633348911253393
52458;Pegasoil Carburanti;PEGASOIL CARBURANTI SOCIETA' A RESPONSABILITA' LIMITATA SEMPLIFICATA;Via Piane S.S 150km 35,750 snc 64046;42.58221767692324;13.649496449073778
40027;ENI STATION BIVIO FONTANELLE N° 7385;DE FEDERICIS ALEX;Strada Statale 150 KM 9+800, dir Sud  64020;42.6353997939098;13.91804869730072
3543;VOMANO EST;VOMANO CARBURANTI S.R.L;Autostrada A14 BOLOGNA-BARI-TARANTO, Km. 340+300, dir. Nord - 64020;42.66911693959657;13.94237621097568
53673;VOMANO OVEST;VOMANO OVEST S.R.L;Autostrada A14 BOLOGNA-BARI-TARANTO,  Km. 340.300, dir. SUD 64020;42.67023828480174;13.940557492065409
36330;DE. PI.;C. & C. FUEL S.R.L.;S.P. 22 A  64023;42.71029613251254;13.911508863754307
33579;DP2 S.r.l.;D.P.2 S.R.L.;S.P.262 Dir Km. 4+523  64023;42.72275258870482;13.90664431941052
41457;ENI di Di Pasquale sas;DI PASQUALE S.A.S.DI DI PASQUALE G. & C.;80 racc di Teramo, Km. 93+490, Teramo  64023;42.7091859182368;13.899759650230408
56343;MOSCIANO SANT'ANGELO;"IP SERVICES S.R.L.";DANTE ALIGHIERI SNC 64023;42.742245;13.893452
50618;DISTRIBUTORE NERETO GPL VIA CARLO MARX;PAD MULTIENERGY S.P.A;VIA CARLO MARX  64015;42.81477550332803;13.821249854801984
50631;ESSO - NERETO V.LE EUROPA 16;PAD MULTIENERGY S.P.A;V.LE EUROPA 16 64015;42.81428890170949;13.82150868685675
42533;Vulcangas;SOCIETA' ITALIANA GAS LIQUIDI S.P.A.;VIA CERTOSA ZONA INDUSTRIALE SNC 64015;42.809265532865375;13.817023545230086
54081;D.P. 2S.r.l.;D.P.2 S.R.L.;S.S. 553 KM 10+100 SNC 64024;42.466697446796864;14.05279855957032
24477;Euroservice Snc \t;EUROSERVICE S.N.C. DI VITALI R. & M.;SALAROTTA SNC 64024;42.63087557825519;13.8773712515831
43922;STAZIONE DI SERVIZIO IP - NOTARESCO;SIMONETTI MARIO S.R.L.;SS 150 KM 11+050  64024;42.63230113712433;13.90444278717041
13901;di mattia s.n.c;SELF AREA DI MATTIA DI DI MATTIA CLADIO & FIGLI S.N.C.;VIA NAZIONALE VAL VOMANO SNC 64039;42.60889842333032;13.758829683065414
26103;7345 PINETO TERAMO ;ENI FUEL S.P.A.;Statale 16 Adriatica, Km. 423+712, dir. FRAZ SCERNE - 64025;42.638122224979966;14.044137597084045
46676;ECOFUEL - PINETO;CM SRL; S.S.16KM 428+235 SNC 64025;42.60272752307022;14.068242610970856
18786;Frezza IP Pineto;FREZZA ARIODANTE IVO;NAZIONALE SUD 92 64025;42.593562492419366;14.079912550926224
40915;IP;COLETTI GABRIELLA;zona industriale Scerne di Pineto snc ;42.6425060325968;14.02366429567337
48841;Metano Pineto;RITA GAS S.R.L.;16 Adriatica, Km. 428+235, SN - 64025;42.60250459141834;14.068442157077786
54978;Ok Pineto;FEA S.R.L.;NAZIONALE 60 64025;42.62569;14.05383
8531;PINETO S.S.16 KM 425+894;SERVIZI & GESTIONI ITALIA S.R.L.;S.S.16 KM 425+894  64025;42.62099012599253;14.057157726983633
55156; ADS ROSETO ;SARNI S.R.L.;Strada statale 16  km  414+008  64026;42.2019072;14.5620992
19970;API;AUTOSERVIZIO M.C. S.N.C. DI MARINI PASQUALE & CIANCAIONI PASQUALE;Via Nazionale 345 64026;42.6743005998721;14.016968160867691
19971;API;AUTOSERVIZIO M.C. S.N.C. DI MARINI PASQUALE & CIANCAIONI PASQUALE;Via Nazionale 345 64026;42.6743005998721;14.016968160867691
23501;D'alonzo Piacentino e C snc;AUTOLAVAGGIO D'ALONZO P. & C. S.N.C.;via val vomano cda San Giovanni s.n.c. 64026;42.65393982081101;13.985739946365356
46914;Eni Roseto;PETROLBITUMI - SOCIETA A RESPONSABILITA LIMITATA;STRADA STATALE 150 KM 6+080  64026;42.64628104470266;13.960463797416145
21097;ENI SHOP CAFE';F.LLI DI FRANCESCO LUIGI & DOMENICO S.N.C.;Statale 16 Adriatica, Km. 420+360, dir. Ancona - 64026;42.66382873783094;14.02508720755577
55395;F.LLI DI FRANCESCO L&D SNC;F.LLI DI FRANCESCO LUIGI & DOMENICO S.N.C.;S.S.16 KM 417.600 21 64026;42.8372;13.8084
27013;FC AUTOLAVAGGIO DI CICIONI ANDREA;FC AUTOLAVAGGIO DI CICIONI ANDREA;VIA NAZIONALE ADRIATICA Km. 415+758  64026;42.70006426172763;13.997131935355242
50150;GOLDEN GAS;DI PAOLO LOREDANA;STRADA PROVINCIALE 62 CASAL THAULERO SNC 64026;42.65187098501652;13.975997100291039
8789;Lino Roscioli;ROSETO CARBURANTI S.N.C. DI ROSCIOLI LINO & C.;VIA NAZIONALE 436 64026;42.66883467429961;14.02073944841004
35067;ROSETO;"IP SERVICES S.R.L.";SS 150 KM 2+047  64026;42.65920736760386;14.006040841341019
33682;ROSETO ABRUZZI - S.S. 16;"IP SERVICES S.R.L.";S.S. 16 KM. 414,808  64026;42.70931576719226;13.991118775463065
42940;Roseto Energy Point srl;ROSETO ENERGY POINT S.R.L.;località bivio Casale  64026;42.64985760538081;13.975675326389364
16790;stazione IP;IPPONE ANGELO;Strada Statale 150, Km. 1,450, dir. nord  64026;42.660347653120404;14.012847617268562
22084;TOTALERG FALA' FRANCO;FALA' FRANCO;VIA NAZIONALE 421 64026;42.67185748815538;14.018887774764607
49636;Vulcangas Retitalia 1052 Roseto;SOCIETA' ITALIANA GAS LIQUIDI S.P.A.;VIA IRLANDA 21 64026;42.65278282250508;14.002815451555243
8369;Distrubutore Q8 di Basciani Denis;BASCIANI DENIS;VIA APRUTINA  64016;42.81934861543728;13.69672964181973
21828;ENI;ROSATI SILVESTRO;VIA S.S. 259 KM.21+482  64016;42.826583981949724;13.707856893539429
39056;MENNILLI PETROLI S.EGIDIO VIB.;MENNILLI PETROLI S.R.L.;viale kennedy  197 64016;42.80977222843477;13.736009656414012
50086;TRUCK ONE SRL 2;TRUCK ONE SRL;SS 259 KM. 20+088  SNC 64016;42.82028649641054;13.720577439302915
48510;IP;WHA S.A.S. DI DI PANCRAZIO FRANCESCO E C.;VIA METELLA NUOVA STRADA PROVINCIALE 259  64027;42.79829055300331;13.774634915344247
46258;SANT'OMERO;PRIYA JANNAT DI HASSAN NAHID;S.P. 12 KM0+180  SNC 64027;42.79562822737689;13.798889108250592
42241;stazione di servizio IP Edilmaral s.n.c.;EDILMARAL S.N.C. DI SPADA MARIO E C.;via mediana 11 64027;42.7766408220924;13.780286014080048
12744;eni;DI COSTANZO A. & C. S.N.C.;Statale 16 Adriatica, Km. 434, dir. sud 190 64028;42.55454003155322;14.113480746746063
34350;ENI CAFE';VECCHIO PASQUALE;Statale 16 Adriatica, Km. 436+170, dir. SUD  64028;42.54425649675985;14.122110083699226
41295;la luna paolo;LA LUNA PAOLO;16 Adriatica, Km. 433+170, nord - 64028;42.56691762427973;14.102570191025734
54853;Q8;FUTURO PULITO - S.N.C. DI FRANCESCO CAPONE E D.C.B. S.A.S. DI DI CECCO LUIS FERNANDO E DI CECCO CRISTHIAN ISRAEL & C.;VIA NAZIONALE ADRIATICA SUD KM 437 64028;42.3635738;14.1524522
6614;SILVI MARINA SS 16 C/O C/COMMERCIALE UNIVERSO;SERVIZI & GESTIONI ITALIA S.R.L.;SS 16 C/O C/COMMERCIALE UNIVERSO SNC 64028;42.57250364792621;14.097891747951508
3715;TORRE CERRANO EST;ANTONIO GENTILE S.A.S.;Autostrada A14 BOLOGNA-BARI-TARANTO, Km. 363+100, dir. Nord - 64028;42.53145182456004;14.124681167984022
34295;TORRE CERRANO OVEST;FEVA S.A.S. DI BAGNATO FRANCESCO STEFANO & C.;Autostrada A14 BOLOGNA-BARI-TARANTO, Km. 362+400, dir. SUD - 64028;42.53052383601481;14.12510946393013
53762;7390 Teramo;ENI FUEL S.P.A.;SS80 77  67100;42.6671;13.724799
21125;A.&G. SRL stazione di servizio ESSO;A. & G. S.R.L.;FRAZIONE SAN NICOLO' A TORDINO SNC, 64020 - -;42.69165738703262;13.782866299152374
14673;AREA DI SERVIZIO IP;CASTELLI BRUNO;STRADA PROVINCIALE  51   64100;42.68229698133217;13.663072139024734
46394;cona benz sas ;CONA BENZ S.A.S. DI SINIGAGLIA TOMMASO & C.;VIA CONA 134 64100;42.65210189085843;13.68163926130751
53457;DGA OIL & GAS;DGA OIL & GAS;Frazione Scapriano snc 64100;42.670859110238894;13.686780967536931
42670;DI.GI DI WALTER DI GIACINTO & C. S.N.C.;DI.GI DI WALTER DI GIACINTO & C. S.N.C.;VIA FLAIANI SNC 64100;42.665158818550815;13.716510965641419
40460;DI.VA. srl;DI.VA. SRL;Statale 80 racc di Teramo, Km. 4+300, dir. ovest - 64100;42.687810162056216;13.781525194644928
14512;DISTRIBUTORE IP;D'ANGELANTONIO MARIO;VIA S.S.80 KM. 69+531 SNC 64100;42.62798291945086;13.656970113515854
23921;DONZELLI RICCARDO & C. Snc;DONZELLI RICCARDO & C. S.N.C.;Statale 80 racc di Teramo, Km. 77+842, dir. GIULIANOVA - 64100;42.66711615131213;13.724825978279114
52510;eni station bonavita gianni;BONAVITA GIANNI;VIALE FRANCESCO CRISPI SNC 64100;42.66350527363277;13.720249157102904
44056;Goldengas;D'ORAZIO TRADING & TRADING DI D'ORAZIO G.;Bivio S.Atto Loc.Case Taraschi SNC 64100;42.700769724773885;13.795472606440057
5638;MAURO MACCHIAVELLI;SELF AREA TERAMO - MARE S.N.C. DI STACCHIOTTI D. & MACCHIAVELLI M.;SS80 2.300 (TE- MARE) snc 64100;42.67944615032178;13.759759068489075
48063;PEGASOIL CARBURANTI;PEGASOIL CARBURANTI SOCIETA' A RESPONSABILITA' LIMITATA SEMPLIFICATA;PIANA PICCOLA FORCELLA  SNC 64100;42.61944496382388;13.778284415602684
33499;PETROL GAMMA PIANO DELLA LENTA;PETROL GAMMA S.R.L.;81 Piceno Aprutina, Km. 31232, ASCOLI PICENO - 64100;42.67752371151748;13.674368262290955
33498;PETROL GAMMA S.S. 80;PETROL GAMMA S.R.L.;80 racc di Teramo, Km. 6,600, SANT'ATTO  64100;42.69414847316337;13.806104958057404
34263;PETROL PICENA - Teramo;PETROL PICENA SRL;Via F. Crispi 37 64100;42.660829840929075;13.715291561263143
33242;Q8;D'ANGELANTONIO BERARDO E C. S.A.S;PIAZZA SAN FRANCESCO SNC 64100;42.66045495443963;13.707705438137054
29426;S.S.80 TERAMO-MARE - TERAMO;SERVIZI & GESTIONI ITALIA S.R.L.;S.S.80 TERAMO-MARE  64100;42.67499277160871;13.754568994045258
28370;STAZIONE DI SERVIZIO ESSO DI CAPORALE PIERLUIGI;CAPORALE PIERLUIGI;VIA S.S.80 KM 75-940 SN 64100;42.662852322009456;13.706046491861343
13768;STAZIONE IP COLLEATTERRATO;ANTICO GABRIELE;Via A. Biondi Loc.Colleatterrato 1 64100;42.674044632501186;13.734953999519348
49517;TERAMO;PRIYA JANNAT DI HASSAN NAHID;VIALE CRISPI 124 64100;42.665616000123;13.723551000123
4552;TERAMO;METANO PUGLIA DI CARDINALI PIETRACCI MAURO;FRAZIONE NEPEZZANO/FIUMICINO , 64020  64100;42.68822620573105;13.77623543373818
32458;TERAMO - S.ATTO;"IP SERVICES S.R.L.";FRAZ. SANT'ATTO S.S. 80 KM 86,187  64100;42.70291773991983;13.811848279762216
6613;TERAMO F CRISPI;SERVIZI & GESTIONI ITALIA S.R.L.;VIALE F CRISPI SNC 64100;42.66107834737426;13.71612838502665
11845;TERAMO-C/O CENTRO COMMERCIALE GRAN SASSO;SERVIZI & GESTIONI ITALIA S.R.L.;C/O CENTRO COMMERCIALE GRAN SASSO S/N 64100;42.680384225464564;13.758664373016359
42598;tamoil;BONADUCE MIRKO;VIA ALCIDE DE GASPARI SNC 64010;42.65836182818318;13.655834290208759
56640;Eni Station Triventi;MATTEO TRIVENTI;S.S. ADRIATICA 16 KM 402 SNC 64018;42.81004;13.93229
48517;MENNILLI PETROLI TORTORETO;MENNILLI PETROLI S.R.L.;S.P. 8 del salinello km 6+337  64018;42.79412390332099;13.875273748309471
52069;Q8;RAPAGNA' GIANCARLO;16 Adriatica, Km. 404+180, SUD - 64018;42.794414882838836;13.940540687475181
54699;TORTORETO EST;ADRIATICA GESTIONI S.A.S. DI ZANINI LEOPOLDO & C.;Autostrada A14 BOLOGNA-BARI-TARANTO,  Km. 323,5, dir. NORD 64018;42.80483924355712;13.928732872009277
3747;TORTORETO OVEST;FRATELLI NEPA DI NEPA UMBERTO & C. S.A.S.;Autostrada A14 BOLOGNA-BARI-TARANTO, Km. 323+700, dir. Sud - 64018;42.804928603655796;13.927629153442354
18296;Bianchini Anna IP;BIANCHINI ANNA;via provinciale 23 64010;42.73606951627091;13.496384918689728
